<?xml version="1.0" encoding="UTF-8"?>
<gpx creator="strava-studio" version="1.1"
     xmlns="http://www.topografix.com/GPX/1/1">
  <metadata><time>2026-09-08T09:05:00.000Z</time></metadata>
  <trk>
    <name>Plaine de Fribourg</name>
    <type>ride</type>
    <trkseg>
      <trkpt lat="46.812146" lon="7.148205">
        <ele>552.8</ele>
        <time>2026-09-08T09:05:00.000Z</time>
      </trkpt>
      <trkpt lat="46.812233" lon="7.148389">
        <ele>551.7</ele>
        <time>2026-09-08T09:05:04.000Z</time>
      </trkpt>
      <trkpt lat="46.812369" lon="7.148642">
        <ele>554.2</ele>
        <time>2026-09-08T09:05:08.000Z</time>
      </trkpt>
      <trkpt lat="46.812497" lon="7.148884">
        <ele>553.9</ele>
        <time>2026-09-08T09:05:12.000Z</time>
      </trkpt>
      <trkpt lat="46.812447" lon="7.148876">
        <ele>555.4</ele>
        <time>2026-09-08T09:05:16.000Z</time>
      </trkpt>
      <trkpt lat="46.812761" lon="7.149378">
        <ele>556.1</ele>
        <time>2026-09-08T09:05:20.000Z</time>
      </trkpt>
      <trkpt lat="46.812680" lon="7.149327">
        <ele>556.2</ele>
        <time>2026-09-08T09:05:24.000Z</time>
      </trkpt>
      <trkpt lat="46.812841" lon="7.149615">
        <ele>556.8</ele>
        <time>2026-09-08T09:05:28.000Z</time>
      </trkpt>
      <trkpt lat="46.813063" lon="7.149989">
        <ele>557.3</ele>
        <time>2026-09-08T09:05:32.000Z</time>
      </trkpt>
      <trkpt lat="46.813184" lon="7.150221">
        <ele>557.7</ele>
        <time>2026-09-08T09:05:36.000Z</time>
      </trkpt>
      <trkpt lat="46.813188" lon="7.150289">
        <ele>558.6</ele>
        <time>2026-09-08T09:05:40.000Z</time>
      </trkpt>
      <trkpt lat="46.813339" lon="7.150564">
        <ele>559.3</ele>
        <time>2026-09-08T09:05:44.000Z</time>
      </trkpt>
      <trkpt lat="46.813450" lon="7.150782">
        <ele>561.0</ele>
        <time>2026-09-08T09:05:48.000Z</time>
      </trkpt>
      <trkpt lat="46.813598" lon="7.151051">
        <ele>561.4</ele>
        <time>2026-09-08T09:05:52.000Z</time>
      </trkpt>
      <trkpt lat="46.813808" lon="7.151408">
        <ele>560.3</ele>
        <time>2026-09-08T09:05:56.000Z</time>
      </trkpt>
      <trkpt lat="46.813754" lon="7.151395">
        <ele>561.3</ele>
        <time>2026-09-08T09:06:00.000Z</time>
      </trkpt>
      <trkpt lat="46.814139" lon="7.151996">
        <ele>563.5</ele>
        <time>2026-09-08T09:06:04.000Z</time>
      </trkpt>
      <trkpt lat="46.814241" lon="7.152202">
        <ele>564.1</ele>
        <time>2026-09-08T09:06:08.000Z</time>
      </trkpt>
      <trkpt lat="46.814361" lon="7.152432">
        <ele>563.7</ele>
        <time>2026-09-08T09:06:12.000Z</time>
      </trkpt>
      <trkpt lat="46.814480" lon="7.152662">
        <ele>565.2</ele>
        <time>2026-09-08T09:06:16.000Z</time>
      </trkpt>
      <trkpt lat="46.814549" lon="7.152821">
        <ele>566.6</ele>
        <time>2026-09-08T09:06:20.000Z</time>
      </trkpt>
      <trkpt lat="46.814706" lon="7.153104">
        <ele>567.4</ele>
        <time>2026-09-08T09:06:24.000Z</time>
      </trkpt>
      <trkpt lat="46.814653" lon="7.153092">
        <ele>567.2</ele>
        <time>2026-09-08T09:06:28.000Z</time>
      </trkpt>
      <trkpt lat="46.815062" lon="7.153727">
        <ele>566.9</ele>
        <time>2026-09-08T09:06:32.000Z</time>
      </trkpt>
      <trkpt lat="46.815084" lon="7.153821">
        <ele>568.4</ele>
        <time>2026-09-08T09:06:36.000Z</time>
      </trkpt>
      <trkpt lat="46.815286" lon="7.154167">
        <ele>568.2</ele>
        <time>2026-09-08T09:06:40.000Z</time>
      </trkpt>
      <trkpt lat="46.815441" lon="7.154446">
        <ele>568.9</ele>
        <time>2026-09-08T09:06:44.000Z</time>
      </trkpt>
      <trkpt lat="46.815414" lon="7.154470">
        <ele>570.4</ele>
        <time>2026-09-08T09:06:48.000Z</time>
      </trkpt>
      <trkpt lat="46.815585" lon="7.154773">
        <ele>571.3</ele>
        <time>2026-09-08T09:06:52.000Z</time>
      </trkpt>
      <trkpt lat="46.815570" lon="7.154814">
        <ele>572.9</ele>
        <time>2026-09-08T09:06:56.000Z</time>
      </trkpt>
      <trkpt lat="46.815736" lon="7.155109">
        <ele>573.3</ele>
        <time>2026-09-08T09:07:00.000Z</time>
      </trkpt>
      <trkpt lat="46.815809" lon="7.155275">
        <ele>573.5</ele>
        <time>2026-09-08T09:07:04.000Z</time>
      </trkpt>
      <trkpt lat="46.816104" lon="7.155750">
        <ele>574.2</ele>
        <time>2026-09-08T09:07:08.000Z</time>
      </trkpt>
      <trkpt lat="46.816027" lon="7.155704">
        <ele>575.7</ele>
        <time>2026-09-08T09:07:12.000Z</time>
      </trkpt>
      <trkpt lat="46.816241" lon="7.156066">
        <ele>576.5</ele>
        <time>2026-09-08T09:07:16.000Z</time>
      </trkpt>
      <trkpt lat="46.816290" lon="7.156199">
        <ele>576.8</ele>
        <time>2026-09-08T09:07:20.000Z</time>
      </trkpt>
      <trkpt lat="46.816395" lon="7.156408">
        <ele>576.5</ele>
        <time>2026-09-08T09:07:24.000Z</time>
      </trkpt>
      <trkpt lat="46.816657" lon="7.156837">
        <ele>578.1</ele>
        <time>2026-09-08T09:07:28.000Z</time>
      </trkpt>
      <trkpt lat="46.816792" lon="7.157089">
        <ele>578.3</ele>
        <time>2026-09-08T09:07:32.000Z</time>
      </trkpt>
      <trkpt lat="46.816946" lon="7.157277">
        <ele>578.2</ele>
        <time>2026-09-08T09:07:36.000Z</time>
      </trkpt>
      <trkpt lat="46.817270" lon="7.157705">
        <ele>580.1</ele>
        <time>2026-09-08T09:07:40.000Z</time>
      </trkpt>
      <trkpt lat="46.817397" lon="7.157856">
        <ele>581.7</ele>
        <time>2026-09-08T09:07:44.000Z</time>
      </trkpt>
      <trkpt lat="46.817516" lon="7.157995">
        <ele>581.9</ele>
        <time>2026-09-08T09:07:48.000Z</time>
      </trkpt>
      <trkpt lat="46.817762" lon="7.158313">
        <ele>582.1</ele>
        <time>2026-09-08T09:07:52.000Z</time>
      </trkpt>
      <trkpt lat="46.817717" lon="7.158223">
        <ele>582.0</ele>
        <time>2026-09-08T09:07:56.000Z</time>
      </trkpt>
      <trkpt lat="46.817856" lon="7.158391">
        <ele>583.5</ele>
        <time>2026-09-08T09:08:00.000Z</time>
      </trkpt>
      <trkpt lat="46.818134" lon="7.158753">
        <ele>583.9</ele>
        <time>2026-09-08T09:08:04.000Z</time>
      </trkpt>
      <trkpt lat="46.818439" lon="7.159153">
        <ele>584.8</ele>
        <time>2026-09-08T09:08:08.000Z</time>
      </trkpt>
      <trkpt lat="46.818473" lon="7.159173">
        <ele>587.3</ele>
        <time>2026-09-08T09:08:12.000Z</time>
      </trkpt>
      <trkpt lat="46.818671" lon="7.159424">
        <ele>586.8</ele>
        <time>2026-09-08T09:08:16.000Z</time>
      </trkpt>
      <trkpt lat="46.818912" lon="7.159735">
        <ele>589.2</ele>
        <time>2026-09-08T09:08:20.000Z</time>
      </trkpt>
      <trkpt lat="46.819029" lon="7.159872">
        <ele>588.4</ele>
        <time>2026-09-08T09:08:24.000Z</time>
      </trkpt>
      <trkpt lat="46.819175" lon="7.160050">
        <ele>590.3</ele>
        <time>2026-09-08T09:08:28.000Z</time>
      </trkpt>
      <trkpt lat="46.819191" lon="7.160044">
        <ele>591.7</ele>
        <time>2026-09-08T09:08:32.000Z</time>
      </trkpt>
      <trkpt lat="46.819356" lon="7.160248">
        <ele>591.2</ele>
        <time>2026-09-08T09:08:36.000Z</time>
      </trkpt>
      <trkpt lat="46.819630" lon="7.160606">
        <ele>591.6</ele>
        <time>2026-09-08T09:08:40.000Z</time>
      </trkpt>
      <trkpt lat="46.819778" lon="7.160786">
        <ele>594.1</ele>
        <time>2026-09-08T09:08:44.000Z</time>
      </trkpt>
      <trkpt lat="46.820023" lon="7.161102">
        <ele>595.2</ele>
        <time>2026-09-08T09:08:48.000Z</time>
      </trkpt>
      <trkpt lat="46.820108" lon="7.161194">
        <ele>594.5</ele>
        <time>2026-09-08T09:08:52.000Z</time>
      </trkpt>
      <trkpt lat="46.820131" lon="7.161200">
        <ele>595.2</ele>
        <time>2026-09-08T09:08:56.000Z</time>
      </trkpt>
      <trkpt lat="46.820351" lon="7.161481">
        <ele>598.3</ele>
        <time>2026-09-08T09:09:00.000Z</time>
      </trkpt>
      <trkpt lat="46.820669" lon="7.161900">
        <ele>598.0</ele>
        <time>2026-09-08T09:09:04.000Z</time>
      </trkpt>
      <trkpt lat="46.820899" lon="7.162195">
        <ele>598.8</ele>
        <time>2026-09-08T09:09:08.000Z</time>
      </trkpt>
      <trkpt lat="46.821079" lon="7.162420">
        <ele>598.5</ele>
        <time>2026-09-08T09:09:12.000Z</time>
      </trkpt>
      <trkpt lat="46.821002" lon="7.162285">
        <ele>599.9</ele>
        <time>2026-09-08T09:09:16.000Z</time>
      </trkpt>
      <trkpt lat="46.821187" lon="7.162516">
        <ele>601.1</ele>
        <time>2026-09-08T09:09:20.000Z</time>
      </trkpt>
      <trkpt lat="46.821424" lon="7.162823">
        <ele>602.1</ele>
        <time>2026-09-08T09:09:24.000Z</time>
      </trkpt>
      <trkpt lat="46.821639" lon="7.163096">
        <ele>604.4</ele>
        <time>2026-09-08T09:09:28.000Z</time>
      </trkpt>
      <trkpt lat="46.821700" lon="7.163155">
        <ele>603.1</ele>
        <time>2026-09-08T09:09:32.000Z</time>
      </trkpt>
      <trkpt lat="46.821978" lon="7.163518">
        <ele>604.9</ele>
        <time>2026-09-08T09:09:36.000Z</time>
      </trkpt>
      <trkpt lat="46.822224" lon="7.163835">
        <ele>605.5</ele>
        <time>2026-09-08T09:09:40.000Z</time>
      </trkpt>
      <trkpt lat="46.822307" lon="7.163923">
        <ele>606.5</ele>
        <time>2026-09-08T09:09:44.000Z</time>
      </trkpt>
      <trkpt lat="46.822469" lon="7.164124">
        <ele>606.8</ele>
        <time>2026-09-08T09:09:48.000Z</time>
      </trkpt>
      <trkpt lat="46.822682" lon="7.164395">
        <ele>608.9</ele>
        <time>2026-09-08T09:09:52.000Z</time>
      </trkpt>
      <trkpt lat="46.822710" lon="7.164407">
        <ele>609.3</ele>
        <time>2026-09-08T09:09:56.000Z</time>
      </trkpt>
      <trkpt lat="46.822953" lon="7.164721">
        <ele>610.0</ele>
        <time>2026-09-08T09:10:00.000Z</time>
      </trkpt>
      <trkpt lat="46.823218" lon="7.165065">
        <ele>611.4</ele>
        <time>2026-09-08T09:10:04.000Z</time>
      </trkpt>
      <trkpt lat="46.823378" lon="7.165380">
        <ele>612.8</ele>
        <time>2026-09-08T09:10:08.000Z</time>
      </trkpt>
      <trkpt lat="46.823555" lon="7.165720">
        <ele>615.0</ele>
        <time>2026-09-08T09:10:12.000Z</time>
      </trkpt>
      <trkpt lat="46.823569" lon="7.165831">
        <ele>615.3</ele>
        <time>2026-09-08T09:10:16.000Z</time>
      </trkpt>
      <trkpt lat="46.823912" lon="7.166404">
        <ele>615.9</ele>
        <time>2026-09-08T09:10:20.000Z</time>
      </trkpt>
      <trkpt lat="46.823960" lon="7.166562">
        <ele>617.8</ele>
        <time>2026-09-08T09:10:24.000Z</time>
      </trkpt>
      <trkpt lat="46.824084" lon="7.166827">
        <ele>620.3</ele>
        <time>2026-09-08T09:10:28.000Z</time>
      </trkpt>
      <trkpt lat="46.824416" lon="7.167383">
        <ele>619.8</ele>
        <time>2026-09-08T09:10:32.000Z</time>
      </trkpt>
      <trkpt lat="46.824319" lon="7.167339">
        <ele>623.3</ele>
        <time>2026-09-08T09:10:36.000Z</time>
      </trkpt>
      <trkpt lat="46.824541" lon="7.167741">
        <ele>623.8</ele>
        <time>2026-09-08T09:10:40.000Z</time>
      </trkpt>
      <trkpt lat="46.824659" lon="7.167998">
        <ele>625.2</ele>
        <time>2026-09-08T09:10:44.000Z</time>
      </trkpt>
      <trkpt lat="46.824985" lon="7.168546">
        <ele>625.4</ele>
        <time>2026-09-08T09:10:48.000Z</time>
      </trkpt>
      <trkpt lat="46.825186" lon="7.168919">
        <ele>627.9</ele>
        <time>2026-09-08T09:10:52.000Z</time>
      </trkpt>
      <trkpt lat="46.825341" lon="7.169227">
        <ele>629.4</ele>
        <time>2026-09-08T09:10:56.000Z</time>
      </trkpt>
      <trkpt lat="46.825550" lon="7.169612">
        <ele>630.6</ele>
        <time>2026-09-08T09:11:00.000Z</time>
      </trkpt>
      <trkpt lat="46.825652" lon="7.169846">
        <ele>630.9</ele>
        <time>2026-09-08T09:11:04.000Z</time>
      </trkpt>
      <trkpt lat="46.825834" lon="7.170192">
        <ele>634.3</ele>
        <time>2026-09-08T09:11:08.000Z</time>
      </trkpt>
      <trkpt lat="46.825807" lon="7.170246">
        <ele>633.9</ele>
        <time>2026-09-08T09:11:12.000Z</time>
      </trkpt>
      <trkpt lat="46.826163" lon="7.170836">
        <ele>637.0</ele>
        <time>2026-09-08T09:11:16.000Z</time>
      </trkpt>
      <trkpt lat="46.826148" lon="7.170908">
        <ele>637.2</ele>
        <time>2026-09-08T09:11:20.000Z</time>
      </trkpt>
      <trkpt lat="46.826467" lon="7.171446">
        <ele>638.5</ele>
        <time>2026-09-08T09:11:24.000Z</time>
      </trkpt>
      <trkpt lat="46.826447" lon="7.171509">
        <ele>641.5</ele>
        <time>2026-09-08T09:11:28.000Z</time>
      </trkpt>
      <trkpt lat="46.826803" lon="7.172099">
        <ele>641.5</ele>
        <time>2026-09-08T09:11:32.000Z</time>
      </trkpt>
      <trkpt lat="46.827067" lon="7.172560">
        <ele>642.3</ele>
        <time>2026-09-08T09:11:36.000Z</time>
      </trkpt>
      <trkpt lat="46.826984" lon="7.172535">
        <ele>643.2</ele>
        <time>2026-09-08T09:11:40.000Z</time>
      </trkpt>
      <trkpt lat="46.827217" lon="7.172953">
        <ele>645.7</ele>
        <time>2026-09-08T09:11:44.000Z</time>
      </trkpt>
      <trkpt lat="46.827261" lon="7.173107">
        <ele>648.3</ele>
        <time>2026-09-08T09:11:48.000Z</time>
      </trkpt>
      <trkpt lat="46.827463" lon="7.173480">
        <ele>649.4</ele>
        <time>2026-09-08T09:11:52.000Z</time>
      </trkpt>
      <trkpt lat="46.827808" lon="7.174055">
        <ele>650.2</ele>
        <time>2026-09-08T09:11:56.000Z</time>
      </trkpt>
      <trkpt lat="46.827987" lon="7.174398">
        <ele>652.1</ele>
        <time>2026-09-08T09:12:00.000Z</time>
      </trkpt>
      <trkpt lat="46.827994" lon="7.174499">
        <ele>651.9</ele>
        <time>2026-09-08T09:12:04.000Z</time>
      </trkpt>
      <trkpt lat="46.828251" lon="7.174950">
        <ele>655.2</ele>
        <time>2026-09-08T09:12:08.000Z</time>
      </trkpt>
      <trkpt lat="46.828513" lon="7.175409">
        <ele>655.6</ele>
        <time>2026-09-08T09:12:12.000Z</time>
      </trkpt>
      <trkpt lat="46.828445" lon="7.175405">
        <ele>657.9</ele>
        <time>2026-09-08T09:12:16.000Z</time>
      </trkpt>
      <trkpt lat="46.828688" lon="7.175836">
        <ele>658.6</ele>
        <time>2026-09-08T09:12:20.000Z</time>
      </trkpt>
      <trkpt lat="46.828830" lon="7.176127">
        <ele>659.3</ele>
        <time>2026-09-08T09:12:24.000Z</time>
      </trkpt>
      <trkpt lat="46.829118" lon="7.176622">
        <ele>661.0</ele>
        <time>2026-09-08T09:12:28.000Z</time>
      </trkpt>
      <trkpt lat="46.829295" lon="7.176962">
        <ele>662.4</ele>
        <time>2026-09-08T09:12:32.000Z</time>
      </trkpt>
      <trkpt lat="46.829276" lon="7.177026">
        <ele>664.9</ele>
        <time>2026-09-08T09:12:36.000Z</time>
      </trkpt>
      <trkpt lat="46.829546" lon="7.177500">
        <ele>665.2</ele>
        <time>2026-09-08T09:12:40.000Z</time>
      </trkpt>
      <trkpt lat="46.829754" lon="7.177887">
        <ele>665.4</ele>
        <time>2026-09-08T09:12:44.000Z</time>
      </trkpt>
      <trkpt lat="46.829774" lon="7.178009">
        <ele>667.9</ele>
        <time>2026-09-08T09:12:48.000Z</time>
      </trkpt>
      <trkpt lat="46.830038" lon="7.178474">
        <ele>669.2</ele>
        <time>2026-09-08T09:12:52.000Z</time>
      </trkpt>
      <trkpt lat="46.830041" lon="7.178574">
        <ele>668.9</ele>
        <time>2026-09-08T09:12:56.000Z</time>
      </trkpt>
      <trkpt lat="46.830305" lon="7.179039">
        <ele>670.8</ele>
        <time>2026-09-08T09:13:00.000Z</time>
      </trkpt>
      <trkpt lat="46.830391" lon="7.179254">
        <ele>671.7</ele>
        <time>2026-09-08T09:13:04.000Z</time>
      </trkpt>
      <trkpt lat="46.830541" lon="7.179560">
        <ele>671.6</ele>
        <time>2026-09-08T09:13:08.000Z</time>
      </trkpt>
      <trkpt lat="46.830730" lon="7.179920">
        <ele>671.8</ele>
        <time>2026-09-08T09:13:12.000Z</time>
      </trkpt>
      <trkpt lat="46.830777" lon="7.180081">
        <ele>673.1</ele>
        <time>2026-09-08T09:13:16.000Z</time>
      </trkpt>
      <trkpt lat="46.831006" lon="7.180496">
        <ele>673.9</ele>
        <time>2026-09-08T09:13:20.000Z</time>
      </trkpt>
      <trkpt lat="46.831155" lon="7.180800">
        <ele>676.6</ele>
        <time>2026-09-08T09:13:24.000Z</time>
      </trkpt>
      <trkpt lat="46.831252" lon="7.181031">
        <ele>677.8</ele>
        <time>2026-09-08T09:13:28.000Z</time>
      </trkpt>
      <trkpt lat="46.831382" lon="7.181308">
        <ele>678.7</ele>
        <time>2026-09-08T09:13:32.000Z</time>
      </trkpt>
      <trkpt lat="46.831774" lon="7.181953">
        <ele>680.1</ele>
        <time>2026-09-08T09:13:36.000Z</time>
      </trkpt>
      <trkpt lat="46.831878" lon="7.182193">
        <ele>680.6</ele>
        <time>2026-09-08T09:13:40.000Z</time>
      </trkpt>
      <trkpt lat="46.831859" lon="7.182261">
        <ele>682.1</ele>
        <time>2026-09-08T09:13:44.000Z</time>
      </trkpt>
      <trkpt lat="46.832173" lon="7.182797">
        <ele>681.5</ele>
        <time>2026-09-08T09:13:48.000Z</time>
      </trkpt>
      <trkpt lat="46.832103" lon="7.182794">
        <ele>683.1</ele>
        <time>2026-09-08T09:13:52.000Z</time>
      </trkpt>
      <trkpt lat="46.832489" lon="7.183430">
        <ele>682.8</ele>
        <time>2026-09-08T09:13:56.000Z</time>
      </trkpt>
      <trkpt lat="46.832462" lon="7.183487">
        <ele>685.1</ele>
        <time>2026-09-08T09:14:00.000Z</time>
      </trkpt>
      <trkpt lat="46.832691" lon="7.183903">
        <ele>686.6</ele>
        <time>2026-09-08T09:14:04.000Z</time>
      </trkpt>
      <trkpt lat="46.832998" lon="7.184428">
        <ele>687.5</ele>
        <time>2026-09-08T09:14:08.000Z</time>
      </trkpt>
      <trkpt lat="46.833143" lon="7.184727">
        <ele>687.8</ele>
        <time>2026-09-08T09:14:12.000Z</time>
      </trkpt>
      <trkpt lat="46.833084" lon="7.184739">
        <ele>688.5</ele>
        <time>2026-09-08T09:14:16.000Z</time>
      </trkpt>
      <trkpt lat="46.833427" lon="7.185315">
        <ele>690.8</ele>
        <time>2026-09-08T09:14:20.000Z</time>
      </trkpt>
      <trkpt lat="46.833311" lon="7.185247">
        <ele>690.0</ele>
        <time>2026-09-08T09:14:24.000Z</time>
      </trkpt>
      <trkpt lat="46.833610" lon="7.185761">
        <ele>693.0</ele>
        <time>2026-09-08T09:14:28.000Z</time>
      </trkpt>
      <trkpt lat="46.833909" lon="7.186275">
        <ele>692.5</ele>
        <time>2026-09-08T09:14:32.000Z</time>
      </trkpt>
      <trkpt lat="46.834011" lon="7.186513">
        <ele>693.5</ele>
        <time>2026-09-08T09:14:36.000Z</time>
      </trkpt>
      <trkpt lat="46.834012" lon="7.186609">
        <ele>695.5</ele>
        <time>2026-09-08T09:14:40.000Z</time>
      </trkpt>
      <trkpt lat="46.834256" lon="7.187047">
        <ele>695.3</ele>
        <time>2026-09-08T09:14:44.000Z</time>
      </trkpt>
      <trkpt lat="46.834373" lon="7.187305">
        <ele>696.7</ele>
        <time>2026-09-08T09:14:48.000Z</time>
      </trkpt>
      <trkpt lat="46.834370" lon="7.187397">
        <ele>698.3</ele>
        <time>2026-09-08T09:14:52.000Z</time>
      </trkpt>
      <trkpt lat="46.834743" lon="7.188014">
        <ele>698.6</ele>
        <time>2026-09-08T09:14:56.000Z</time>
      </trkpt>
      <trkpt lat="46.834937" lon="7.188381">
        <ele>701.0</ele>
        <time>2026-09-08T09:15:00.000Z</time>
      </trkpt>
      <trkpt lat="46.834982" lon="7.188539">
        <ele>700.4</ele>
        <time>2026-09-08T09:15:04.000Z</time>
      </trkpt>
      <trkpt lat="46.835134" lon="7.188847">
        <ele>701.4</ele>
        <time>2026-09-08T09:15:08.000Z</time>
      </trkpt>
      <trkpt lat="46.835052" lon="7.189142">
        <ele>701.3</ele>
        <time>2026-09-08T09:15:12.000Z</time>
      </trkpt>
      <trkpt lat="46.834671" lon="7.189019">
        <ele>698.3</ele>
        <time>2026-09-08T09:15:16.000Z</time>
      </trkpt>
      <trkpt lat="46.834530" lon="7.189232">
        <ele>696.9</ele>
        <time>2026-09-08T09:15:20.000Z</time>
      </trkpt>
      <trkpt lat="46.834531" lon="7.189643">
        <ele>696.6</ele>
        <time>2026-09-08T09:15:24.000Z</time>
      </trkpt>
      <trkpt lat="46.834327" lon="7.189767">
        <ele>694.1</ele>
        <time>2026-09-08T09:15:28.000Z</time>
      </trkpt>
      <trkpt lat="46.834295" lon="7.190133">
        <ele>694.4</ele>
        <time>2026-09-08T09:15:32.000Z</time>
      </trkpt>
      <trkpt lat="46.834279" lon="7.190520">
        <ele>693.1</ele>
        <time>2026-09-08T09:15:36.000Z</time>
      </trkpt>
      <trkpt lat="46.833869" lon="7.190357">
        <ele>691.1</ele>
        <time>2026-09-08T09:15:40.000Z</time>
      </trkpt>
      <trkpt lat="46.833721" lon="7.190560">
        <ele>690.1</ele>
        <time>2026-09-08T09:15:44.000Z</time>
      </trkpt>
      <trkpt lat="46.833784" lon="7.191058">
        <ele>687.8</ele>
        <time>2026-09-08T09:15:48.000Z</time>
      </trkpt>
      <trkpt lat="46.833633" lon="7.191256">
        <ele>685.9</ele>
        <time>2026-09-08T09:15:52.000Z</time>
      </trkpt>
      <trkpt lat="46.833360" lon="7.191285">
        <ele>685.0</ele>
        <time>2026-09-08T09:15:56.000Z</time>
      </trkpt>
      <trkpt lat="46.833375" lon="7.191715">
        <ele>683.7</ele>
        <time>2026-09-08T09:16:00.000Z</time>
      </trkpt>
      <trkpt lat="46.833066" lon="7.191692">
        <ele>682.3</ele>
        <time>2026-09-08T09:16:04.000Z</time>
      </trkpt>
      <trkpt lat="46.833184" lon="7.192267">
        <ele>681.8</ele>
        <time>2026-09-08T09:16:08.000Z</time>
      </trkpt>
      <trkpt lat="46.832923" lon="7.192312">
        <ele>679.9</ele>
        <time>2026-09-08T09:16:12.000Z</time>
      </trkpt>
      <trkpt lat="46.832648" lon="7.192338">
        <ele>679.0</ele>
        <time>2026-09-08T09:16:16.000Z</time>
      </trkpt>
      <trkpt lat="46.832768" lon="7.192915">
        <ele>676.6</ele>
        <time>2026-09-08T09:16:20.000Z</time>
      </trkpt>
      <trkpt lat="46.832622" lon="7.193120">
        <ele>676.1</ele>
        <time>2026-09-08T09:16:24.000Z</time>
      </trkpt>
      <trkpt lat="46.832516" lon="7.193383">
        <ele>674.0</ele>
        <time>2026-09-08T09:16:28.000Z</time>
      </trkpt>
      <trkpt lat="46.832085" lon="7.193188">
        <ele>671.0</ele>
        <time>2026-09-08T09:16:32.000Z</time>
      </trkpt>
      <trkpt lat="46.831982" lon="7.193454">
        <ele>670.5</ele>
        <time>2026-09-08T09:16:36.000Z</time>
      </trkpt>
      <trkpt lat="46.832066" lon="7.193982">
        <ele>668.2</ele>
        <time>2026-09-08T09:16:40.000Z</time>
      </trkpt>
      <trkpt lat="46.831777" lon="7.193987">
        <ele>667.5</ele>
        <time>2026-09-08T09:16:44.000Z</time>
      </trkpt>
      <trkpt lat="46.831581" lon="7.194123">
        <ele>666.2</ele>
        <time>2026-09-08T09:16:48.000Z</time>
      </trkpt>
      <trkpt lat="46.831663" lon="7.194648">
        <ele>663.8</ele>
        <time>2026-09-08T09:16:52.000Z</time>
      </trkpt>
      <trkpt lat="46.831467" lon="7.194784">
        <ele>663.8</ele>
        <time>2026-09-08T09:16:56.000Z</time>
      </trkpt>
      <trkpt lat="46.831378" lon="7.195069">
        <ele>662.9</ele>
        <time>2026-09-08T09:17:00.000Z</time>
      </trkpt>
      <trkpt lat="46.831113" lon="7.195108">
        <ele>661.9</ele>
        <time>2026-09-08T09:17:04.000Z</time>
      </trkpt>
      <trkpt lat="46.830934" lon="7.195267">
        <ele>659.6</ele>
        <time>2026-09-08T09:17:08.000Z</time>
      </trkpt>
      <trkpt lat="46.830877" lon="7.195597">
        <ele>657.8</ele>
        <time>2026-09-08T09:17:12.000Z</time>
      </trkpt>
      <trkpt lat="46.830674" lon="7.195724">
        <ele>655.4</ele>
        <time>2026-09-08T09:17:16.000Z</time>
      </trkpt>
      <trkpt lat="46.830449" lon="7.195819">
        <ele>656.3</ele>
        <time>2026-09-08T09:17:20.000Z</time>
      </trkpt>
      <trkpt lat="46.830289" lon="7.196005">
        <ele>654.8</ele>
        <time>2026-09-08T09:17:24.000Z</time>
      </trkpt>
      <trkpt lat="46.830360" lon="7.196514">
        <ele>652.1</ele>
        <time>2026-09-08T09:17:28.000Z</time>
      </trkpt>
      <trkpt lat="46.830133" lon="7.196606">
        <ele>651.3</ele>
        <time>2026-09-08T09:17:32.000Z</time>
      </trkpt>
      <trkpt lat="46.830017" lon="7.196853">
        <ele>650.5</ele>
        <time>2026-09-08T09:17:36.000Z</time>
      </trkpt>
      <trkpt lat="46.829996" lon="7.197234">
        <ele>647.1</ele>
        <time>2026-09-08T09:17:40.000Z</time>
      </trkpt>
      <trkpt lat="46.829775" lon="7.197057">
        <ele>645.8</ele>
        <time>2026-09-08T09:17:44.000Z</time>
      </trkpt>
      <trkpt lat="46.829446" lon="7.196728">
        <ele>646.1</ele>
        <time>2026-09-08T09:17:48.000Z</time>
      </trkpt>
      <trkpt lat="46.829167" lon="7.196468">
        <ele>643.2</ele>
        <time>2026-09-08T09:17:52.000Z</time>
      </trkpt>
      <trkpt lat="46.829061" lon="7.196452">
        <ele>642.0</ele>
        <time>2026-09-08T09:17:56.000Z</time>
      </trkpt>
      <trkpt lat="46.828670" lon="7.196035">
        <ele>641.6</ele>
        <time>2026-09-08T09:18:00.000Z</time>
      </trkpt>
      <trkpt lat="46.828473" lon="7.195891">
        <ele>640.9</ele>
        <time>2026-09-08T09:18:04.000Z</time>
      </trkpt>
      <trkpt lat="46.828428" lon="7.195960">
        <ele>639.2</ele>
        <time>2026-09-08T09:18:08.000Z</time>
      </trkpt>
      <trkpt lat="46.828161" lon="7.195718">
        <ele>636.7</ele>
        <time>2026-09-08T09:18:12.000Z</time>
      </trkpt>
      <trkpt lat="46.827845" lon="7.195407">
        <ele>634.5</ele>
        <time>2026-09-08T09:18:16.000Z</time>
      </trkpt>
      <trkpt lat="46.827723" lon="7.195368">
        <ele>634.6</ele>
        <time>2026-09-08T09:18:20.000Z</time>
      </trkpt>
      <trkpt lat="46.827335" lon="7.194957">
        <ele>634.0</ele>
        <time>2026-09-08T09:18:24.000Z</time>
      </trkpt>
      <trkpt lat="46.827075" lon="7.194725">
        <ele>631.4</ele>
        <time>2026-09-08T09:18:28.000Z</time>
      </trkpt>
      <trkpt lat="46.827023" lon="7.194783">
        <ele>630.4</ele>
        <time>2026-09-08T09:18:32.000Z</time>
      </trkpt>
      <trkpt lat="46.826698" lon="7.194459">
        <ele>628.4</ele>
        <time>2026-09-08T09:18:36.000Z</time>
      </trkpt>
      <trkpt lat="46.826559" lon="7.194397">
        <ele>627.4</ele>
        <time>2026-09-08T09:18:40.000Z</time>
      </trkpt>
      <trkpt lat="46.826314" lon="7.194186">
        <ele>625.4</ele>
        <time>2026-09-08T09:18:44.000Z</time>
      </trkpt>
      <trkpt lat="46.826108" lon="7.194029">
        <ele>624.5</ele>
        <time>2026-09-08T09:18:48.000Z</time>
      </trkpt>
      <trkpt lat="46.825796" lon="7.193723">
        <ele>623.7</ele>
        <time>2026-09-08T09:18:52.000Z</time>
      </trkpt>
      <trkpt lat="46.825704" lon="7.193726">
        <ele>622.6</ele>
        <time>2026-09-08T09:18:56.000Z</time>
      </trkpt>
      <trkpt lat="46.825530" lon="7.193613">
        <ele>620.3</ele>
        <time>2026-09-08T09:19:00.000Z</time>
      </trkpt>
      <trkpt lat="46.825322" lon="7.193454">
        <ele>619.3</ele>
        <time>2026-09-08T09:19:04.000Z</time>
      </trkpt>
      <trkpt lat="46.824918" lon="7.193020">
        <ele>617.5</ele>
        <time>2026-09-08T09:19:08.000Z</time>
      </trkpt>
      <trkpt lat="46.824743" lon="7.192907">
        <ele>615.8</ele>
        <time>2026-09-08T09:19:12.000Z</time>
      </trkpt>
      <trkpt lat="46.824526" lon="7.192734">
        <ele>614.7</ele>
        <time>2026-09-08T09:19:16.000Z</time>
      </trkpt>
      <trkpt lat="46.824357" lon="7.192629">
        <ele>612.9</ele>
        <time>2026-09-08T09:19:20.000Z</time>
      </trkpt>
      <trkpt lat="46.824038" lon="7.192315">
        <ele>613.6</ele>
        <time>2026-09-08T09:19:24.000Z</time>
      </trkpt>
      <trkpt lat="46.823812" lon="7.192130">
        <ele>610.3</ele>
        <time>2026-09-08T09:19:28.000Z</time>
      </trkpt>
      <trkpt lat="46.823545" lon="7.191887">
        <ele>610.4</ele>
        <time>2026-09-08T09:19:32.000Z</time>
      </trkpt>
      <trkpt lat="46.823364" lon="7.191766">
        <ele>609.0</ele>
        <time>2026-09-08T09:19:36.000Z</time>
      </trkpt>
      <trkpt lat="46.823167" lon="7.191622">
        <ele>606.2</ele>
        <time>2026-09-08T09:19:40.000Z</time>
      </trkpt>
      <trkpt lat="46.823112" lon="7.191675">
        <ele>606.5</ele>
        <time>2026-09-08T09:19:44.000Z</time>
      </trkpt>
      <trkpt lat="46.822746" lon="7.191295">
        <ele>603.3</ele>
        <time>2026-09-08T09:19:48.000Z</time>
      </trkpt>
      <trkpt lat="46.822652" lon="7.191295">
        <ele>603.6</ele>
        <time>2026-09-08T09:19:52.000Z</time>
      </trkpt>
      <trkpt lat="46.822300" lon="7.190934">
        <ele>601.1</ele>
        <time>2026-09-08T09:19:56.000Z</time>
      </trkpt>
      <trkpt lat="46.821998" lon="7.190643">
        <ele>598.9</ele>
        <time>2026-09-08T09:20:00.000Z</time>
      </trkpt>
      <trkpt lat="46.821947" lon="7.190703">
        <ele>598.1</ele>
        <time>2026-09-08T09:20:04.000Z</time>
      </trkpt>
      <trkpt lat="46.821665" lon="7.190439">
        <ele>597.6</ele>
        <time>2026-09-08T09:20:08.000Z</time>
      </trkpt>
      <trkpt lat="46.821407" lon="7.190209">
        <ele>595.4</ele>
        <time>2026-09-08T09:20:12.000Z</time>
      </trkpt>
      <trkpt lat="46.821103" lon="7.189670">
        <ele>594.0</ele>
        <time>2026-09-08T09:20:16.000Z</time>
      </trkpt>
      <trkpt lat="46.821039" lon="7.189465">
        <ele>595.0</ele>
        <time>2026-09-08T09:20:20.000Z</time>
      </trkpt>
      <trkpt lat="46.821027" lon="7.189334">
        <ele>592.9</ele>
        <time>2026-09-08T09:20:24.000Z</time>
      </trkpt>
      <trkpt lat="46.820837" lon="7.188952">
        <ele>591.5</ele>
        <time>2026-09-08T09:20:28.000Z</time>
      </trkpt>
      <trkpt lat="46.820420" lon="7.188254">
        <ele>592.4</ele>
        <time>2026-09-08T09:20:32.000Z</time>
      </trkpt>
      <trkpt lat="46.820267" lon="7.187925">
        <ele>590.2</ele>
        <time>2026-09-08T09:20:36.000Z</time>
      </trkpt>
      <trkpt lat="46.820058" lon="7.187518">
        <ele>589.1</ele>
        <time>2026-09-08T09:20:40.000Z</time>
      </trkpt>
      <trkpt lat="46.820061" lon="7.187408">
        <ele>589.0</ele>
        <time>2026-09-08T09:20:44.000Z</time>
      </trkpt>
      <trkpt lat="46.819717" lon="7.186812">
        <ele>587.1</ele>
        <time>2026-09-08T09:20:48.000Z</time>
      </trkpt>
      <trkpt lat="46.819507" lon="7.186402">
        <ele>585.6</ele>
        <time>2026-09-08T09:20:52.000Z</time>
      </trkpt>
      <trkpt lat="46.819331" lon="7.186041">
        <ele>586.4</ele>
        <time>2026-09-08T09:20:56.000Z</time>
      </trkpt>
      <trkpt lat="46.819203" lon="7.185747">
        <ele>584.7</ele>
        <time>2026-09-08T09:21:00.000Z</time>
      </trkpt>
      <trkpt lat="46.819286" lon="7.185749">
        <ele>584.7</ele>
        <time>2026-09-08T09:21:04.000Z</time>
      </trkpt>
      <trkpt lat="46.818865" lon="7.185045">
        <ele>584.1</ele>
        <time>2026-09-08T09:21:08.000Z</time>
      </trkpt>
      <trkpt lat="46.818827" lon="7.184876">
        <ele>582.3</ele>
        <time>2026-09-08T09:21:12.000Z</time>
      </trkpt>
      <trkpt lat="46.818681" lon="7.184558">
        <ele>580.7</ele>
        <time>2026-09-08T09:21:16.000Z</time>
      </trkpt>
      <trkpt lat="46.818595" lon="7.184322">
        <ele>581.5</ele>
        <time>2026-09-08T09:21:20.000Z</time>
      </trkpt>
      <trkpt lat="46.818256" lon="7.183734">
        <ele>580.6</ele>
        <time>2026-09-08T09:21:24.000Z</time>
      </trkpt>
      <trkpt lat="46.818011" lon="7.183275">
        <ele>578.2</ele>
        <time>2026-09-08T09:21:28.000Z</time>
      </trkpt>
      <trkpt lat="46.817847" lon="7.182930">
        <ele>577.6</ele>
        <time>2026-09-08T09:21:32.000Z</time>
      </trkpt>
      <trkpt lat="46.817655" lon="7.182547">
        <ele>575.8</ele>
        <time>2026-09-08T09:21:36.000Z</time>
      </trkpt>
      <trkpt lat="46.817652" lon="7.182429">
        <ele>575.5</ele>
        <time>2026-09-08T09:21:40.000Z</time>
      </trkpt>
      <trkpt lat="46.817491" lon="7.182088">
        <ele>574.1</ele>
        <time>2026-09-08T09:21:44.000Z</time>
      </trkpt>
      <trkpt lat="46.817283" lon="7.181682">
        <ele>574.8</ele>
        <time>2026-09-08T09:21:48.000Z</time>
      </trkpt>
      <trkpt lat="46.817203" lon="7.181456">
        <ele>572.4</ele>
        <time>2026-09-08T09:21:52.000Z</time>
      </trkpt>
      <trkpt lat="46.817039" lon="7.181111">
        <ele>571.0</ele>
        <time>2026-09-08T09:21:56.000Z</time>
      </trkpt>
      <trkpt lat="46.816769" lon="7.180619">
        <ele>571.9</ele>
        <time>2026-09-08T09:22:00.000Z</time>
      </trkpt>
      <trkpt lat="46.816524" lon="7.180161">
        <ele>569.8</ele>
        <time>2026-09-08T09:22:04.000Z</time>
      </trkpt>
      <trkpt lat="46.816330" lon="7.179775">
        <ele>569.0</ele>
        <time>2026-09-08T09:22:08.000Z</time>
      </trkpt>
      <trkpt lat="46.816031" lon="7.179241">
        <ele>568.0</ele>
        <time>2026-09-08T09:22:12.000Z</time>
      </trkpt>
      <trkpt lat="46.816039" lon="7.179138">
        <ele>566.3</ele>
        <time>2026-09-08T09:22:16.000Z</time>
      </trkpt>
      <trkpt lat="46.815961" lon="7.178914">
        <ele>565.8</ele>
        <time>2026-09-08T09:22:20.000Z</time>
      </trkpt>
      <trkpt lat="46.815516" lon="7.178176">
        <ele>564.5</ele>
        <time>2026-09-08T09:22:24.000Z</time>
      </trkpt>
      <trkpt lat="46.815394" lon="7.177891">
        <ele>563.4</ele>
        <time>2026-09-08T09:22:28.000Z</time>
      </trkpt>
      <trkpt lat="46.815446" lon="7.177848">
        <ele>563.2</ele>
        <time>2026-09-08T09:22:32.000Z</time>
      </trkpt>
      <trkpt lat="46.815247" lon="7.177455">
        <ele>561.8</ele>
        <time>2026-09-08T09:22:36.000Z</time>
      </trkpt>
      <trkpt lat="46.815016" lon="7.177017">
        <ele>560.9</ele>
        <time>2026-09-08T09:22:40.000Z</time>
      </trkpt>
      <trkpt lat="46.814800" lon="7.176600">
        <ele>561.0</ele>
        <time>2026-09-08T09:22:44.000Z</time>
      </trkpt>
    </trkseg>
  </trk>
</gpx>
