<?xml version="1.0" encoding="UTF-8"?>
<gpx creator="strava-studio" version="1.1"
     xmlns="http://www.topografix.com/GPX/1/1">
  <metadata><time>2026-09-08T09:00:00.000Z</time></metadata>
  <trk>
    <name>Plaine de Fribourg</name>
    <type>ride</type>
    <trkseg>
      <trkpt lat="46.812798" lon="7.147390">
        <ele>539.3</ele>
        <time>2026-09-08T09:00:00.000Z</time>
      </trkpt>
      <trkpt lat="46.813002" lon="7.147391">
        <ele>540.3</ele>
        <time>2026-09-08T09:00:05.000Z</time>
      </trkpt>
      <trkpt lat="46.813196" lon="7.147398">
        <ele>541.4</ele>
        <time>2026-09-08T09:00:10.000Z</time>
      </trkpt>
      <trkpt lat="46.813379" lon="7.147414">
        <ele>542.4</ele>
        <time>2026-09-08T09:00:15.000Z</time>
      </trkpt>
      <trkpt lat="46.813552" lon="7.147438">
        <ele>543.4</ele>
        <time>2026-09-08T09:00:20.000Z</time>
      </trkpt>
      <trkpt lat="46.813713" lon="7.147470">
        <ele>544.5</ele>
        <time>2026-09-08T09:00:25.000Z</time>
      </trkpt>
      <trkpt lat="46.813864" lon="7.147511">
        <ele>545.5</ele>
        <time>2026-09-08T09:00:30.000Z</time>
      </trkpt>
      <trkpt lat="46.814004" lon="7.147560">
        <ele>546.5</ele>
        <time>2026-09-08T09:00:35.000Z</time>
      </trkpt>
      <trkpt lat="46.814134" lon="7.147617">
        <ele>547.6</ele>
        <time>2026-09-08T09:00:40.000Z</time>
      </trkpt>
      <trkpt lat="46.814253" lon="7.147681">
        <ele>548.6</ele>
        <time>2026-09-08T09:00:45.000Z</time>
      </trkpt>
      <trkpt lat="46.814364" lon="7.147752">
        <ele>549.6</ele>
        <time>2026-09-08T09:00:50.000Z</time>
      </trkpt>
      <trkpt lat="46.814466" lon="7.147830">
        <ele>550.7</ele>
        <time>2026-09-08T09:00:55.000Z</time>
      </trkpt>
      <trkpt lat="46.814561" lon="7.147914">
        <ele>551.7</ele>
        <time>2026-09-08T09:01:00.000Z</time>
      </trkpt>
      <trkpt lat="46.814649" lon="7.148002">
        <ele>552.8</ele>
        <time>2026-09-08T09:01:05.000Z</time>
      </trkpt>
      <trkpt lat="46.814731" lon="7.148095">
        <ele>553.8</ele>
        <time>2026-09-08T09:01:10.000Z</time>
      </trkpt>
      <trkpt lat="46.814810" lon="7.148191">
        <ele>554.9</ele>
        <time>2026-09-08T09:01:15.000Z</time>
      </trkpt>
      <trkpt lat="46.814884" lon="7.148290">
        <ele>555.9</ele>
        <time>2026-09-08T09:01:20.000Z</time>
      </trkpt>
      <trkpt lat="46.814957" lon="7.148390">
        <ele>557.0</ele>
        <time>2026-09-08T09:01:25.000Z</time>
      </trkpt>
      <trkpt lat="46.815028" lon="7.148492">
        <ele>558.0</ele>
        <time>2026-09-08T09:01:30.000Z</time>
      </trkpt>
      <trkpt lat="46.815099" lon="7.148593">
        <ele>559.1</ele>
        <time>2026-09-08T09:01:35.000Z</time>
      </trkpt>
      <trkpt lat="46.815171" lon="7.148694">
        <ele>560.1</ele>
        <time>2026-09-08T09:01:40.000Z</time>
      </trkpt>
      <trkpt lat="46.815245" lon="7.148793">
        <ele>561.2</ele>
        <time>2026-09-08T09:01:45.000Z</time>
      </trkpt>
      <trkpt lat="46.815321" lon="7.148891">
        <ele>562.2</ele>
        <time>2026-09-08T09:01:50.000Z</time>
      </trkpt>
      <trkpt lat="46.815400" lon="7.148986">
        <ele>563.3</ele>
        <time>2026-09-08T09:01:55.000Z</time>
      </trkpt>
      <trkpt lat="46.815483" lon="7.149079">
        <ele>564.3</ele>
        <time>2026-09-08T09:02:00.000Z</time>
      </trkpt>
      <trkpt lat="46.815570" lon="7.149168">
        <ele>565.4</ele>
        <time>2026-09-08T09:02:05.000Z</time>
      </trkpt>
      <trkpt lat="46.815661" lon="7.149254">
        <ele>566.5</ele>
        <time>2026-09-08T09:02:10.000Z</time>
      </trkpt>
      <trkpt lat="46.815757" lon="7.149337">
        <ele>567.5</ele>
        <time>2026-09-08T09:02:15.000Z</time>
      </trkpt>
      <trkpt lat="46.815857" lon="7.149416">
        <ele>568.6</ele>
        <time>2026-09-08T09:02:20.000Z</time>
      </trkpt>
      <trkpt lat="46.815961" lon="7.149492">
        <ele>569.6</ele>
        <time>2026-09-08T09:02:25.000Z</time>
      </trkpt>
      <trkpt lat="46.816069" lon="7.149565">
        <ele>570.7</ele>
        <time>2026-09-08T09:02:30.000Z</time>
      </trkpt>
      <trkpt lat="46.816181" lon="7.149636">
        <ele>571.8</ele>
        <time>2026-09-08T09:02:35.000Z</time>
      </trkpt>
      <trkpt lat="46.816295" lon="7.149704">
        <ele>572.8</ele>
        <time>2026-09-08T09:02:40.000Z</time>
      </trkpt>
      <trkpt lat="46.816412" lon="7.149771">
        <ele>573.9</ele>
        <time>2026-09-08T09:02:45.000Z</time>
      </trkpt>
      <trkpt lat="46.816529" lon="7.149837">
        <ele>575.0</ele>
        <time>2026-09-08T09:02:50.000Z</time>
      </trkpt>
      <trkpt lat="46.816647" lon="7.149903">
        <ele>576.0</ele>
        <time>2026-09-08T09:02:55.000Z</time>
      </trkpt>
      <trkpt lat="46.816764" lon="7.149969">
        <ele>577.1</ele>
        <time>2026-09-08T09:03:00.000Z</time>
      </trkpt>
      <trkpt lat="46.816880" lon="7.150037">
        <ele>578.2</ele>
        <time>2026-09-08T09:03:05.000Z</time>
      </trkpt>
      <trkpt lat="46.816993" lon="7.150106">
        <ele>579.2</ele>
        <time>2026-09-08T09:03:10.000Z</time>
      </trkpt>
      <trkpt lat="46.817103" lon="7.150178">
        <ele>580.3</ele>
        <time>2026-09-08T09:03:15.000Z</time>
      </trkpt>
      <trkpt lat="46.817209" lon="7.150253">
        <ele>581.4</ele>
        <time>2026-09-08T09:03:20.000Z</time>
      </trkpt>
      <trkpt lat="46.817309" lon="7.150332">
        <ele>582.4</ele>
        <time>2026-09-08T09:03:25.000Z</time>
      </trkpt>
      <trkpt lat="46.817403" lon="7.150416">
        <ele>583.5</ele>
        <time>2026-09-08T09:03:30.000Z</time>
      </trkpt>
      <trkpt lat="46.817491" lon="7.150505">
        <ele>584.6</ele>
        <time>2026-09-08T09:03:35.000Z</time>
      </trkpt>
      <trkpt lat="46.817571" lon="7.150599">
        <ele>585.6</ele>
        <time>2026-09-08T09:03:40.000Z</time>
      </trkpt>
      <trkpt lat="46.817643" lon="7.150700">
        <ele>586.7</ele>
        <time>2026-09-08T09:03:45.000Z</time>
      </trkpt>
      <trkpt lat="46.817708" lon="7.150807">
        <ele>587.8</ele>
        <time>2026-09-08T09:03:50.000Z</time>
      </trkpt>
      <trkpt lat="46.817763" lon="7.150920">
        <ele>588.9</ele>
        <time>2026-09-08T09:03:55.000Z</time>
      </trkpt>
      <trkpt lat="46.817811" lon="7.151039">
        <ele>589.9</ele>
        <time>2026-09-08T09:04:00.000Z</time>
      </trkpt>
      <trkpt lat="46.817850" lon="7.151165">
        <ele>591.0</ele>
        <time>2026-09-08T09:04:05.000Z</time>
      </trkpt>
      <trkpt lat="46.817882" lon="7.151297">
        <ele>592.1</ele>
        <time>2026-09-08T09:04:10.000Z</time>
      </trkpt>
      <trkpt lat="46.817905" lon="7.151434">
        <ele>593.1</ele>
        <time>2026-09-08T09:04:15.000Z</time>
      </trkpt>
      <trkpt lat="46.817922" lon="7.151577">
        <ele>594.2</ele>
        <time>2026-09-08T09:04:20.000Z</time>
      </trkpt>
      <trkpt lat="46.817933" lon="7.151725">
        <ele>595.3</ele>
        <time>2026-09-08T09:04:25.000Z</time>
      </trkpt>
      <trkpt lat="46.817938" lon="7.151877">
        <ele>596.3</ele>
        <time>2026-09-08T09:04:30.000Z</time>
      </trkpt>
      <trkpt lat="46.817939" lon="7.152032">
        <ele>597.4</ele>
        <time>2026-09-08T09:04:35.000Z</time>
      </trkpt>
      <trkpt lat="46.817937" lon="7.152189">
        <ele>598.5</ele>
        <time>2026-09-08T09:04:40.000Z</time>
      </trkpt>
      <trkpt lat="46.817933" lon="7.152348">
        <ele>599.5</ele>
        <time>2026-09-08T09:04:45.000Z</time>
      </trkpt>
      <trkpt lat="46.817927" lon="7.152508">
        <ele>600.6</ele>
        <time>2026-09-08T09:04:50.000Z</time>
      </trkpt>
      <trkpt lat="46.817922" lon="7.152668">
        <ele>601.7</ele>
        <time>2026-09-08T09:04:55.000Z</time>
      </trkpt>
      <trkpt lat="46.817918" lon="7.152827">
        <ele>602.7</ele>
        <time>2026-09-08T09:05:00.000Z</time>
      </trkpt>
      <trkpt lat="46.817917" lon="7.152983">
        <ele>603.8</ele>
        <time>2026-09-08T09:05:05.000Z</time>
      </trkpt>
      <trkpt lat="46.817920" lon="7.153137">
        <ele>604.9</ele>
        <time>2026-09-08T09:05:10.000Z</time>
      </trkpt>
      <trkpt lat="46.817927" lon="7.153287">
        <ele>605.9</ele>
        <time>2026-09-08T09:05:15.000Z</time>
      </trkpt>
      <trkpt lat="46.817941" lon="7.153432">
        <ele>607.0</ele>
        <time>2026-09-08T09:05:20.000Z</time>
      </trkpt>
      <trkpt lat="46.817962" lon="7.153572">
        <ele>608.1</ele>
        <time>2026-09-08T09:05:25.000Z</time>
      </trkpt>
      <trkpt lat="46.817991" lon="7.153706">
        <ele>609.1</ele>
        <time>2026-09-08T09:05:30.000Z</time>
      </trkpt>
      <trkpt lat="46.818028" lon="7.153833">
        <ele>610.2</ele>
        <time>2026-09-08T09:05:35.000Z</time>
      </trkpt>
      <trkpt lat="46.818075" lon="7.153953">
        <ele>611.3</ele>
        <time>2026-09-08T09:05:40.000Z</time>
      </trkpt>
      <trkpt lat="46.818131" lon="7.154066">
        <ele>612.3</ele>
        <time>2026-09-08T09:05:45.000Z</time>
      </trkpt>
      <trkpt lat="46.818197" lon="7.154171">
        <ele>613.4</ele>
        <time>2026-09-08T09:05:50.000Z</time>
      </trkpt>
      <trkpt lat="46.818272" lon="7.154269">
        <ele>614.4</ele>
        <time>2026-09-08T09:05:55.000Z</time>
      </trkpt>
      <trkpt lat="46.818358" lon="7.154360">
        <ele>615.5</ele>
        <time>2026-09-08T09:06:00.000Z</time>
      </trkpt>
      <trkpt lat="46.818453" lon="7.154443">
        <ele>616.6</ele>
        <time>2026-09-08T09:06:05.000Z</time>
      </trkpt>
      <trkpt lat="46.818557" lon="7.154520">
        <ele>617.6</ele>
        <time>2026-09-08T09:06:10.000Z</time>
      </trkpt>
      <trkpt lat="46.818669" lon="7.154590">
        <ele>618.7</ele>
        <time>2026-09-08T09:06:15.000Z</time>
      </trkpt>
      <trkpt lat="46.818789" lon="7.154654">
        <ele>619.7</ele>
        <time>2026-09-08T09:06:20.000Z</time>
      </trkpt>
      <trkpt lat="46.818916" lon="7.154713">
        <ele>620.8</ele>
        <time>2026-09-08T09:06:25.000Z</time>
      </trkpt>
      <trkpt lat="46.819049" lon="7.154767">
        <ele>621.8</ele>
        <time>2026-09-08T09:06:30.000Z</time>
      </trkpt>
      <trkpt lat="46.819186" lon="7.154818">
        <ele>622.9</ele>
        <time>2026-09-08T09:06:35.000Z</time>
      </trkpt>
      <trkpt lat="46.819327" lon="7.154866">
        <ele>623.9</ele>
        <time>2026-09-08T09:06:40.000Z</time>
      </trkpt>
      <trkpt lat="46.819470" lon="7.154912">
        <ele>625.0</ele>
        <time>2026-09-08T09:06:45.000Z</time>
      </trkpt>
      <trkpt lat="46.819615" lon="7.154958">
        <ele>626.0</ele>
        <time>2026-09-08T09:06:50.000Z</time>
      </trkpt>
      <trkpt lat="46.819759" lon="7.155003">
        <ele>627.0</ele>
        <time>2026-09-08T09:06:55.000Z</time>
      </trkpt>
      <trkpt lat="46.819902" lon="7.155050">
        <ele>628.1</ele>
        <time>2026-09-08T09:07:00.000Z</time>
      </trkpt>
      <trkpt lat="46.820042" lon="7.155099">
        <ele>629.1</ele>
        <time>2026-09-08T09:07:05.000Z</time>
      </trkpt>
      <trkpt lat="46.820178" lon="7.155151">
        <ele>630.2</ele>
        <time>2026-09-08T09:07:10.000Z</time>
      </trkpt>
      <trkpt lat="46.820309" lon="7.155206">
        <ele>631.2</ele>
        <time>2026-09-08T09:07:15.000Z</time>
      </trkpt>
      <trkpt lat="46.820434" lon="7.155266">
        <ele>632.2</ele>
        <time>2026-09-08T09:07:20.000Z</time>
      </trkpt>
      <trkpt lat="46.820553" lon="7.155332">
        <ele>633.3</ele>
        <time>2026-09-08T09:07:25.000Z</time>
      </trkpt>
      <trkpt lat="46.820664" lon="7.155403">
        <ele>634.3</ele>
        <time>2026-09-08T09:07:30.000Z</time>
      </trkpt>
      <trkpt lat="46.820767" lon="7.155480">
        <ele>635.3</ele>
        <time>2026-09-08T09:07:35.000Z</time>
      </trkpt>
      <trkpt lat="46.820861" lon="7.155564">
        <ele>636.4</ele>
        <time>2026-09-08T09:07:40.000Z</time>
      </trkpt>
      <trkpt lat="46.820947" lon="7.155654">
        <ele>637.4</ele>
        <time>2026-09-08T09:07:45.000Z</time>
      </trkpt>
      <trkpt lat="46.821023" lon="7.155751">
        <ele>638.4</ele>
        <time>2026-09-08T09:07:50.000Z</time>
      </trkpt>
      <trkpt lat="46.821091" lon="7.155856">
        <ele>639.4</ele>
        <time>2026-09-08T09:07:55.000Z</time>
      </trkpt>
      <trkpt lat="46.821150" lon="7.155966">
        <ele>640.4</ele>
        <time>2026-09-08T09:08:00.000Z</time>
      </trkpt>
      <trkpt lat="46.821200" lon="7.156084">
        <ele>641.5</ele>
        <time>2026-09-08T09:08:05.000Z</time>
      </trkpt>
      <trkpt lat="46.821242" lon="7.156207">
        <ele>642.5</ele>
        <time>2026-09-08T09:08:10.000Z</time>
      </trkpt>
      <trkpt lat="46.821277" lon="7.156336">
        <ele>643.5</ele>
        <time>2026-09-08T09:08:15.000Z</time>
      </trkpt>
      <trkpt lat="46.821306" lon="7.156470">
        <ele>644.5</ele>
        <time>2026-09-08T09:08:20.000Z</time>
      </trkpt>
      <trkpt lat="46.821328" lon="7.156609">
        <ele>645.5</ele>
        <time>2026-09-08T09:08:25.000Z</time>
      </trkpt>
      <trkpt lat="46.821346" lon="7.156751">
        <ele>646.5</ele>
        <time>2026-09-08T09:08:30.000Z</time>
      </trkpt>
      <trkpt lat="46.821359" lon="7.156897">
        <ele>647.5</ele>
        <time>2026-09-08T09:08:35.000Z</time>
      </trkpt>
      <trkpt lat="46.821370" lon="7.157044">
        <ele>648.5</ele>
        <time>2026-09-08T09:08:40.000Z</time>
      </trkpt>
      <trkpt lat="46.821379" lon="7.157193">
        <ele>649.5</ele>
        <time>2026-09-08T09:08:45.000Z</time>
      </trkpt>
      <trkpt lat="46.821387" lon="7.157343">
        <ele>650.5</ele>
        <time>2026-09-08T09:08:50.000Z</time>
      </trkpt>
      <trkpt lat="46.821395" lon="7.157493">
        <ele>651.5</ele>
        <time>2026-09-08T09:08:55.000Z</time>
      </trkpt>
      <trkpt lat="46.821403" lon="7.157642">
        <ele>652.5</ele>
        <time>2026-09-08T09:09:00.000Z</time>
      </trkpt>
      <trkpt lat="46.821414" lon="7.157790">
        <ele>653.5</ele>
        <time>2026-09-08T09:09:05.000Z</time>
      </trkpt>
      <trkpt lat="46.821427" lon="7.157935">
        <ele>654.4</ele>
        <time>2026-09-08T09:09:10.000Z</time>
      </trkpt>
      <trkpt lat="46.821443" lon="7.158079">
        <ele>655.4</ele>
        <time>2026-09-08T09:09:15.000Z</time>
      </trkpt>
      <trkpt lat="46.821463" lon="7.158219">
        <ele>656.4</ele>
        <time>2026-09-08T09:09:20.000Z</time>
      </trkpt>
      <trkpt lat="46.821487" lon="7.158357">
        <ele>657.4</ele>
        <time>2026-09-08T09:09:25.000Z</time>
      </trkpt>
      <trkpt lat="46.821516" lon="7.158491">
        <ele>658.3</ele>
        <time>2026-09-08T09:09:30.000Z</time>
      </trkpt>
      <trkpt lat="46.821549" lon="7.158621">
        <ele>659.3</ele>
        <time>2026-09-08T09:09:35.000Z</time>
      </trkpt>
      <trkpt lat="46.821587" lon="7.158748">
        <ele>660.3</ele>
        <time>2026-09-08T09:09:40.000Z</time>
      </trkpt>
      <trkpt lat="46.821629" lon="7.158872">
        <ele>661.2</ele>
        <time>2026-09-08T09:09:45.000Z</time>
      </trkpt>
      <trkpt lat="46.821674" lon="7.158993">
        <ele>662.2</ele>
        <time>2026-09-08T09:09:50.000Z</time>
      </trkpt>
      <trkpt lat="46.821724" lon="7.159111">
        <ele>663.1</ele>
        <time>2026-09-08T09:09:55.000Z</time>
      </trkpt>
      <trkpt lat="46.821776" lon="7.159226">
        <ele>664.1</ele>
        <time>2026-09-08T09:10:00.000Z</time>
      </trkpt>
      <trkpt lat="46.821831" lon="7.159340">
        <ele>665.0</ele>
        <time>2026-09-08T09:10:05.000Z</time>
      </trkpt>
      <trkpt lat="46.821887" lon="7.159453">
        <ele>666.0</ele>
        <time>2026-09-08T09:10:10.000Z</time>
      </trkpt>
      <trkpt lat="46.821943" lon="7.159566">
        <ele>666.9</ele>
        <time>2026-09-08T09:10:15.000Z</time>
      </trkpt>
      <trkpt lat="46.821999" lon="7.159679">
        <ele>667.9</ele>
        <time>2026-09-08T09:10:20.000Z</time>
      </trkpt>
      <trkpt lat="46.822054" lon="7.159793">
        <ele>668.8</ele>
        <time>2026-09-08T09:10:25.000Z</time>
      </trkpt>
      <trkpt lat="46.822106" lon="7.159909">
        <ele>669.7</ele>
        <time>2026-09-08T09:10:30.000Z</time>
      </trkpt>
      <trkpt lat="46.822154" lon="7.160028">
        <ele>670.6</ele>
        <time>2026-09-08T09:10:35.000Z</time>
      </trkpt>
      <trkpt lat="46.822198" lon="7.160150">
        <ele>671.6</ele>
        <time>2026-09-08T09:10:40.000Z</time>
      </trkpt>
      <trkpt lat="46.822237" lon="7.160276">
        <ele>672.5</ele>
        <time>2026-09-08T09:10:45.000Z</time>
      </trkpt>
      <trkpt lat="46.822269" lon="7.160408">
        <ele>673.4</ele>
        <time>2026-09-08T09:10:50.000Z</time>
      </trkpt>
      <trkpt lat="46.822294" lon="7.160545">
        <ele>674.3</ele>
        <time>2026-09-08T09:10:55.000Z</time>
      </trkpt>
      <trkpt lat="46.822310" lon="7.160688">
        <ele>675.2</ele>
        <time>2026-09-08T09:11:00.000Z</time>
      </trkpt>
      <trkpt lat="46.822319" lon="7.160837">
        <ele>676.1</ele>
        <time>2026-09-08T09:11:05.000Z</time>
      </trkpt>
      <trkpt lat="46.822318" lon="7.160993">
        <ele>677.0</ele>
        <time>2026-09-08T09:11:10.000Z</time>
      </trkpt>
      <trkpt lat="46.822308" lon="7.161157">
        <ele>677.9</ele>
        <time>2026-09-08T09:11:15.000Z</time>
      </trkpt>
      <trkpt lat="46.822288" lon="7.161328">
        <ele>678.8</ele>
        <time>2026-09-08T09:11:20.000Z</time>
      </trkpt>
      <trkpt lat="46.822259" lon="7.161506">
        <ele>679.7</ele>
        <time>2026-09-08T09:11:25.000Z</time>
      </trkpt>
      <trkpt lat="46.822220" lon="7.161691">
        <ele>680.5</ele>
        <time>2026-09-08T09:11:30.000Z</time>
      </trkpt>
      <trkpt lat="46.822173" lon="7.161883">
        <ele>681.4</ele>
        <time>2026-09-08T09:11:35.000Z</time>
      </trkpt>
      <trkpt lat="46.822117" lon="7.162082">
        <ele>682.3</ele>
        <time>2026-09-08T09:11:40.000Z</time>
      </trkpt>
      <trkpt lat="46.822053" lon="7.162286">
        <ele>683.2</ele>
        <time>2026-09-08T09:11:45.000Z</time>
      </trkpt>
      <trkpt lat="46.821982" lon="7.162496">
        <ele>684.0</ele>
        <time>2026-09-08T09:11:50.000Z</time>
      </trkpt>
      <trkpt lat="46.821905" lon="7.162711">
        <ele>684.9</ele>
        <time>2026-09-08T09:11:55.000Z</time>
      </trkpt>
      <trkpt lat="46.821823" lon="7.162929">
        <ele>685.7</ele>
        <time>2026-09-08T09:12:00.000Z</time>
      </trkpt>
      <trkpt lat="46.821737" lon="7.163150">
        <ele>686.6</ele>
        <time>2026-09-08T09:12:05.000Z</time>
      </trkpt>
      <trkpt lat="46.821649" lon="7.163373">
        <ele>687.4</ele>
        <time>2026-09-08T09:12:10.000Z</time>
      </trkpt>
      <trkpt lat="46.821560" lon="7.163597">
        <ele>688.3</ele>
        <time>2026-09-08T09:12:15.000Z</time>
      </trkpt>
      <trkpt lat="46.821470" lon="7.163821">
        <ele>689.1</ele>
        <time>2026-09-08T09:12:20.000Z</time>
      </trkpt>
      <trkpt lat="46.821383" lon="7.164044">
        <ele>689.9</ele>
        <time>2026-09-08T09:12:25.000Z</time>
      </trkpt>
      <trkpt lat="46.821298" lon="7.164265">
        <ele>690.7</ele>
        <time>2026-09-08T09:12:30.000Z</time>
      </trkpt>
      <trkpt lat="46.821217" lon="7.164482">
        <ele>691.6</ele>
        <time>2026-09-08T09:12:35.000Z</time>
      </trkpt>
      <trkpt lat="46.821142" lon="7.164695">
        <ele>692.4</ele>
        <time>2026-09-08T09:12:40.000Z</time>
      </trkpt>
      <trkpt lat="46.821074" lon="7.164903">
        <ele>693.2</ele>
        <time>2026-09-08T09:12:45.000Z</time>
      </trkpt>
      <trkpt lat="46.821013" lon="7.165105">
        <ele>694.0</ele>
        <time>2026-09-08T09:12:50.000Z</time>
      </trkpt>
      <trkpt lat="46.820961" lon="7.165300">
        <ele>694.8</ele>
        <time>2026-09-08T09:12:55.000Z</time>
      </trkpt>
      <trkpt lat="46.820920" lon="7.165488">
        <ele>695.6</ele>
        <time>2026-09-08T09:13:00.000Z</time>
      </trkpt>
      <trkpt lat="46.820888" lon="7.165668">
        <ele>696.4</ele>
        <time>2026-09-08T09:13:05.000Z</time>
      </trkpt>
      <trkpt lat="46.820868" lon="7.165839">
        <ele>697.1</ele>
        <time>2026-09-08T09:13:10.000Z</time>
      </trkpt>
      <trkpt lat="46.820859" lon="7.166001">
        <ele>697.9</ele>
        <time>2026-09-08T09:13:15.000Z</time>
      </trkpt>
      <trkpt lat="46.820862" lon="7.166155">
        <ele>698.7</ele>
        <time>2026-09-08T09:13:20.000Z</time>
      </trkpt>
      <trkpt lat="46.820877" lon="7.166299">
        <ele>699.5</ele>
        <time>2026-09-08T09:13:25.000Z</time>
      </trkpt>
      <trkpt lat="46.820904" lon="7.166435">
        <ele>700.2</ele>
        <time>2026-09-08T09:13:30.000Z</time>
      </trkpt>
      <trkpt lat="46.820942" lon="7.166561">
        <ele>701.0</ele>
        <time>2026-09-08T09:13:35.000Z</time>
      </trkpt>
      <trkpt lat="46.820992" lon="7.166679">
        <ele>701.7</ele>
        <time>2026-09-08T09:13:40.000Z</time>
      </trkpt>
      <trkpt lat="46.821052" lon="7.166789">
        <ele>702.5</ele>
        <time>2026-09-08T09:13:45.000Z</time>
      </trkpt>
      <trkpt lat="46.821122" lon="7.166891">
        <ele>703.2</ele>
        <time>2026-09-08T09:13:50.000Z</time>
      </trkpt>
      <trkpt lat="46.821201" lon="7.166987">
        <ele>703.9</ele>
        <time>2026-09-08T09:13:55.000Z</time>
      </trkpt>
      <trkpt lat="46.821288" lon="7.167076">
        <ele>704.7</ele>
        <time>2026-09-08T09:14:00.000Z</time>
      </trkpt>
      <trkpt lat="46.821382" lon="7.167160">
        <ele>705.4</ele>
        <time>2026-09-08T09:14:05.000Z</time>
      </trkpt>
      <trkpt lat="46.821483" lon="7.167238">
        <ele>706.1</ele>
        <time>2026-09-08T09:14:10.000Z</time>
      </trkpt>
      <trkpt lat="46.821589" lon="7.167313">
        <ele>706.8</ele>
        <time>2026-09-08T09:14:15.000Z</time>
      </trkpt>
      <trkpt lat="46.821699" lon="7.167385">
        <ele>707.5</ele>
        <time>2026-09-08T09:14:20.000Z</time>
      </trkpt>
      <trkpt lat="46.821812" lon="7.167455">
        <ele>708.2</ele>
        <time>2026-09-08T09:14:25.000Z</time>
      </trkpt>
      <trkpt lat="46.821926" lon="7.167523">
        <ele>708.9</ele>
        <time>2026-09-08T09:14:30.000Z</time>
      </trkpt>
      <trkpt lat="46.822042" lon="7.167591">
        <ele>709.6</ele>
        <time>2026-09-08T09:14:35.000Z</time>
      </trkpt>
      <trkpt lat="46.822157" lon="7.167658">
        <ele>710.3</ele>
        <time>2026-09-08T09:14:40.000Z</time>
      </trkpt>
      <trkpt lat="46.822272" lon="7.167726">
        <ele>710.9</ele>
        <time>2026-09-08T09:14:45.000Z</time>
      </trkpt>
      <trkpt lat="46.822385" lon="7.167796">
        <ele>711.6</ele>
        <time>2026-09-08T09:14:50.000Z</time>
      </trkpt>
      <trkpt lat="46.822496" lon="7.167867">
        <ele>712.3</ele>
        <time>2026-09-08T09:14:55.000Z</time>
      </trkpt>
      <trkpt lat="46.822605" lon="7.167940">
        <ele>712.9</ele>
        <time>2026-09-08T09:15:00.000Z</time>
      </trkpt>
      <trkpt lat="46.822710" lon="7.168015">
        <ele>713.6</ele>
        <time>2026-09-08T09:15:05.000Z</time>
      </trkpt>
      <trkpt lat="46.822812" lon="7.168093">
        <ele>714.2</ele>
        <time>2026-09-08T09:15:10.000Z</time>
      </trkpt>
      <trkpt lat="46.822911" lon="7.168173">
        <ele>714.8</ele>
        <time>2026-09-08T09:15:15.000Z</time>
      </trkpt>
      <trkpt lat="46.823007" lon="7.168256">
        <ele>715.5</ele>
        <time>2026-09-08T09:15:20.000Z</time>
      </trkpt>
      <trkpt lat="46.823100" lon="7.168341">
        <ele>716.1</ele>
        <time>2026-09-08T09:15:25.000Z</time>
      </trkpt>
      <trkpt lat="46.823190" lon="7.168427">
        <ele>716.7</ele>
        <time>2026-09-08T09:15:30.000Z</time>
      </trkpt>
      <trkpt lat="46.823279" lon="7.168515">
        <ele>717.3</ele>
        <time>2026-09-08T09:15:35.000Z</time>
      </trkpt>
      <trkpt lat="46.823366" lon="7.168605">
        <ele>717.9</ele>
        <time>2026-09-08T09:15:40.000Z</time>
      </trkpt>
      <trkpt lat="46.823452" lon="7.168694">
        <ele>718.5</ele>
        <time>2026-09-08T09:15:45.000Z</time>
      </trkpt>
      <trkpt lat="46.823539" lon="7.168784">
        <ele>719.1</ele>
        <time>2026-09-08T09:15:50.000Z</time>
      </trkpt>
      <trkpt lat="46.823627" lon="7.168872">
        <ele>719.7</ele>
        <time>2026-09-08T09:15:55.000Z</time>
      </trkpt>
      <trkpt lat="46.823717" lon="7.168959">
        <ele>720.2</ele>
        <time>2026-09-08T09:16:00.000Z</time>
      </trkpt>
      <trkpt lat="46.823810" lon="7.169044">
        <ele>720.8</ele>
        <time>2026-09-08T09:16:05.000Z</time>
      </trkpt>
      <trkpt lat="46.823907" lon="7.169126">
        <ele>721.4</ele>
        <time>2026-09-08T09:16:10.000Z</time>
      </trkpt>
      <trkpt lat="46.824008" lon="7.169204">
        <ele>721.9</ele>
        <time>2026-09-08T09:16:15.000Z</time>
      </trkpt>
      <trkpt lat="46.824116" lon="7.169278">
        <ele>722.5</ele>
        <time>2026-09-08T09:16:20.000Z</time>
      </trkpt>
      <trkpt lat="46.824229" lon="7.169347">
        <ele>723.0</ele>
        <time>2026-09-08T09:16:25.000Z</time>
      </trkpt>
      <trkpt lat="46.824350" lon="7.169410">
        <ele>723.5</ele>
        <time>2026-09-08T09:16:30.000Z</time>
      </trkpt>
      <trkpt lat="46.824479" lon="7.169468">
        <ele>724.0</ele>
        <time>2026-09-08T09:16:35.000Z</time>
      </trkpt>
      <trkpt lat="46.824617" lon="7.169519">
        <ele>724.6</ele>
        <time>2026-09-08T09:16:40.000Z</time>
      </trkpt>
      <trkpt lat="46.824763" lon="7.169563">
        <ele>725.1</ele>
        <time>2026-09-08T09:16:45.000Z</time>
      </trkpt>
      <trkpt lat="46.824918" lon="7.169600">
        <ele>725.6</ele>
        <time>2026-09-08T09:16:50.000Z</time>
      </trkpt>
      <trkpt lat="46.825081" lon="7.169631">
        <ele>726.1</ele>
        <time>2026-09-08T09:16:55.000Z</time>
      </trkpt>
      <trkpt lat="46.825254" lon="7.169655">
        <ele>726.6</ele>
        <time>2026-09-08T09:17:00.000Z</time>
      </trkpt>
      <trkpt lat="46.825436" lon="7.169672">
        <ele>727.0</ele>
        <time>2026-09-08T09:17:05.000Z</time>
      </trkpt>
      <trkpt lat="46.825626" lon="7.169683">
        <ele>727.5</ele>
        <time>2026-09-08T09:17:10.000Z</time>
      </trkpt>
      <trkpt lat="46.825823" lon="7.169688">
        <ele>728.0</ele>
        <time>2026-09-08T09:17:15.000Z</time>
      </trkpt>
      <trkpt lat="46.826028" lon="7.169687">
        <ele>728.4</ele>
        <time>2026-09-08T09:17:20.000Z</time>
      </trkpt>
      <trkpt lat="46.826238" lon="7.169682">
        <ele>728.9</ele>
        <time>2026-09-08T09:17:25.000Z</time>
      </trkpt>
      <trkpt lat="46.826454" lon="7.169673">
        <ele>729.3</ele>
        <time>2026-09-08T09:17:30.000Z</time>
      </trkpt>
      <trkpt lat="46.826674" lon="7.169661">
        <ele>729.8</ele>
        <time>2026-09-08T09:17:35.000Z</time>
      </trkpt>
      <trkpt lat="46.826897" lon="7.169646">
        <ele>730.2</ele>
        <time>2026-09-08T09:17:40.000Z</time>
      </trkpt>
      <trkpt lat="46.827121" lon="7.169631">
        <ele>730.6</ele>
        <time>2026-09-08T09:17:45.000Z</time>
      </trkpt>
      <trkpt lat="46.827346" lon="7.169615">
        <ele>731.0</ele>
        <time>2026-09-08T09:17:50.000Z</time>
      </trkpt>
      <trkpt lat="46.827571" lon="7.169599">
        <ele>731.4</ele>
        <time>2026-09-08T09:17:55.000Z</time>
      </trkpt>
      <trkpt lat="46.827792" lon="7.169586">
        <ele>731.8</ele>
        <time>2026-09-08T09:18:00.000Z</time>
      </trkpt>
      <trkpt lat="46.828011" lon="7.169575">
        <ele>732.2</ele>
        <time>2026-09-08T09:18:05.000Z</time>
      </trkpt>
      <trkpt lat="46.828224" lon="7.169567">
        <ele>732.6</ele>
        <time>2026-09-08T09:18:10.000Z</time>
      </trkpt>
      <trkpt lat="46.828432" lon="7.169564">
        <ele>733.0</ele>
        <time>2026-09-08T09:18:15.000Z</time>
      </trkpt>
      <trkpt lat="46.828633" lon="7.169567">
        <ele>733.4</ele>
        <time>2026-09-08T09:18:20.000Z</time>
      </trkpt>
      <trkpt lat="46.828825" lon="7.169576">
        <ele>733.7</ele>
        <time>2026-09-08T09:18:25.000Z</time>
      </trkpt>
      <trkpt lat="46.829009" lon="7.169591">
        <ele>734.1</ele>
        <time>2026-09-08T09:18:30.000Z</time>
      </trkpt>
      <trkpt lat="46.829183" lon="7.169614">
        <ele>734.4</ele>
        <time>2026-09-08T09:18:35.000Z</time>
      </trkpt>
      <trkpt lat="46.829346" lon="7.169645">
        <ele>734.7</ele>
        <time>2026-09-08T09:18:40.000Z</time>
      </trkpt>
      <trkpt lat="46.829499" lon="7.169684">
        <ele>735.1</ele>
        <time>2026-09-08T09:18:45.000Z</time>
      </trkpt>
      <trkpt lat="46.829641" lon="7.169731">
        <ele>735.4</ele>
        <time>2026-09-08T09:18:50.000Z</time>
      </trkpt>
      <trkpt lat="46.829772" lon="7.169787">
        <ele>735.7</ele>
        <time>2026-09-08T09:18:55.000Z</time>
      </trkpt>
      <trkpt lat="46.829892" lon="7.169851">
        <ele>736.0</ele>
        <time>2026-09-08T09:19:00.000Z</time>
      </trkpt>
      <trkpt lat="46.830002" lon="7.169923">
        <ele>736.3</ele>
        <time>2026-09-08T09:19:05.000Z</time>
      </trkpt>
      <trkpt lat="46.830101" lon="7.170003">
        <ele>736.6</ele>
        <time>2026-09-08T09:19:10.000Z</time>
      </trkpt>
      <trkpt lat="46.830190" lon="7.170091">
        <ele>736.9</ele>
        <time>2026-09-08T09:19:15.000Z</time>
      </trkpt>
      <trkpt lat="46.830271" lon="7.170185">
        <ele>737.2</ele>
        <time>2026-09-08T09:19:20.000Z</time>
      </trkpt>
      <trkpt lat="46.830343" lon="7.170286">
        <ele>737.4</ele>
        <time>2026-09-08T09:19:25.000Z</time>
      </trkpt>
      <trkpt lat="46.830409" lon="7.170391">
        <ele>737.7</ele>
        <time>2026-09-08T09:19:30.000Z</time>
      </trkpt>
      <trkpt lat="46.830468" lon="7.170502">
        <ele>737.9</ele>
        <time>2026-09-08T09:19:35.000Z</time>
      </trkpt>
      <trkpt lat="46.830522" lon="7.170616">
        <ele>738.2</ele>
        <time>2026-09-08T09:19:40.000Z</time>
      </trkpt>
      <trkpt lat="46.830573" lon="7.170733">
        <ele>738.4</ele>
        <time>2026-09-08T09:19:45.000Z</time>
      </trkpt>
      <trkpt lat="46.830621" lon="7.170853">
        <ele>738.6</ele>
        <time>2026-09-08T09:19:50.000Z</time>
      </trkpt>
      <trkpt lat="46.830668" lon="7.170973">
        <ele>738.8</ele>
        <time>2026-09-08T09:19:55.000Z</time>
      </trkpt>
      <trkpt lat="46.830714" lon="7.171093">
        <ele>739.0</ele>
        <time>2026-09-08T09:20:00.000Z</time>
      </trkpt>
      <trkpt lat="46.830761" lon="7.171213">
        <ele>739.2</ele>
        <time>2026-09-08T09:20:05.000Z</time>
      </trkpt>
      <trkpt lat="46.830811" lon="7.171330">
        <ele>739.4</ele>
        <time>2026-09-08T09:20:10.000Z</time>
      </trkpt>
      <trkpt lat="46.830863" lon="7.171446">
        <ele>739.6</ele>
        <time>2026-09-08T09:20:15.000Z</time>
      </trkpt>
      <trkpt lat="46.830920" lon="7.171559">
        <ele>739.8</ele>
        <time>2026-09-08T09:20:20.000Z</time>
      </trkpt>
      <trkpt lat="46.830981" lon="7.171668">
        <ele>739.9</ele>
        <time>2026-09-08T09:20:25.000Z</time>
      </trkpt>
      <trkpt lat="46.831048" lon="7.171773">
        <ele>740.1</ele>
        <time>2026-09-08T09:20:30.000Z</time>
      </trkpt>
      <trkpt lat="46.831120" lon="7.171873">
        <ele>740.3</ele>
        <time>2026-09-08T09:20:35.000Z</time>
      </trkpt>
      <trkpt lat="46.831199" lon="7.171968">
        <ele>740.4</ele>
        <time>2026-09-08T09:20:40.000Z</time>
      </trkpt>
      <trkpt lat="46.831285" lon="7.172059">
        <ele>740.5</ele>
        <time>2026-09-08T09:20:45.000Z</time>
      </trkpt>
      <trkpt lat="46.831376" lon="7.172145">
        <ele>740.6</ele>
        <time>2026-09-08T09:20:50.000Z</time>
      </trkpt>
      <trkpt lat="46.831475" lon="7.172225">
        <ele>740.8</ele>
        <time>2026-09-08T09:20:55.000Z</time>
      </trkpt>
      <trkpt lat="46.831579" lon="7.172301">
        <ele>740.9</ele>
        <time>2026-09-08T09:21:00.000Z</time>
      </trkpt>
      <trkpt lat="46.831689" lon="7.172373">
        <ele>741.0</ele>
        <time>2026-09-08T09:21:05.000Z</time>
      </trkpt>
      <trkpt lat="46.831805" lon="7.172441">
        <ele>741.1</ele>
        <time>2026-09-08T09:21:10.000Z</time>
      </trkpt>
      <trkpt lat="46.831925" lon="7.172505">
        <ele>741.1</ele>
        <time>2026-09-08T09:21:15.000Z</time>
      </trkpt>
      <trkpt lat="46.832048" lon="7.172566">
        <ele>741.2</ele>
        <time>2026-09-08T09:21:20.000Z</time>
      </trkpt>
      <trkpt lat="46.832175" lon="7.172625">
        <ele>741.3</ele>
        <time>2026-09-08T09:21:25.000Z</time>
      </trkpt>
      <trkpt lat="46.832304" lon="7.172683">
        <ele>741.3</ele>
        <time>2026-09-08T09:21:30.000Z</time>
      </trkpt>
      <trkpt lat="46.832434" lon="7.172739">
        <ele>741.4</ele>
        <time>2026-09-08T09:21:35.000Z</time>
      </trkpt>
      <trkpt lat="46.832564" lon="7.172796">
        <ele>741.4</ele>
        <time>2026-09-08T09:21:40.000Z</time>
      </trkpt>
      <trkpt lat="46.832693" lon="7.172853">
        <ele>741.5</ele>
        <time>2026-09-08T09:21:45.000Z</time>
      </trkpt>
      <trkpt lat="46.832821" lon="7.172911">
        <ele>741.5</ele>
        <time>2026-09-08T09:21:50.000Z</time>
      </trkpt>
      <trkpt lat="46.832945" lon="7.172972">
        <ele>741.5</ele>
        <time>2026-09-08T09:21:55.000Z</time>
      </trkpt>
      <trkpt lat="46.833066" lon="7.173035">
        <ele>741.5</ele>
        <time>2026-09-08T09:22:00.000Z</time>
      </trkpt>
      <trkpt lat="46.833183" lon="7.173102">
        <ele>741.5</ele>
        <time>2026-09-08T09:22:05.000Z</time>
      </trkpt>
      <trkpt lat="46.833294" lon="7.173172">
        <ele>741.5</ele>
        <time>2026-09-08T09:22:10.000Z</time>
      </trkpt>
      <trkpt lat="46.833400" lon="7.173247">
        <ele>741.5</ele>
        <time>2026-09-08T09:22:15.000Z</time>
      </trkpt>
      <trkpt lat="46.833500" lon="7.173327">
        <ele>741.4</ele>
        <time>2026-09-08T09:22:20.000Z</time>
      </trkpt>
      <trkpt lat="46.833594" lon="7.173411">
        <ele>741.4</ele>
        <time>2026-09-08T09:22:25.000Z</time>
      </trkpt>
      <trkpt lat="46.833681" lon="7.173500">
        <ele>741.3</ele>
        <time>2026-09-08T09:22:30.000Z</time>
      </trkpt>
      <trkpt lat="46.833761" lon="7.173595">
        <ele>741.3</ele>
        <time>2026-09-08T09:22:35.000Z</time>
      </trkpt>
      <trkpt lat="46.833835" lon="7.173694">
        <ele>741.2</ele>
        <time>2026-09-08T09:22:40.000Z</time>
      </trkpt>
      <trkpt lat="46.833903" lon="7.173798">
        <ele>741.2</ele>
        <time>2026-09-08T09:22:45.000Z</time>
      </trkpt>
      <trkpt lat="46.833966" lon="7.173906">
        <ele>741.1</ele>
        <time>2026-09-08T09:22:50.000Z</time>
      </trkpt>
      <trkpt lat="46.834023" lon="7.174018">
        <ele>741.0</ele>
        <time>2026-09-08T09:22:55.000Z</time>
      </trkpt>
      <trkpt lat="46.834076" lon="7.174133">
        <ele>740.9</ele>
        <time>2026-09-08T09:23:00.000Z</time>
      </trkpt>
      <trkpt lat="46.834126" lon="7.174251">
        <ele>740.8</ele>
        <time>2026-09-08T09:23:05.000Z</time>
      </trkpt>
      <trkpt lat="46.834173" lon="7.174371">
        <ele>740.7</ele>
        <time>2026-09-08T09:23:10.000Z</time>
      </trkpt>
      <trkpt lat="46.834218" lon="7.174492">
        <ele>740.5</ele>
        <time>2026-09-08T09:23:15.000Z</time>
      </trkpt>
      <trkpt lat="46.834263" lon="7.174613">
        <ele>740.4</ele>
        <time>2026-09-08T09:23:20.000Z</time>
      </trkpt>
      <trkpt lat="46.834308" lon="7.174734">
        <ele>740.3</ele>
        <time>2026-09-08T09:23:25.000Z</time>
      </trkpt>
      <trkpt lat="46.834356" lon="7.174854">
        <ele>740.1</ele>
        <time>2026-09-08T09:23:30.000Z</time>
      </trkpt>
      <trkpt lat="46.834405" lon="7.174972">
        <ele>740.0</ele>
        <time>2026-09-08T09:23:35.000Z</time>
      </trkpt>
      <trkpt lat="46.834459" lon="7.175087">
        <ele>739.8</ele>
        <time>2026-09-08T09:23:40.000Z</time>
      </trkpt>
      <trkpt lat="46.834518" lon="7.175198">
        <ele>739.6</ele>
        <time>2026-09-08T09:23:45.000Z</time>
      </trkpt>
      <trkpt lat="46.834582" lon="7.175304">
        <ele>739.4</ele>
        <time>2026-09-08T09:23:50.000Z</time>
      </trkpt>
      <trkpt lat="46.834654" lon="7.175405">
        <ele>739.2</ele>
        <time>2026-09-08T09:23:55.000Z</time>
      </trkpt>
      <trkpt lat="46.834732" lon="7.175501">
        <ele>739.0</ele>
        <time>2026-09-08T09:24:00.000Z</time>
      </trkpt>
      <trkpt lat="46.834819" lon="7.175591">
        <ele>738.8</ele>
        <time>2026-09-08T09:24:05.000Z</time>
      </trkpt>
      <trkpt lat="46.834914" lon="7.175674">
        <ele>738.6</ele>
        <time>2026-09-08T09:24:10.000Z</time>
      </trkpt>
      <trkpt lat="46.835019" lon="7.175750">
        <ele>738.4</ele>
        <time>2026-09-08T09:24:15.000Z</time>
      </trkpt>
      <trkpt lat="46.835132" lon="7.175819">
        <ele>738.2</ele>
        <time>2026-09-08T09:24:20.000Z</time>
      </trkpt>
      <trkpt lat="46.835254" lon="7.175881">
        <ele>737.9</ele>
        <time>2026-09-08T09:24:25.000Z</time>
      </trkpt>
      <trkpt lat="46.835386" lon="7.175937">
        <ele>737.7</ele>
        <time>2026-09-08T09:24:30.000Z</time>
      </trkpt>
      <trkpt lat="46.835525" lon="7.175986">
        <ele>737.4</ele>
        <time>2026-09-08T09:24:35.000Z</time>
      </trkpt>
      <trkpt lat="46.835673" lon="7.176029">
        <ele>737.1</ele>
        <time>2026-09-08T09:24:40.000Z</time>
      </trkpt>
      <trkpt lat="46.835828" lon="7.176066">
        <ele>736.9</ele>
        <time>2026-09-08T09:24:45.000Z</time>
      </trkpt>
      <trkpt lat="46.835990" lon="7.176098">
        <ele>736.6</ele>
        <time>2026-09-08T09:24:50.000Z</time>
      </trkpt>
      <trkpt lat="46.836158" lon="7.176126">
        <ele>736.3</ele>
        <time>2026-09-08T09:24:55.000Z</time>
      </trkpt>
      <trkpt lat="46.836330" lon="7.176151">
        <ele>736.0</ele>
        <time>2026-09-08T09:25:00.000Z</time>
      </trkpt>
      <trkpt lat="46.836505" lon="7.176172">
        <ele>735.7</ele>
        <time>2026-09-08T09:25:05.000Z</time>
      </trkpt>
      <trkpt lat="46.836683" lon="7.176193">
        <ele>735.4</ele>
        <time>2026-09-08T09:25:10.000Z</time>
      </trkpt>
      <trkpt lat="46.836861" lon="7.176212">
        <ele>735.0</ele>
        <time>2026-09-08T09:25:15.000Z</time>
      </trkpt>
      <trkpt lat="46.837039" lon="7.176232">
        <ele>734.7</ele>
        <time>2026-09-08T09:25:20.000Z</time>
      </trkpt>
      <trkpt lat="46.837216" lon="7.176253">
        <ele>734.4</ele>
        <time>2026-09-08T09:25:25.000Z</time>
      </trkpt>
      <trkpt lat="46.837389" lon="7.176276">
        <ele>734.0</ele>
        <time>2026-09-08T09:25:30.000Z</time>
      </trkpt>
      <trkpt lat="46.837558" lon="7.176303">
        <ele>733.7</ele>
        <time>2026-09-08T09:25:35.000Z</time>
      </trkpt>
      <trkpt lat="46.837721" lon="7.176334">
        <ele>733.3</ele>
        <time>2026-09-08T09:25:40.000Z</time>
      </trkpt>
      <trkpt lat="46.837878" lon="7.176370">
        <ele>732.9</ele>
        <time>2026-09-08T09:25:45.000Z</time>
      </trkpt>
      <trkpt lat="46.838027" lon="7.176412">
        <ele>732.5</ele>
        <time>2026-09-08T09:25:50.000Z</time>
      </trkpt>
      <trkpt lat="46.838167" lon="7.176461">
        <ele>732.1</ele>
        <time>2026-09-08T09:25:55.000Z</time>
      </trkpt>
      <trkpt lat="46.838297" lon="7.176517">
        <ele>731.7</ele>
        <time>2026-09-08T09:26:00.000Z</time>
      </trkpt>
      <trkpt lat="46.838418" lon="7.176581">
        <ele>731.3</ele>
        <time>2026-09-08T09:26:05.000Z</time>
      </trkpt>
      <trkpt lat="46.838528" lon="7.176653">
        <ele>730.9</ele>
        <time>2026-09-08T09:26:10.000Z</time>
      </trkpt>
      <trkpt lat="46.838626" lon="7.176733">
        <ele>730.5</ele>
        <time>2026-09-08T09:26:15.000Z</time>
      </trkpt>
      <trkpt lat="46.838714" lon="7.176822">
        <ele>730.1</ele>
        <time>2026-09-08T09:26:20.000Z</time>
      </trkpt>
      <trkpt lat="46.838790" lon="7.176919">
        <ele>729.6</ele>
        <time>2026-09-08T09:26:25.000Z</time>
      </trkpt>
      <trkpt lat="46.838856" lon="7.177025">
        <ele>729.2</ele>
        <time>2026-09-08T09:26:30.000Z</time>
      </trkpt>
      <trkpt lat="46.838910" lon="7.177139">
        <ele>728.7</ele>
        <time>2026-09-08T09:26:35.000Z</time>
      </trkpt>
      <trkpt lat="46.838955" lon="7.177261">
        <ele>728.2</ele>
        <time>2026-09-08T09:26:40.000Z</time>
      </trkpt>
      <trkpt lat="46.838990" lon="7.177390">
        <ele>727.8</ele>
        <time>2026-09-08T09:26:45.000Z</time>
      </trkpt>
      <trkpt lat="46.839016" lon="7.177526">
        <ele>727.3</ele>
        <time>2026-09-08T09:26:50.000Z</time>
      </trkpt>
      <trkpt lat="46.839033" lon="7.177668">
        <ele>726.8</ele>
        <time>2026-09-08T09:26:55.000Z</time>
      </trkpt>
      <trkpt lat="46.839044" lon="7.177816">
        <ele>726.3</ele>
        <time>2026-09-08T09:27:00.000Z</time>
      </trkpt>
      <trkpt lat="46.839049" lon="7.177968">
        <ele>725.8</ele>
        <time>2026-09-08T09:27:05.000Z</time>
      </trkpt>
      <trkpt lat="46.839049" lon="7.178124">
        <ele>725.3</ele>
        <time>2026-09-08T09:27:10.000Z</time>
      </trkpt>
      <trkpt lat="46.839044" lon="7.178283">
        <ele>724.8</ele>
        <time>2026-09-08T09:27:15.000Z</time>
      </trkpt>
      <trkpt lat="46.839037" lon="7.178445">
        <ele>724.3</ele>
        <time>2026-09-08T09:27:20.000Z</time>
      </trkpt>
      <trkpt lat="46.839028" lon="7.178607">
        <ele>723.7</ele>
        <time>2026-09-08T09:27:25.000Z</time>
      </trkpt>
      <trkpt lat="46.839018" lon="7.178770">
        <ele>723.2</ele>
        <time>2026-09-08T09:27:30.000Z</time>
      </trkpt>
      <trkpt lat="46.839008" lon="7.178934">
        <ele>722.6</ele>
        <time>2026-09-08T09:27:35.000Z</time>
      </trkpt>
      <trkpt lat="46.839000" lon="7.179096">
        <ele>722.1</ele>
        <time>2026-09-08T09:27:40.000Z</time>
      </trkpt>
      <trkpt lat="46.838993" lon="7.179257">
        <ele>721.5</ele>
        <time>2026-09-08T09:27:45.000Z</time>
      </trkpt>
      <trkpt lat="46.838989" lon="7.179416">
        <ele>720.9</ele>
        <time>2026-09-08T09:27:50.000Z</time>
      </trkpt>
      <trkpt lat="46.838988" lon="7.179573">
        <ele>720.3</ele>
        <time>2026-09-08T09:27:55.000Z</time>
      </trkpt>
      <trkpt lat="46.838990" lon="7.179726">
        <ele>719.8</ele>
        <time>2026-09-08T09:28:00.000Z</time>
      </trkpt>
      <trkpt lat="46.838996" lon="7.179878">
        <ele>719.2</ele>
        <time>2026-09-08T09:28:05.000Z</time>
      </trkpt>
      <trkpt lat="46.839006" lon="7.180026">
        <ele>718.6</ele>
        <time>2026-09-08T09:28:10.000Z</time>
      </trkpt>
      <trkpt lat="46.839020" lon="7.180171">
        <ele>718.0</ele>
        <time>2026-09-08T09:28:15.000Z</time>
      </trkpt>
      <trkpt lat="46.839037" lon="7.180313">
        <ele>717.3</ele>
        <time>2026-09-08T09:28:20.000Z</time>
      </trkpt>
      <trkpt lat="46.839058" lon="7.180453">
        <ele>716.7</ele>
        <time>2026-09-08T09:28:25.000Z</time>
      </trkpt>
      <trkpt lat="46.839082" lon="7.180591">
        <ele>716.1</ele>
        <time>2026-09-08T09:28:30.000Z</time>
      </trkpt>
      <trkpt lat="46.839108" lon="7.180727">
        <ele>715.4</ele>
        <time>2026-09-08T09:28:35.000Z</time>
      </trkpt>
      <trkpt lat="46.839136" lon="7.180861">
        <ele>714.8</ele>
        <time>2026-09-08T09:28:40.000Z</time>
      </trkpt>
      <trkpt lat="46.839164" lon="7.180995">
        <ele>714.1</ele>
        <time>2026-09-08T09:28:45.000Z</time>
      </trkpt>
      <trkpt lat="46.839193" lon="7.181129">
        <ele>713.5</ele>
        <time>2026-09-08T09:28:50.000Z</time>
      </trkpt>
      <trkpt lat="46.839221" lon="7.181264">
        <ele>712.8</ele>
        <time>2026-09-08T09:28:55.000Z</time>
      </trkpt>
      <trkpt lat="46.839247" lon="7.181400">
        <ele>712.1</ele>
        <time>2026-09-08T09:29:00.000Z</time>
      </trkpt>
      <trkpt lat="46.839270" lon="7.181538">
        <ele>711.5</ele>
        <time>2026-09-08T09:29:05.000Z</time>
      </trkpt>
      <trkpt lat="46.839290" lon="7.181678">
        <ele>710.8</ele>
        <time>2026-09-08T09:29:10.000Z</time>
      </trkpt>
      <trkpt lat="46.839305" lon="7.181823">
        <ele>710.1</ele>
        <time>2026-09-08T09:29:15.000Z</time>
      </trkpt>
      <trkpt lat="46.839314" lon="7.181971">
        <ele>709.4</ele>
        <time>2026-09-08T09:29:20.000Z</time>
      </trkpt>
      <trkpt lat="46.839318" lon="7.182124">
        <ele>708.7</ele>
        <time>2026-09-08T09:29:25.000Z</time>
      </trkpt>
      <trkpt lat="46.839315" lon="7.182282">
        <ele>707.9</ele>
        <time>2026-09-08T09:29:30.000Z</time>
      </trkpt>
      <trkpt lat="46.839304" lon="7.182446">
        <ele>707.2</ele>
        <time>2026-09-08T09:29:35.000Z</time>
      </trkpt>
      <trkpt lat="46.839285" lon="7.182616">
        <ele>706.5</ele>
        <time>2026-09-08T09:29:40.000Z</time>
      </trkpt>
      <trkpt lat="46.839259" lon="7.182793">
        <ele>705.7</ele>
        <time>2026-09-08T09:29:45.000Z</time>
      </trkpt>
      <trkpt lat="46.839223" lon="7.182975">
        <ele>705.0</ele>
        <time>2026-09-08T09:29:50.000Z</time>
      </trkpt>
      <trkpt lat="46.839180" lon="7.183164">
        <ele>704.3</ele>
        <time>2026-09-08T09:29:55.000Z</time>
      </trkpt>
      <trkpt lat="46.839129" lon="7.183359">
        <ele>703.5</ele>
        <time>2026-09-08T09:30:00.000Z</time>
      </trkpt>
      <trkpt lat="46.839069" lon="7.183560">
        <ele>702.7</ele>
        <time>2026-09-08T09:30:05.000Z</time>
      </trkpt>
      <trkpt lat="46.839003" lon="7.183767">
        <ele>702.0</ele>
        <time>2026-09-08T09:30:10.000Z</time>
      </trkpt>
      <trkpt lat="46.838930" lon="7.183978">
        <ele>701.2</ele>
        <time>2026-09-08T09:30:15.000Z</time>
      </trkpt>
      <trkpt lat="46.838851" lon="7.184194">
        <ele>700.4</ele>
        <time>2026-09-08T09:30:20.000Z</time>
      </trkpt>
      <trkpt lat="46.838767" lon="7.184414">
        <ele>699.6</ele>
        <time>2026-09-08T09:30:25.000Z</time>
      </trkpt>
      <trkpt lat="46.838679" lon="7.184637">
        <ele>698.8</ele>
        <time>2026-09-08T09:30:30.000Z</time>
      </trkpt>
      <trkpt lat="46.838588" lon="7.184862">
        <ele>698.0</ele>
        <time>2026-09-08T09:30:35.000Z</time>
      </trkpt>
      <trkpt lat="46.838496" lon="7.185088">
        <ele>697.2</ele>
        <time>2026-09-08T09:30:40.000Z</time>
      </trkpt>
      <trkpt lat="46.838404" lon="7.185314">
        <ele>696.4</ele>
        <time>2026-09-08T09:30:45.000Z</time>
      </trkpt>
      <trkpt lat="46.838313" lon="7.185540">
        <ele>695.6</ele>
        <time>2026-09-08T09:30:50.000Z</time>
      </trkpt>
      <trkpt lat="46.838224" lon="7.185763">
        <ele>694.8</ele>
        <time>2026-09-08T09:30:55.000Z</time>
      </trkpt>
      <trkpt lat="46.838139" lon="7.185984">
        <ele>693.9</ele>
        <time>2026-09-08T09:31:00.000Z</time>
      </trkpt>
      <trkpt lat="46.838059" lon="7.186201">
        <ele>693.1</ele>
        <time>2026-09-08T09:31:05.000Z</time>
      </trkpt>
      <trkpt lat="46.837986" lon="7.186412">
        <ele>692.2</ele>
        <time>2026-09-08T09:31:10.000Z</time>
      </trkpt>
      <trkpt lat="46.837920" lon="7.186618">
        <ele>691.4</ele>
        <time>2026-09-08T09:31:15.000Z</time>
      </trkpt>
      <trkpt lat="46.837863" lon="7.186818">
        <ele>690.5</ele>
        <time>2026-09-08T09:31:20.000Z</time>
      </trkpt>
      <trkpt lat="46.837816" lon="7.187010">
        <ele>689.7</ele>
        <time>2026-09-08T09:31:25.000Z</time>
      </trkpt>
      <trkpt lat="46.837779" lon="7.187193">
        <ele>688.8</ele>
        <time>2026-09-08T09:31:30.000Z</time>
      </trkpt>
      <trkpt lat="46.837754" lon="7.187369">
        <ele>687.9</ele>
        <time>2026-09-08T09:31:35.000Z</time>
      </trkpt>
      <trkpt lat="46.837740" lon="7.187535">
        <ele>687.1</ele>
        <time>2026-09-08T09:31:40.000Z</time>
      </trkpt>
      <trkpt lat="46.837739" lon="7.187692">
        <ele>686.2</ele>
        <time>2026-09-08T09:31:45.000Z</time>
      </trkpt>
      <trkpt lat="46.837750" lon="7.187839">
        <ele>685.3</ele>
        <time>2026-09-08T09:31:50.000Z</time>
      </trkpt>
      <trkpt lat="46.837773" lon="7.187977">
        <ele>684.4</ele>
        <time>2026-09-08T09:31:55.000Z</time>
      </trkpt>
      <trkpt lat="46.837809" lon="7.188105">
        <ele>683.5</ele>
        <time>2026-09-08T09:32:00.000Z</time>
      </trkpt>
      <trkpt lat="46.837858" lon="7.188224">
        <ele>682.6</ele>
        <time>2026-09-08T09:32:05.000Z</time>
      </trkpt>
      <trkpt lat="46.837917" lon="7.188334">
        <ele>681.7</ele>
        <time>2026-09-08T09:32:10.000Z</time>
      </trkpt>
      <trkpt lat="46.837988" lon="7.188435">
        <ele>680.7</ele>
        <time>2026-09-08T09:32:15.000Z</time>
      </trkpt>
      <trkpt lat="46.838070" lon="7.188529">
        <ele>679.8</ele>
        <time>2026-09-08T09:32:20.000Z</time>
      </trkpt>
      <trkpt lat="46.838160" lon="7.188616">
        <ele>678.9</ele>
        <time>2026-09-08T09:32:25.000Z</time>
      </trkpt>
      <trkpt lat="46.838260" lon="7.188696">
        <ele>678.0</ele>
        <time>2026-09-08T09:32:30.000Z</time>
      </trkpt>
      <trkpt lat="46.838366" lon="7.188770">
        <ele>677.0</ele>
        <time>2026-09-08T09:32:35.000Z</time>
      </trkpt>
      <trkpt lat="46.838479" lon="7.188839">
        <ele>676.1</ele>
        <time>2026-09-08T09:32:40.000Z</time>
      </trkpt>
      <trkpt lat="46.838597" lon="7.188905">
        <ele>675.1</ele>
        <time>2026-09-08T09:32:45.000Z</time>
      </trkpt>
      <trkpt lat="46.838720" lon="7.188967">
        <ele>674.2</ele>
        <time>2026-09-08T09:32:50.000Z</time>
      </trkpt>
      <trkpt lat="46.838844" lon="7.189028">
        <ele>673.2</ele>
        <time>2026-09-08T09:32:55.000Z</time>
      </trkpt>
      <trkpt lat="46.838971" lon="7.189087">
        <ele>672.3</ele>
        <time>2026-09-08T09:33:00.000Z</time>
      </trkpt>
      <trkpt lat="46.839098" lon="7.189146">
        <ele>671.3</ele>
        <time>2026-09-08T09:33:05.000Z</time>
      </trkpt>
      <trkpt lat="46.839225" lon="7.189205">
        <ele>670.3</ele>
        <time>2026-09-08T09:33:10.000Z</time>
      </trkpt>
      <trkpt lat="46.839350" lon="7.189265">
        <ele>669.4</ele>
        <time>2026-09-08T09:33:15.000Z</time>
      </trkpt>
      <trkpt lat="46.839472" lon="7.189327">
        <ele>668.4</ele>
        <time>2026-09-08T09:33:20.000Z</time>
      </trkpt>
      <trkpt lat="46.839592" lon="7.189391">
        <ele>667.4</ele>
        <time>2026-09-08T09:33:25.000Z</time>
      </trkpt>
      <trkpt lat="46.839708" lon="7.189459">
        <ele>666.4</ele>
        <time>2026-09-08T09:33:30.000Z</time>
      </trkpt>
      <trkpt lat="46.839820" lon="7.189529">
        <ele>665.4</ele>
        <time>2026-09-08T09:33:35.000Z</time>
      </trkpt>
      <trkpt lat="46.839927" lon="7.189603">
        <ele>664.4</ele>
        <time>2026-09-08T09:33:40.000Z</time>
      </trkpt>
      <trkpt lat="46.840030" lon="7.189680">
        <ele>663.4</ele>
        <time>2026-09-08T09:33:45.000Z</time>
      </trkpt>
      <trkpt lat="46.840129" lon="7.189761">
        <ele>662.4</ele>
        <time>2026-09-08T09:33:50.000Z</time>
      </trkpt>
      <trkpt lat="46.840223" lon="7.189845">
        <ele>661.4</ele>
        <time>2026-09-08T09:33:55.000Z</time>
      </trkpt>
      <trkpt lat="46.840312" lon="7.189932">
        <ele>660.4</ele>
        <time>2026-09-08T09:34:00.000Z</time>
      </trkpt>
      <trkpt lat="46.840398" lon="7.190022">
        <ele>659.3</ele>
        <time>2026-09-08T09:34:05.000Z</time>
      </trkpt>
      <trkpt lat="46.840481" lon="7.190114">
        <ele>658.3</ele>
        <time>2026-09-08T09:34:10.000Z</time>
      </trkpt>
      <trkpt lat="46.840562" lon="7.190209">
        <ele>657.3</ele>
        <time>2026-09-08T09:34:15.000Z</time>
      </trkpt>
      <trkpt lat="46.840640" lon="7.190304">
        <ele>656.3</ele>
        <time>2026-09-08T09:34:20.000Z</time>
      </trkpt>
      <trkpt lat="46.840718" lon="7.190401">
        <ele>655.2</ele>
        <time>2026-09-08T09:34:25.000Z</time>
      </trkpt>
      <trkpt lat="46.840796" lon="7.190497">
        <ele>654.2</ele>
        <time>2026-09-08T09:34:30.000Z</time>
      </trkpt>
      <trkpt lat="46.840875" lon="7.190593">
        <ele>653.2</ele>
        <time>2026-09-08T09:34:35.000Z</time>
      </trkpt>
      <trkpt lat="46.840955" lon="7.190687">
        <ele>652.1</ele>
        <time>2026-09-08T09:34:40.000Z</time>
      </trkpt>
      <trkpt lat="46.841039" lon="7.190779">
        <ele>651.1</ele>
        <time>2026-09-08T09:34:45.000Z</time>
      </trkpt>
      <trkpt lat="46.841126" lon="7.190869">
        <ele>650.0</ele>
        <time>2026-09-08T09:34:50.000Z</time>
      </trkpt>
      <trkpt lat="46.841217" lon="7.190954">
        <ele>648.9</ele>
        <time>2026-09-08T09:34:55.000Z</time>
      </trkpt>
      <trkpt lat="46.841314" lon="7.191036">
        <ele>647.9</ele>
        <time>2026-09-08T09:35:00.000Z</time>
      </trkpt>
      <trkpt lat="46.841417" lon="7.191114">
        <ele>646.8</ele>
        <time>2026-09-08T09:35:05.000Z</time>
      </trkpt>
      <trkpt lat="46.841526" lon="7.191186">
        <ele>645.8</ele>
        <time>2026-09-08T09:35:10.000Z</time>
      </trkpt>
      <trkpt lat="46.841642" lon="7.191253">
        <ele>644.7</ele>
        <time>2026-09-08T09:35:15.000Z</time>
      </trkpt>
      <trkpt lat="46.841765" lon="7.191314">
        <ele>643.6</ele>
        <time>2026-09-08T09:35:20.000Z</time>
      </trkpt>
      <trkpt lat="46.841896" lon="7.191370">
        <ele>642.5</ele>
        <time>2026-09-08T09:35:25.000Z</time>
      </trkpt>
      <trkpt lat="46.842035" lon="7.191420">
        <ele>641.5</ele>
        <time>2026-09-08T09:35:30.000Z</time>
      </trkpt>
      <trkpt lat="46.842180" lon="7.191465">
        <ele>640.4</ele>
        <time>2026-09-08T09:35:35.000Z</time>
      </trkpt>
      <trkpt lat="46.842333" lon="7.191504">
        <ele>639.3</ele>
        <time>2026-09-08T09:35:40.000Z</time>
      </trkpt>
      <trkpt lat="46.842492" lon="7.191538">
        <ele>638.2</ele>
        <time>2026-09-08T09:35:45.000Z</time>
      </trkpt>
      <trkpt lat="46.842658" lon="7.191568">
        <ele>637.1</ele>
        <time>2026-09-08T09:35:50.000Z</time>
      </trkpt>
      <trkpt lat="46.842828" lon="7.191593">
        <ele>636.0</ele>
        <time>2026-09-08T09:35:55.000Z</time>
      </trkpt>
      <trkpt lat="46.843003" lon="7.191615">
        <ele>634.9</ele>
        <time>2026-09-08T09:36:00.000Z</time>
      </trkpt>
      <trkpt lat="46.843182" lon="7.191635">
        <ele>633.8</ele>
        <time>2026-09-08T09:36:05.000Z</time>
      </trkpt>
      <trkpt lat="46.843363" lon="7.191653">
        <ele>632.7</ele>
        <time>2026-09-08T09:36:10.000Z</time>
      </trkpt>
      <trkpt lat="46.843545" lon="7.191669">
        <ele>631.6</ele>
        <time>2026-09-08T09:36:15.000Z</time>
      </trkpt>
      <trkpt lat="46.843727" lon="7.191686">
        <ele>630.5</ele>
        <time>2026-09-08T09:36:20.000Z</time>
      </trkpt>
      <trkpt lat="46.843908" lon="7.191703">
        <ele>629.4</ele>
        <time>2026-09-08T09:36:25.000Z</time>
      </trkpt>
      <trkpt lat="46.844087" lon="7.191722">
        <ele>628.3</ele>
        <time>2026-09-08T09:36:30.000Z</time>
      </trkpt>
      <trkpt lat="46.844263" lon="7.191744">
        <ele>627.2</ele>
        <time>2026-09-08T09:36:35.000Z</time>
      </trkpt>
      <trkpt lat="46.844434" lon="7.191769">
        <ele>626.0</ele>
        <time>2026-09-08T09:36:40.000Z</time>
      </trkpt>
      <trkpt lat="46.844599" lon="7.191799">
        <ele>624.9</ele>
        <time>2026-09-08T09:36:45.000Z</time>
      </trkpt>
      <trkpt lat="46.844757" lon="7.191834">
        <ele>623.8</ele>
        <time>2026-09-08T09:36:50.000Z</time>
      </trkpt>
      <trkpt lat="46.844908" lon="7.191874">
        <ele>622.7</ele>
        <time>2026-09-08T09:36:55.000Z</time>
      </trkpt>
      <trkpt lat="46.845050" lon="7.191921">
        <ele>621.5</ele>
        <time>2026-09-08T09:37:00.000Z</time>
      </trkpt>
      <trkpt lat="46.845184" lon="7.191975">
        <ele>620.4</ele>
        <time>2026-09-08T09:37:05.000Z</time>
      </trkpt>
      <trkpt lat="46.845307" lon="7.192037">
        <ele>619.3</ele>
        <time>2026-09-08T09:37:10.000Z</time>
      </trkpt>
      <trkpt lat="46.845421" lon="7.192105">
        <ele>618.2</ele>
        <time>2026-09-08T09:37:15.000Z</time>
      </trkpt>
      <trkpt lat="46.845525" lon="7.192182">
        <ele>617.0</ele>
        <time>2026-09-08T09:37:20.000Z</time>
      </trkpt>
      <trkpt lat="46.845618" lon="7.192266">
        <ele>615.9</ele>
        <time>2026-09-08T09:37:25.000Z</time>
      </trkpt>
      <trkpt lat="46.845702" lon="7.192359">
        <ele>614.8</ele>
        <time>2026-09-08T09:37:30.000Z</time>
      </trkpt>
      <trkpt lat="46.845775" lon="7.192458">
        <ele>613.6</ele>
        <time>2026-09-08T09:37:35.000Z</time>
      </trkpt>
      <trkpt lat="46.845840" lon="7.192564">
        <ele>612.5</ele>
        <time>2026-09-08T09:37:40.000Z</time>
      </trkpt>
      <trkpt lat="46.845896" lon="7.192677">
        <ele>611.3</ele>
        <time>2026-09-08T09:37:45.000Z</time>
      </trkpt>
      <trkpt lat="46.845944" lon="7.192796">
        <ele>610.2</ele>
        <time>2026-09-08T09:37:50.000Z</time>
      </trkpt>
      <trkpt lat="46.845986" lon="7.192920">
        <ele>609.0</ele>
        <time>2026-09-08T09:37:55.000Z</time>
      </trkpt>
      <trkpt lat="46.846022" lon="7.193049">
        <ele>607.9</ele>
        <time>2026-09-08T09:38:00.000Z</time>
      </trkpt>
      <trkpt lat="46.846053" lon="7.193181">
        <ele>606.8</ele>
        <time>2026-09-08T09:38:05.000Z</time>
      </trkpt>
      <trkpt lat="46.846080" lon="7.193316">
        <ele>605.6</ele>
        <time>2026-09-08T09:38:10.000Z</time>
      </trkpt>
      <trkpt lat="46.846105" lon="7.193452">
        <ele>604.5</ele>
        <time>2026-09-08T09:38:15.000Z</time>
      </trkpt>
      <trkpt lat="46.846130" lon="7.193589">
        <ele>603.3</ele>
        <time>2026-09-08T09:38:20.000Z</time>
      </trkpt>
      <trkpt lat="46.846154" lon="7.193726">
        <ele>602.2</ele>
        <time>2026-09-08T09:38:25.000Z</time>
      </trkpt>
      <trkpt lat="46.846181" lon="7.193862">
        <ele>601.0</ele>
        <time>2026-09-08T09:38:30.000Z</time>
      </trkpt>
      <trkpt lat="46.846210" lon="7.193995">
        <ele>599.8</ele>
        <time>2026-09-08T09:38:35.000Z</time>
      </trkpt>
      <trkpt lat="46.846243" lon="7.194126">
        <ele>598.7</ele>
        <time>2026-09-08T09:38:40.000Z</time>
      </trkpt>
      <trkpt lat="46.846281" lon="7.194253">
        <ele>597.5</ele>
        <time>2026-09-08T09:38:45.000Z</time>
      </trkpt>
      <trkpt lat="46.846325" lon="7.194375">
        <ele>596.4</ele>
        <time>2026-09-08T09:38:50.000Z</time>
      </trkpt>
      <trkpt lat="46.846376" lon="7.194491">
        <ele>595.2</ele>
        <time>2026-09-08T09:38:55.000Z</time>
      </trkpt>
      <trkpt lat="46.846435" lon="7.194602">
        <ele>594.1</ele>
        <time>2026-09-08T09:39:00.000Z</time>
      </trkpt>
      <trkpt lat="46.846502" lon="7.194707">
        <ele>592.9</ele>
        <time>2026-09-08T09:39:05.000Z</time>
      </trkpt>
      <trkpt lat="46.846577" lon="7.194805">
        <ele>591.7</ele>
        <time>2026-09-08T09:39:10.000Z</time>
      </trkpt>
      <trkpt lat="46.846662" lon="7.194896">
        <ele>590.6</ele>
        <time>2026-09-08T09:39:15.000Z</time>
      </trkpt>
      <trkpt lat="46.846755" lon="7.194981">
        <ele>589.4</ele>
        <time>2026-09-08T09:39:20.000Z</time>
      </trkpt>
      <trkpt lat="46.846857" lon="7.195059">
        <ele>588.3</ele>
        <time>2026-09-08T09:39:25.000Z</time>
      </trkpt>
      <trkpt lat="46.846968" lon="7.195130">
        <ele>587.1</ele>
        <time>2026-09-08T09:39:30.000Z</time>
      </trkpt>
      <trkpt lat="46.847088" lon="7.195194">
        <ele>585.9</ele>
        <time>2026-09-08T09:39:35.000Z</time>
      </trkpt>
      <trkpt lat="46.847215" lon="7.195253">
        <ele>584.8</ele>
        <time>2026-09-08T09:39:40.000Z</time>
      </trkpt>
      <trkpt lat="46.847349" lon="7.195306">
        <ele>583.6</ele>
        <time>2026-09-08T09:39:45.000Z</time>
      </trkpt>
      <trkpt lat="46.847490" lon="7.195355">
        <ele>582.5</ele>
        <time>2026-09-08T09:39:50.000Z</time>
      </trkpt>
      <trkpt lat="46.847636" lon="7.195399">
        <ele>581.3</ele>
        <time>2026-09-08T09:39:55.000Z</time>
      </trkpt>
      <trkpt lat="46.847786" lon="7.195439">
        <ele>580.1</ele>
        <time>2026-09-08T09:40:00.000Z</time>
      </trkpt>
      <trkpt lat="46.847941" lon="7.195477">
        <ele>579.0</ele>
        <time>2026-09-08T09:40:05.000Z</time>
      </trkpt>
      <trkpt lat="46.848098" lon="7.195513">
        <ele>577.8</ele>
        <time>2026-09-08T09:40:10.000Z</time>
      </trkpt>
      <trkpt lat="46.848256" lon="7.195548">
        <ele>576.7</ele>
        <time>2026-09-08T09:40:15.000Z</time>
      </trkpt>
      <trkpt lat="46.848414" lon="7.195583">
        <ele>575.5</ele>
        <time>2026-09-08T09:40:20.000Z</time>
      </trkpt>
      <trkpt lat="46.848573" lon="7.195618">
        <ele>574.3</ele>
        <time>2026-09-08T09:40:25.000Z</time>
      </trkpt>
      <trkpt lat="46.848729" lon="7.195654">
        <ele>573.2</ele>
        <time>2026-09-08T09:40:30.000Z</time>
      </trkpt>
      <trkpt lat="46.848883" lon="7.195692">
        <ele>572.0</ele>
        <time>2026-09-08T09:40:35.000Z</time>
      </trkpt>
      <trkpt lat="46.849034" lon="7.195733">
        <ele>570.9</ele>
        <time>2026-09-08T09:40:40.000Z</time>
      </trkpt>
      <trkpt lat="46.849181" lon="7.195777">
        <ele>569.7</ele>
        <time>2026-09-08T09:40:45.000Z</time>
      </trkpt>
      <trkpt lat="46.849323" lon="7.195824">
        <ele>568.5</ele>
        <time>2026-09-08T09:40:50.000Z</time>
      </trkpt>
      <trkpt lat="46.849460" lon="7.195875">
        <ele>567.4</ele>
        <time>2026-09-08T09:40:55.000Z</time>
      </trkpt>
      <trkpt lat="46.849592" lon="7.195930">
        <ele>566.2</ele>
        <time>2026-09-08T09:41:00.000Z</time>
      </trkpt>
      <trkpt lat="46.849719" lon="7.195989">
        <ele>565.1</ele>
        <time>2026-09-08T09:41:05.000Z</time>
      </trkpt>
      <trkpt lat="46.849840" lon="7.196052">
        <ele>563.9</ele>
        <time>2026-09-08T09:41:10.000Z</time>
      </trkpt>
      <trkpt lat="46.849956" lon="7.196120">
        <ele>562.8</ele>
        <time>2026-09-08T09:41:15.000Z</time>
      </trkpt>
      <trkpt lat="46.850066" lon="7.196191">
        <ele>561.6</ele>
        <time>2026-09-08T09:41:20.000Z</time>
      </trkpt>
      <trkpt lat="46.850172" lon="7.196266">
        <ele>560.5</ele>
        <time>2026-09-08T09:41:25.000Z</time>
      </trkpt>
      <trkpt lat="46.850274" lon="7.196344">
        <ele>559.3</ele>
        <time>2026-09-08T09:41:30.000Z</time>
      </trkpt>
      <trkpt lat="46.850372" lon="7.196424">
        <ele>558.2</ele>
        <time>2026-09-08T09:41:35.000Z</time>
      </trkpt>
      <trkpt lat="46.850468" lon="7.196507">
        <ele>557.0</ele>
        <time>2026-09-08T09:41:40.000Z</time>
      </trkpt>
      <trkpt lat="46.850562" lon="7.196591">
        <ele>555.9</ele>
        <time>2026-09-08T09:41:45.000Z</time>
      </trkpt>
      <trkpt lat="46.850655" lon="7.196675">
        <ele>554.7</ele>
        <time>2026-09-08T09:41:50.000Z</time>
      </trkpt>
      <trkpt lat="46.850749" lon="7.196760">
        <ele>553.6</ele>
        <time>2026-09-08T09:41:55.000Z</time>
      </trkpt>
      <trkpt lat="46.850843" lon="7.196844">
        <ele>552.4</ele>
        <time>2026-09-08T09:42:00.000Z</time>
      </trkpt>
      <trkpt lat="46.850939" lon="7.196926">
        <ele>551.3</ele>
        <time>2026-09-08T09:42:05.000Z</time>
      </trkpt>
      <trkpt lat="46.851039" lon="7.197006">
        <ele>550.1</ele>
        <time>2026-09-08T09:42:10.000Z</time>
      </trkpt>
      <trkpt lat="46.851142" lon="7.197083">
        <ele>549.0</ele>
        <time>2026-09-08T09:42:15.000Z</time>
      </trkpt>
      <trkpt lat="46.851250" lon="7.197156">
        <ele>547.9</ele>
        <time>2026-09-08T09:42:20.000Z</time>
      </trkpt>
      <trkpt lat="46.851364" lon="7.197225">
        <ele>546.7</ele>
        <time>2026-09-08T09:42:25.000Z</time>
      </trkpt>
      <trkpt lat="46.851484" lon="7.197289">
        <ele>545.6</ele>
        <time>2026-09-08T09:42:30.000Z</time>
      </trkpt>
      <trkpt lat="46.851611" lon="7.197347">
        <ele>544.4</ele>
        <time>2026-09-08T09:42:35.000Z</time>
      </trkpt>
      <trkpt lat="46.851746" lon="7.197401">
        <ele>543.3</ele>
        <time>2026-09-08T09:42:40.000Z</time>
      </trkpt>
      <trkpt lat="46.851887" lon="7.197448">
        <ele>542.2</ele>
        <time>2026-09-08T09:42:45.000Z</time>
      </trkpt>
      <trkpt lat="46.852037" lon="7.197490">
        <ele>541.1</ele>
        <time>2026-09-08T09:42:50.000Z</time>
      </trkpt>
      <trkpt lat="46.852194" lon="7.197525">
        <ele>539.9</ele>
        <time>2026-09-08T09:42:55.000Z</time>
      </trkpt>
      <trkpt lat="46.852359" lon="7.197555">
        <ele>538.8</ele>
        <time>2026-09-08T09:43:00.000Z</time>
      </trkpt>
      <trkpt lat="46.852530" lon="7.197580">
        <ele>537.7</ele>
        <time>2026-09-08T09:43:05.000Z</time>
      </trkpt>
      <trkpt lat="46.852709" lon="7.197600">
        <ele>536.6</ele>
        <time>2026-09-08T09:43:10.000Z</time>
      </trkpt>
      <trkpt lat="46.852893" lon="7.197615">
        <ele>535.4</ele>
        <time>2026-09-08T09:43:15.000Z</time>
      </trkpt>
      <trkpt lat="46.853082" lon="7.197626">
        <ele>534.3</ele>
        <time>2026-09-08T09:43:20.000Z</time>
      </trkpt>
      <trkpt lat="46.853276" lon="7.197634">
        <ele>533.2</ele>
        <time>2026-09-08T09:43:25.000Z</time>
      </trkpt>
      <trkpt lat="46.853472" lon="7.197640">
        <ele>532.1</ele>
        <time>2026-09-08T09:43:30.000Z</time>
      </trkpt>
      <trkpt lat="46.853671" lon="7.197644">
        <ele>531.0</ele>
        <time>2026-09-08T09:43:35.000Z</time>
      </trkpt>
      <trkpt lat="46.853870" lon="7.197647">
        <ele>529.9</ele>
        <time>2026-09-08T09:43:40.000Z</time>
      </trkpt>
      <trkpt lat="46.854069" lon="7.197652">
        <ele>528.8</ele>
        <time>2026-09-08T09:43:45.000Z</time>
      </trkpt>
      <trkpt lat="46.854265" lon="7.197657">
        <ele>527.7</ele>
        <time>2026-09-08T09:43:50.000Z</time>
      </trkpt>
      <trkpt lat="46.854459" lon="7.197665">
        <ele>526.5</ele>
        <time>2026-09-08T09:43:55.000Z</time>
      </trkpt>
      <trkpt lat="46.854647" lon="7.197677">
        <ele>525.4</ele>
        <time>2026-09-08T09:44:00.000Z</time>
      </trkpt>
      <trkpt lat="46.854830" lon="7.197693">
        <ele>524.4</ele>
        <time>2026-09-08T09:44:05.000Z</time>
      </trkpt>
      <trkpt lat="46.855006" lon="7.197715">
        <ele>523.3</ele>
        <time>2026-09-08T09:44:10.000Z</time>
      </trkpt>
      <trkpt lat="46.855173" lon="7.197743">
        <ele>522.2</ele>
        <time>2026-09-08T09:44:15.000Z</time>
      </trkpt>
      <trkpt lat="46.855331" lon="7.197778">
        <ele>521.1</ele>
        <time>2026-09-08T09:44:20.000Z</time>
      </trkpt>
      <trkpt lat="46.855479" lon="7.197821">
        <ele>520.0</ele>
        <time>2026-09-08T09:44:25.000Z</time>
      </trkpt>
      <trkpt lat="46.855616" lon="7.197872">
        <ele>518.9</ele>
        <time>2026-09-08T09:44:30.000Z</time>
      </trkpt>
      <trkpt lat="46.855741" lon="7.197932">
        <ele>517.8</ele>
        <time>2026-09-08T09:44:35.000Z</time>
      </trkpt>
      <trkpt lat="46.855853" lon="7.198002">
        <ele>516.7</ele>
        <time>2026-09-08T09:44:40.000Z</time>
      </trkpt>
      <trkpt lat="46.855953" lon="7.198081">
        <ele>515.7</ele>
        <time>2026-09-08T09:44:45.000Z</time>
      </trkpt>
      <trkpt lat="46.856041" lon="7.198170">
        <ele>514.6</ele>
        <time>2026-09-08T09:44:50.000Z</time>
      </trkpt>
      <trkpt lat="46.856115" lon="7.198269">
        <ele>513.5</ele>
        <time>2026-09-08T09:44:55.000Z</time>
      </trkpt>
      <trkpt lat="46.856178" lon="7.198378">
        <ele>512.4</ele>
        <time>2026-09-08T09:45:00.000Z</time>
      </trkpt>
      <trkpt lat="46.856227" lon="7.198495">
        <ele>511.4</ele>
        <time>2026-09-08T09:45:05.000Z</time>
      </trkpt>
      <trkpt lat="46.856266" lon="7.198622">
        <ele>510.3</ele>
        <time>2026-09-08T09:45:10.000Z</time>
      </trkpt>
      <trkpt lat="46.856293" lon="7.198757">
        <ele>509.3</ele>
        <time>2026-09-08T09:45:15.000Z</time>
      </trkpt>
      <trkpt lat="46.856310" lon="7.198900">
        <ele>508.2</ele>
        <time>2026-09-08T09:45:20.000Z</time>
      </trkpt>
      <trkpt lat="46.856317" lon="7.199050">
        <ele>507.1</ele>
        <time>2026-09-08T09:45:25.000Z</time>
      </trkpt>
      <trkpt lat="46.856316" lon="7.199206">
        <ele>506.1</ele>
        <time>2026-09-08T09:45:30.000Z</time>
      </trkpt>
      <trkpt lat="46.856308" lon="7.199368">
        <ele>505.0</ele>
        <time>2026-09-08T09:45:35.000Z</time>
      </trkpt>
      <trkpt lat="46.856294" lon="7.199535">
        <ele>504.0</ele>
        <time>2026-09-08T09:45:40.000Z</time>
      </trkpt>
      <trkpt lat="46.856275" lon="7.199705">
        <ele>503.0</ele>
        <time>2026-09-08T09:45:45.000Z</time>
      </trkpt>
      <trkpt lat="46.856252" lon="7.199878">
        <ele>501.9</ele>
        <time>2026-09-08T09:45:50.000Z</time>
      </trkpt>
      <trkpt lat="46.856226" lon="7.200054">
        <ele>500.9</ele>
        <time>2026-09-08T09:45:55.000Z</time>
      </trkpt>
      <trkpt lat="46.856199" lon="7.200230">
        <ele>499.8</ele>
        <time>2026-09-08T09:46:00.000Z</time>
      </trkpt>
      <trkpt lat="46.856172" lon="7.200407">
        <ele>498.8</ele>
        <time>2026-09-08T09:46:05.000Z</time>
      </trkpt>
      <trkpt lat="46.856145" lon="7.200583">
        <ele>497.8</ele>
        <time>2026-09-08T09:46:10.000Z</time>
      </trkpt>
      <trkpt lat="46.856120" lon="7.200758">
        <ele>496.8</ele>
        <time>2026-09-08T09:46:15.000Z</time>
      </trkpt>
      <trkpt lat="46.856098" lon="7.200931">
        <ele>495.8</ele>
        <time>2026-09-08T09:46:20.000Z</time>
      </trkpt>
      <trkpt lat="46.856078" lon="7.201102">
        <ele>494.7</ele>
        <time>2026-09-08T09:46:25.000Z</time>
      </trkpt>
      <trkpt lat="46.856062" lon="7.201270">
        <ele>493.7</ele>
        <time>2026-09-08T09:46:30.000Z</time>
      </trkpt>
      <trkpt lat="46.854000" lon="7.203000">
        <ele>492.7</ele>
        <time>2026-09-08T09:46:35.000Z</time>
      </trkpt>
    </trkseg>
  </trk>
</gpx>
