<?xml version="1.0" encoding="UTF-8"?>
<gpx creator="strava-studio" version="1.1"
     xmlns="http://www.topografix.com/GPX/1/1">
  <metadata><time>2026-09-07T06:40:00.000Z</time></metadata>
  <trk>
    <name>Montée du matin</name>
    <type>ride</type>
    <trkseg>
      <trkpt lat="46.518339" lon="6.414435">
        <ele>630.9</ele>
        <time>2026-09-07T06:40:00.000Z</time>
      </trkpt>
      <trkpt lat="46.518414" lon="6.414486">
        <ele>634.1</ele>
        <time>2026-09-07T06:40:05.000Z</time>
      </trkpt>
      <trkpt lat="46.518494" lon="6.414527">
        <ele>637.3</ele>
        <time>2026-09-07T06:40:10.000Z</time>
      </trkpt>
      <trkpt lat="46.518581" lon="6.414559">
        <ele>640.6</ele>
        <time>2026-09-07T06:40:15.000Z</time>
      </trkpt>
      <trkpt lat="46.518673" lon="6.414582">
        <ele>643.8</ele>
        <time>2026-09-07T06:40:20.000Z</time>
      </trkpt>
      <trkpt lat="46.518769" lon="6.414596">
        <ele>647.0</ele>
        <time>2026-09-07T06:40:25.000Z</time>
      </trkpt>
      <trkpt lat="46.518871" lon="6.414603">
        <ele>650.2</ele>
        <time>2026-09-07T06:40:30.000Z</time>
      </trkpt>
      <trkpt lat="46.518977" lon="6.414602">
        <ele>653.5</ele>
        <time>2026-09-07T06:40:35.000Z</time>
      </trkpt>
      <trkpt lat="46.519086" lon="6.414595">
        <ele>656.7</ele>
        <time>2026-09-07T06:40:40.000Z</time>
      </trkpt>
      <trkpt lat="46.519200" lon="6.414583">
        <ele>659.9</ele>
        <time>2026-09-07T06:40:45.000Z</time>
      </trkpt>
      <trkpt lat="46.519316" lon="6.414565">
        <ele>663.1</ele>
        <time>2026-09-07T06:40:50.000Z</time>
      </trkpt>
      <trkpt lat="46.519434" lon="6.414543">
        <ele>666.3</ele>
        <time>2026-09-07T06:40:55.000Z</time>
      </trkpt>
      <trkpt lat="46.519555" lon="6.414518">
        <ele>669.5</ele>
        <time>2026-09-07T06:41:00.000Z</time>
      </trkpt>
      <trkpt lat="46.519677" lon="6.414490">
        <ele>672.7</ele>
        <time>2026-09-07T06:41:05.000Z</time>
      </trkpt>
      <trkpt lat="46.519801" lon="6.414460">
        <ele>675.9</ele>
        <time>2026-09-07T06:41:10.000Z</time>
      </trkpt>
      <trkpt lat="46.519925" lon="6.414429">
        <ele>679.1</ele>
        <time>2026-09-07T06:41:15.000Z</time>
      </trkpt>
      <trkpt lat="46.520049" lon="6.414397">
        <ele>682.3</ele>
        <time>2026-09-07T06:41:20.000Z</time>
      </trkpt>
      <trkpt lat="46.520173" lon="6.414366">
        <ele>685.5</ele>
        <time>2026-09-07T06:41:25.000Z</time>
      </trkpt>
      <trkpt lat="46.520297" lon="6.414336">
        <ele>688.7</ele>
        <time>2026-09-07T06:41:30.000Z</time>
      </trkpt>
      <trkpt lat="46.520420" lon="6.414307">
        <ele>691.9</ele>
        <time>2026-09-07T06:41:35.000Z</time>
      </trkpt>
      <trkpt lat="46.520541" lon="6.414280">
        <ele>695.1</ele>
        <time>2026-09-07T06:41:40.000Z</time>
      </trkpt>
      <trkpt lat="46.520661" lon="6.414255">
        <ele>698.3</ele>
        <time>2026-09-07T06:41:45.000Z</time>
      </trkpt>
      <trkpt lat="46.520780" lon="6.414234">
        <ele>701.5</ele>
        <time>2026-09-07T06:41:50.000Z</time>
      </trkpt>
      <trkpt lat="46.520897" lon="6.414215">
        <ele>704.7</ele>
        <time>2026-09-07T06:41:55.000Z</time>
      </trkpt>
      <trkpt lat="46.521011" lon="6.414199">
        <ele>707.9</ele>
        <time>2026-09-07T06:42:00.000Z</time>
      </trkpt>
      <trkpt lat="46.521124" lon="6.414187">
        <ele>711.0</ele>
        <time>2026-09-07T06:42:05.000Z</time>
      </trkpt>
      <trkpt lat="46.521235" lon="6.414179">
        <ele>714.2</ele>
        <time>2026-09-07T06:42:10.000Z</time>
      </trkpt>
      <trkpt lat="46.521343" lon="6.414173">
        <ele>717.4</ele>
        <time>2026-09-07T06:42:15.000Z</time>
      </trkpt>
      <trkpt lat="46.521450" lon="6.414172">
        <ele>720.6</ele>
        <time>2026-09-07T06:42:20.000Z</time>
      </trkpt>
      <trkpt lat="46.521555" lon="6.414173">
        <ele>723.7</ele>
        <time>2026-09-07T06:42:25.000Z</time>
      </trkpt>
      <trkpt lat="46.521658" lon="6.414177">
        <ele>726.9</ele>
        <time>2026-09-07T06:42:30.000Z</time>
      </trkpt>
      <trkpt lat="46.521759" lon="6.414184">
        <ele>730.0</ele>
        <time>2026-09-07T06:42:35.000Z</time>
      </trkpt>
      <trkpt lat="46.521859" lon="6.414193">
        <ele>733.2</ele>
        <time>2026-09-07T06:42:40.000Z</time>
      </trkpt>
      <trkpt lat="46.521958" lon="6.414203">
        <ele>736.4</ele>
        <time>2026-09-07T06:42:45.000Z</time>
      </trkpt>
      <trkpt lat="46.522057" lon="6.414215">
        <ele>739.5</ele>
        <time>2026-09-07T06:42:50.000Z</time>
      </trkpt>
      <trkpt lat="46.522154" lon="6.414228">
        <ele>742.7</ele>
        <time>2026-09-07T06:42:55.000Z</time>
      </trkpt>
      <trkpt lat="46.522252" lon="6.414241">
        <ele>745.8</ele>
        <time>2026-09-07T06:43:00.000Z</time>
      </trkpt>
      <trkpt lat="46.522350" lon="6.414253">
        <ele>748.9</ele>
        <time>2026-09-07T06:43:05.000Z</time>
      </trkpt>
      <trkpt lat="46.522448" lon="6.414265">
        <ele>752.1</ele>
        <time>2026-09-07T06:43:10.000Z</time>
      </trkpt>
      <trkpt lat="46.522548" lon="6.414275">
        <ele>755.2</ele>
        <time>2026-09-07T06:43:15.000Z</time>
      </trkpt>
      <trkpt lat="46.522648" lon="6.414284">
        <ele>758.3</ele>
        <time>2026-09-07T06:43:20.000Z</time>
      </trkpt>
      <trkpt lat="46.522750" lon="6.414289">
        <ele>761.5</ele>
        <time>2026-09-07T06:43:25.000Z</time>
      </trkpt>
      <trkpt lat="46.522854" lon="6.414292">
        <ele>764.6</ele>
        <time>2026-09-07T06:43:30.000Z</time>
      </trkpt>
      <trkpt lat="46.522961" lon="6.414290">
        <ele>767.7</ele>
        <time>2026-09-07T06:43:35.000Z</time>
      </trkpt>
      <trkpt lat="46.523069" lon="6.414285">
        <ele>770.8</ele>
        <time>2026-09-07T06:43:40.000Z</time>
      </trkpt>
      <trkpt lat="46.523181" lon="6.414275">
        <ele>773.9</ele>
        <time>2026-09-07T06:43:45.000Z</time>
      </trkpt>
      <trkpt lat="46.523295" lon="6.414260">
        <ele>777.0</ele>
        <time>2026-09-07T06:43:50.000Z</time>
      </trkpt>
      <trkpt lat="46.523412" lon="6.414241">
        <ele>780.1</ele>
        <time>2026-09-07T06:43:55.000Z</time>
      </trkpt>
      <trkpt lat="46.523533" lon="6.414215">
        <ele>783.2</ele>
        <time>2026-09-07T06:44:00.000Z</time>
      </trkpt>
      <trkpt lat="46.523657" lon="6.414185">
        <ele>786.3</ele>
        <time>2026-09-07T06:44:05.000Z</time>
      </trkpt>
      <trkpt lat="46.523784" lon="6.414149">
        <ele>789.4</ele>
        <time>2026-09-07T06:44:10.000Z</time>
      </trkpt>
      <trkpt lat="46.523914" lon="6.414107">
        <ele>792.5</ele>
        <time>2026-09-07T06:44:15.000Z</time>
      </trkpt>
      <trkpt lat="46.524048" lon="6.414060">
        <ele>795.6</ele>
        <time>2026-09-07T06:44:20.000Z</time>
      </trkpt>
      <trkpt lat="46.524185" lon="6.414007">
        <ele>798.6</ele>
        <time>2026-09-07T06:44:25.000Z</time>
      </trkpt>
      <trkpt lat="46.524325" lon="6.413950">
        <ele>801.7</ele>
        <time>2026-09-07T06:44:30.000Z</time>
      </trkpt>
      <trkpt lat="46.524468" lon="6.413888">
        <ele>804.8</ele>
        <time>2026-09-07T06:44:35.000Z</time>
      </trkpt>
      <trkpt lat="46.524613" lon="6.413822">
        <ele>807.8</ele>
        <time>2026-09-07T06:44:40.000Z</time>
      </trkpt>
      <trkpt lat="46.524760" lon="6.413752">
        <ele>810.9</ele>
        <time>2026-09-07T06:44:45.000Z</time>
      </trkpt>
      <trkpt lat="46.524910" lon="6.413678">
        <ele>814.0</ele>
        <time>2026-09-07T06:44:50.000Z</time>
      </trkpt>
      <trkpt lat="46.525061" lon="6.413602">
        <ele>817.0</ele>
        <time>2026-09-07T06:44:55.000Z</time>
      </trkpt>
      <trkpt lat="46.525213" lon="6.413525">
        <ele>820.0</ele>
        <time>2026-09-07T06:45:00.000Z</time>
      </trkpt>
      <trkpt lat="46.525366" lon="6.413446">
        <ele>823.1</ele>
        <time>2026-09-07T06:45:05.000Z</time>
      </trkpt>
      <trkpt lat="46.525519" lon="6.413366">
        <ele>826.1</ele>
        <time>2026-09-07T06:45:10.000Z</time>
      </trkpt>
      <trkpt lat="46.525672" lon="6.413287">
        <ele>829.2</ele>
        <time>2026-09-07T06:45:15.000Z</time>
      </trkpt>
      <trkpt lat="46.525824" lon="6.413209">
        <ele>832.2</ele>
        <time>2026-09-07T06:45:20.000Z</time>
      </trkpt>
      <trkpt lat="46.525975" lon="6.413133">
        <ele>835.2</ele>
        <time>2026-09-07T06:45:25.000Z</time>
      </trkpt>
      <trkpt lat="46.526125" lon="6.413059">
        <ele>838.2</ele>
        <time>2026-09-07T06:45:30.000Z</time>
      </trkpt>
      <trkpt lat="46.526272" lon="6.412989">
        <ele>841.2</ele>
        <time>2026-09-07T06:45:35.000Z</time>
      </trkpt>
      <trkpt lat="46.526417" lon="6.412923">
        <ele>844.2</ele>
        <time>2026-09-07T06:45:40.000Z</time>
      </trkpt>
      <trkpt lat="46.526559" lon="6.412863">
        <ele>847.2</ele>
        <time>2026-09-07T06:45:45.000Z</time>
      </trkpt>
      <trkpt lat="46.526698" lon="6.412807">
        <ele>850.2</ele>
        <time>2026-09-07T06:45:50.000Z</time>
      </trkpt>
      <trkpt lat="46.526833" lon="6.412759">
        <ele>853.2</ele>
        <time>2026-09-07T06:45:55.000Z</time>
      </trkpt>
      <trkpt lat="46.526963" lon="6.412717">
        <ele>856.2</ele>
        <time>2026-09-07T06:46:00.000Z</time>
      </trkpt>
      <trkpt lat="46.527089" lon="6.412682">
        <ele>859.2</ele>
        <time>2026-09-07T06:46:05.000Z</time>
      </trkpt>
      <trkpt lat="46.527211" lon="6.412656">
        <ele>862.1</ele>
        <time>2026-09-07T06:46:10.000Z</time>
      </trkpt>
      <trkpt lat="46.527327" lon="6.412637">
        <ele>865.1</ele>
        <time>2026-09-07T06:46:15.000Z</time>
      </trkpt>
      <trkpt lat="46.527438" lon="6.412628">
        <ele>868.1</ele>
        <time>2026-09-07T06:46:20.000Z</time>
      </trkpt>
      <trkpt lat="46.527544" lon="6.412627">
        <ele>871.0</ele>
        <time>2026-09-07T06:46:25.000Z</time>
      </trkpt>
      <trkpt lat="46.527645" lon="6.412635">
        <ele>874.0</ele>
        <time>2026-09-07T06:46:30.000Z</time>
      </trkpt>
      <trkpt lat="46.527740" lon="6.412652">
        <ele>876.9</ele>
        <time>2026-09-07T06:46:35.000Z</time>
      </trkpt>
      <trkpt lat="46.527830" lon="6.412678">
        <ele>879.9</ele>
        <time>2026-09-07T06:46:40.000Z</time>
      </trkpt>
      <trkpt lat="46.527915" lon="6.412713">
        <ele>882.8</ele>
        <time>2026-09-07T06:46:45.000Z</time>
      </trkpt>
      <trkpt lat="46.527994" lon="6.412756">
        <ele>885.7</ele>
        <time>2026-09-07T06:46:50.000Z</time>
      </trkpt>
      <trkpt lat="46.528069" lon="6.412808">
        <ele>888.7</ele>
        <time>2026-09-07T06:46:55.000Z</time>
      </trkpt>
      <trkpt lat="46.528139" lon="6.412867">
        <ele>891.6</ele>
        <time>2026-09-07T06:47:00.000Z</time>
      </trkpt>
      <trkpt lat="46.528204" lon="6.412933">
        <ele>894.5</ele>
        <time>2026-09-07T06:47:05.000Z</time>
      </trkpt>
      <trkpt lat="46.528266" lon="6.413007">
        <ele>897.4</ele>
        <time>2026-09-07T06:47:10.000Z</time>
      </trkpt>
      <trkpt lat="46.528323" lon="6.413086">
        <ele>900.3</ele>
        <time>2026-09-07T06:47:15.000Z</time>
      </trkpt>
      <trkpt lat="46.528378" lon="6.413171">
        <ele>903.2</ele>
        <time>2026-09-07T06:47:20.000Z</time>
      </trkpt>
      <trkpt lat="46.528430" lon="6.413260">
        <ele>906.1</ele>
        <time>2026-09-07T06:47:25.000Z</time>
      </trkpt>
      <trkpt lat="46.528480" lon="6.413353">
        <ele>909.0</ele>
        <time>2026-09-07T06:47:30.000Z</time>
      </trkpt>
      <trkpt lat="46.528527" lon="6.413449">
        <ele>911.8</ele>
        <time>2026-09-07T06:47:35.000Z</time>
      </trkpt>
      <trkpt lat="46.528574" lon="6.413548">
        <ele>914.7</ele>
        <time>2026-09-07T06:47:40.000Z</time>
      </trkpt>
      <trkpt lat="46.528619" lon="6.413647">
        <ele>917.6</ele>
        <time>2026-09-07T06:47:45.000Z</time>
      </trkpt>
      <trkpt lat="46.528665" lon="6.413748">
        <ele>920.4</ele>
        <time>2026-09-07T06:47:50.000Z</time>
      </trkpt>
      <trkpt lat="46.528710" lon="6.413847">
        <ele>923.3</ele>
        <time>2026-09-07T06:47:55.000Z</time>
      </trkpt>
      <trkpt lat="46.528757" lon="6.413946">
        <ele>926.1</ele>
        <time>2026-09-07T06:48:00.000Z</time>
      </trkpt>
      <trkpt lat="46.528804" lon="6.414042">
        <ele>928.9</ele>
        <time>2026-09-07T06:48:05.000Z</time>
      </trkpt>
      <trkpt lat="46.528853" lon="6.414136">
        <ele>931.8</ele>
        <time>2026-09-07T06:48:10.000Z</time>
      </trkpt>
      <trkpt lat="46.528905" lon="6.414226">
        <ele>934.6</ele>
        <time>2026-09-07T06:48:15.000Z</time>
      </trkpt>
      <trkpt lat="46.528959" lon="6.414312">
        <ele>937.4</ele>
        <time>2026-09-07T06:48:20.000Z</time>
      </trkpt>
      <trkpt lat="46.529016" lon="6.414393">
        <ele>940.2</ele>
        <time>2026-09-07T06:48:25.000Z</time>
      </trkpt>
      <trkpt lat="46.529076" lon="6.414469">
        <ele>943.0</ele>
        <time>2026-09-07T06:48:30.000Z</time>
      </trkpt>
      <trkpt lat="46.529139" lon="6.414538">
        <ele>945.8</ele>
        <time>2026-09-07T06:48:35.000Z</time>
      </trkpt>
      <trkpt lat="46.529207" lon="6.414602">
        <ele>948.6</ele>
        <time>2026-09-07T06:48:40.000Z</time>
      </trkpt>
      <trkpt lat="46.529278" lon="6.414659">
        <ele>951.4</ele>
        <time>2026-09-07T06:48:45.000Z</time>
      </trkpt>
      <trkpt lat="46.529354" lon="6.414709">
        <ele>954.2</ele>
        <time>2026-09-07T06:48:50.000Z</time>
      </trkpt>
      <trkpt lat="46.529433" lon="6.414752">
        <ele>956.9</ele>
        <time>2026-09-07T06:48:55.000Z</time>
      </trkpt>
      <trkpt lat="46.529517" lon="6.414788">
        <ele>959.7</ele>
        <time>2026-09-07T06:49:00.000Z</time>
      </trkpt>
      <trkpt lat="46.529605" lon="6.414817">
        <ele>962.5</ele>
        <time>2026-09-07T06:49:05.000Z</time>
      </trkpt>
      <trkpt lat="46.529697" lon="6.414839">
        <ele>965.2</ele>
        <time>2026-09-07T06:49:10.000Z</time>
      </trkpt>
      <trkpt lat="46.529794" lon="6.414854">
        <ele>968.0</ele>
        <time>2026-09-07T06:49:15.000Z</time>
      </trkpt>
      <trkpt lat="46.529894" lon="6.414863">
        <ele>970.7</ele>
        <time>2026-09-07T06:49:20.000Z</time>
      </trkpt>
      <trkpt lat="46.529997" lon="6.414866">
        <ele>973.4</ele>
        <time>2026-09-07T06:49:25.000Z</time>
      </trkpt>
      <trkpt lat="46.530104" lon="6.414864">
        <ele>976.1</ele>
        <time>2026-09-07T06:49:30.000Z</time>
      </trkpt>
      <trkpt lat="46.530215" lon="6.414856">
        <ele>978.9</ele>
        <time>2026-09-07T06:49:35.000Z</time>
      </trkpt>
      <trkpt lat="46.530327" lon="6.414843">
        <ele>981.6</ele>
        <time>2026-09-07T06:49:40.000Z</time>
      </trkpt>
      <trkpt lat="46.530443" lon="6.414827">
        <ele>984.3</ele>
        <time>2026-09-07T06:49:45.000Z</time>
      </trkpt>
      <trkpt lat="46.530560" lon="6.414807">
        <ele>987.0</ele>
        <time>2026-09-07T06:49:50.000Z</time>
      </trkpt>
      <trkpt lat="46.530679" lon="6.414784">
        <ele>989.6</ele>
        <time>2026-09-07T06:49:55.000Z</time>
      </trkpt>
      <trkpt lat="46.530799" lon="6.414760">
        <ele>992.3</ele>
        <time>2026-09-07T06:50:00.000Z</time>
      </trkpt>
      <trkpt lat="46.530921" lon="6.414734">
        <ele>995.0</ele>
        <time>2026-09-07T06:50:05.000Z</time>
      </trkpt>
      <trkpt lat="46.531042" lon="6.414707">
        <ele>997.6</ele>
        <time>2026-09-07T06:50:10.000Z</time>
      </trkpt>
      <trkpt lat="46.531164" lon="6.414680">
        <ele>1000.3</ele>
        <time>2026-09-07T06:50:15.000Z</time>
      </trkpt>
      <trkpt lat="46.531285" lon="6.414654">
        <ele>1002.9</ele>
        <time>2026-09-07T06:50:20.000Z</time>
      </trkpt>
      <trkpt lat="46.531405" lon="6.414629">
        <ele>1005.6</ele>
        <time>2026-09-07T06:50:25.000Z</time>
      </trkpt>
      <trkpt lat="46.531524" lon="6.414606">
        <ele>1008.2</ele>
        <time>2026-09-07T06:50:30.000Z</time>
      </trkpt>
      <trkpt lat="46.531642" lon="6.414585">
        <ele>1010.8</ele>
        <time>2026-09-07T06:50:35.000Z</time>
      </trkpt>
      <trkpt lat="46.531758" lon="6.414567">
        <ele>1013.5</ele>
        <time>2026-09-07T06:50:40.000Z</time>
      </trkpt>
      <trkpt lat="46.531873" lon="6.414553">
        <ele>1016.1</ele>
        <time>2026-09-07T06:50:45.000Z</time>
      </trkpt>
      <trkpt lat="46.531984" lon="6.414542">
        <ele>1018.7</ele>
        <time>2026-09-07T06:50:50.000Z</time>
      </trkpt>
      <trkpt lat="46.532094" lon="6.414536">
        <ele>1021.3</ele>
        <time>2026-09-07T06:50:55.000Z</time>
      </trkpt>
      <trkpt lat="46.532201" lon="6.414533">
        <ele>1023.8</ele>
        <time>2026-09-07T06:51:00.000Z</time>
      </trkpt>
      <trkpt lat="46.532305" lon="6.414535">
        <ele>1026.4</ele>
        <time>2026-09-07T06:51:05.000Z</time>
      </trkpt>
      <trkpt lat="46.532407" lon="6.414542">
        <ele>1029.0</ele>
        <time>2026-09-07T06:51:10.000Z</time>
      </trkpt>
      <trkpt lat="46.532505" lon="6.414553">
        <ele>1031.6</ele>
        <time>2026-09-07T06:51:15.000Z</time>
      </trkpt>
      <trkpt lat="46.532602" lon="6.414568">
        <ele>1034.1</ele>
        <time>2026-09-07T06:51:20.000Z</time>
      </trkpt>
      <trkpt lat="46.532695" lon="6.414588">
        <ele>1036.7</ele>
        <time>2026-09-07T06:51:25.000Z</time>
      </trkpt>
      <trkpt lat="46.532786" lon="6.414612">
        <ele>1039.2</ele>
        <time>2026-09-07T06:51:30.000Z</time>
      </trkpt>
      <trkpt lat="46.532875" lon="6.414639">
        <ele>1041.7</ele>
        <time>2026-09-07T06:51:35.000Z</time>
      </trkpt>
      <trkpt lat="46.532962" lon="6.414670">
        <ele>1044.2</ele>
        <time>2026-09-07T06:51:40.000Z</time>
      </trkpt>
      <trkpt lat="46.533047" lon="6.414704">
        <ele>1046.8</ele>
        <time>2026-09-07T06:51:45.000Z</time>
      </trkpt>
      <trkpt lat="46.533131" lon="6.414741">
        <ele>1049.3</ele>
        <time>2026-09-07T06:51:50.000Z</time>
      </trkpt>
      <trkpt lat="46.533213" lon="6.414779">
        <ele>1051.7</ele>
        <time>2026-09-07T06:51:55.000Z</time>
      </trkpt>
      <trkpt lat="46.533295" lon="6.414819">
        <ele>1054.2</ele>
        <time>2026-09-07T06:52:00.000Z</time>
      </trkpt>
      <trkpt lat="46.533376" lon="6.414860">
        <ele>1056.7</ele>
        <time>2026-09-07T06:52:05.000Z</time>
      </trkpt>
      <trkpt lat="46.533457" lon="6.414900">
        <ele>1059.2</ele>
        <time>2026-09-07T06:52:10.000Z</time>
      </trkpt>
      <trkpt lat="46.533538" lon="6.414941">
        <ele>1061.6</ele>
        <time>2026-09-07T06:52:15.000Z</time>
      </trkpt>
      <trkpt lat="46.533620" lon="6.414980">
        <ele>1064.1</ele>
        <time>2026-09-07T06:52:20.000Z</time>
      </trkpt>
      <trkpt lat="46.533703" lon="6.415018">
        <ele>1066.5</ele>
        <time>2026-09-07T06:52:25.000Z</time>
      </trkpt>
      <trkpt lat="46.533787" lon="6.415053">
        <ele>1069.0</ele>
        <time>2026-09-07T06:52:30.000Z</time>
      </trkpt>
      <trkpt lat="46.533873" lon="6.415086">
        <ele>1071.4</ele>
        <time>2026-09-07T06:52:35.000Z</time>
      </trkpt>
      <trkpt lat="46.533961" lon="6.415115">
        <ele>1073.8</ele>
        <time>2026-09-07T06:52:40.000Z</time>
      </trkpt>
      <trkpt lat="46.534051" lon="6.415140">
        <ele>1076.2</ele>
        <time>2026-09-07T06:52:45.000Z</time>
      </trkpt>
      <trkpt lat="46.534144" lon="6.415161">
        <ele>1078.6</ele>
        <time>2026-09-07T06:52:50.000Z</time>
      </trkpt>
      <trkpt lat="46.534240" lon="6.415177">
        <ele>1081.0</ele>
        <time>2026-09-07T06:52:55.000Z</time>
      </trkpt>
      <trkpt lat="46.534339" lon="6.415189">
        <ele>1083.4</ele>
        <time>2026-09-07T06:53:00.000Z</time>
      </trkpt>
      <trkpt lat="46.534441" lon="6.415194">
        <ele>1085.8</ele>
        <time>2026-09-07T06:53:05.000Z</time>
      </trkpt>
      <trkpt lat="46.534546" lon="6.415194">
        <ele>1088.2</ele>
        <time>2026-09-07T06:53:10.000Z</time>
      </trkpt>
      <trkpt lat="46.534655" lon="6.415189">
        <ele>1090.5</ele>
        <time>2026-09-07T06:53:15.000Z</time>
      </trkpt>
      <trkpt lat="46.534767" lon="6.415178">
        <ele>1092.9</ele>
        <time>2026-09-07T06:53:20.000Z</time>
      </trkpt>
      <trkpt lat="46.534883" lon="6.415161">
        <ele>1095.2</ele>
        <time>2026-09-07T06:53:25.000Z</time>
      </trkpt>
      <trkpt lat="46.535001" lon="6.415139">
        <ele>1097.5</ele>
        <time>2026-09-07T06:53:30.000Z</time>
      </trkpt>
      <trkpt lat="46.535123" lon="6.415111">
        <ele>1099.9</ele>
        <time>2026-09-07T06:53:35.000Z</time>
      </trkpt>
      <trkpt lat="46.535248" lon="6.415079">
        <ele>1102.2</ele>
        <time>2026-09-07T06:53:40.000Z</time>
      </trkpt>
      <trkpt lat="46.535376" lon="6.415042">
        <ele>1104.5</ele>
        <time>2026-09-07T06:53:45.000Z</time>
      </trkpt>
      <trkpt lat="46.535505" lon="6.415002">
        <ele>1106.8</ele>
        <time>2026-09-07T06:53:50.000Z</time>
      </trkpt>
      <trkpt lat="46.535637" lon="6.414957">
        <ele>1109.0</ele>
        <time>2026-09-07T06:53:55.000Z</time>
      </trkpt>
      <trkpt lat="46.535771" lon="6.414910">
        <ele>1111.3</ele>
        <time>2026-09-07T06:54:00.000Z</time>
      </trkpt>
      <trkpt lat="46.535906" lon="6.414861">
        <ele>1113.6</ele>
        <time>2026-09-07T06:54:05.000Z</time>
      </trkpt>
      <trkpt lat="46.536042" lon="6.414811">
        <ele>1115.8</ele>
        <time>2026-09-07T06:54:10.000Z</time>
      </trkpt>
      <trkpt lat="46.536178" lon="6.414759">
        <ele>1118.1</ele>
        <time>2026-09-07T06:54:15.000Z</time>
      </trkpt>
      <trkpt lat="46.536314" lon="6.414708">
        <ele>1120.3</ele>
        <time>2026-09-07T06:54:20.000Z</time>
      </trkpt>
      <trkpt lat="46.536450" lon="6.414658">
        <ele>1122.6</ele>
        <time>2026-09-07T06:54:25.000Z</time>
      </trkpt>
      <trkpt lat="46.536584" lon="6.414610">
        <ele>1124.8</ele>
        <time>2026-09-07T06:54:30.000Z</time>
      </trkpt>
      <trkpt lat="46.536717" lon="6.414565">
        <ele>1127.0</ele>
        <time>2026-09-07T06:54:35.000Z</time>
      </trkpt>
      <trkpt lat="46.536847" lon="6.414523">
        <ele>1129.2</ele>
        <time>2026-09-07T06:54:40.000Z</time>
      </trkpt>
      <trkpt lat="46.536975" lon="6.414485">
        <ele>1131.4</ele>
        <time>2026-09-07T06:54:45.000Z</time>
      </trkpt>
      <trkpt lat="46.537100" lon="6.414453">
        <ele>1133.6</ele>
        <time>2026-09-07T06:54:50.000Z</time>
      </trkpt>
      <trkpt lat="46.537221" lon="6.414428">
        <ele>1135.7</ele>
        <time>2026-09-07T06:54:55.000Z</time>
      </trkpt>
      <trkpt lat="46.537338" lon="6.414408">
        <ele>1137.9</ele>
        <time>2026-09-07T06:55:00.000Z</time>
      </trkpt>
      <trkpt lat="46.537450" lon="6.414397">
        <ele>1140.0</ele>
        <time>2026-09-07T06:55:05.000Z</time>
      </trkpt>
      <trkpt lat="46.537558" lon="6.414394">
        <ele>1142.2</ele>
        <time>2026-09-07T06:55:10.000Z</time>
      </trkpt>
      <trkpt lat="46.537660" lon="6.414399">
        <ele>1144.3</ele>
        <time>2026-09-07T06:55:15.000Z</time>
      </trkpt>
      <trkpt lat="46.537756" lon="6.414414">
        <ele>1146.4</ele>
        <time>2026-09-07T06:55:20.000Z</time>
      </trkpt>
      <trkpt lat="46.537847" lon="6.414439">
        <ele>1148.5</ele>
        <time>2026-09-07T06:55:25.000Z</time>
      </trkpt>
      <trkpt lat="46.537932" lon="6.414473">
        <ele>1150.6</ele>
        <time>2026-09-07T06:55:30.000Z</time>
      </trkpt>
      <trkpt lat="46.538010" lon="6.414518">
        <ele>1152.7</ele>
        <time>2026-09-07T06:55:35.000Z</time>
      </trkpt>
      <trkpt lat="46.538082" lon="6.414574">
        <ele>1154.8</ele>
        <time>2026-09-07T06:55:40.000Z</time>
      </trkpt>
      <trkpt lat="46.538148" lon="6.414640">
        <ele>1156.9</ele>
        <time>2026-09-07T06:55:45.000Z</time>
      </trkpt>
      <trkpt lat="46.538208" lon="6.414716">
        <ele>1159.0</ele>
        <time>2026-09-07T06:55:50.000Z</time>
      </trkpt>
      <trkpt lat="46.538261" lon="6.414803">
        <ele>1161.0</ele>
        <time>2026-09-07T06:55:55.000Z</time>
      </trkpt>
      <trkpt lat="46.538308" lon="6.414900">
        <ele>1163.0</ele>
        <time>2026-09-07T06:56:00.000Z</time>
      </trkpt>
      <trkpt lat="46.538350" lon="6.415007">
        <ele>1165.1</ele>
        <time>2026-09-07T06:56:05.000Z</time>
      </trkpt>
      <trkpt lat="46.538385" lon="6.415124">
        <ele>1167.1</ele>
        <time>2026-09-07T06:56:10.000Z</time>
      </trkpt>
      <trkpt lat="46.538415" lon="6.415250">
        <ele>1169.1</ele>
        <time>2026-09-07T06:56:15.000Z</time>
      </trkpt>
      <trkpt lat="46.538440" lon="6.415384">
        <ele>1171.1</ele>
        <time>2026-09-07T06:56:20.000Z</time>
      </trkpt>
      <trkpt lat="46.538460" lon="6.415526">
        <ele>1173.1</ele>
        <time>2026-09-07T06:56:25.000Z</time>
      </trkpt>
      <trkpt lat="46.538476" lon="6.415675">
        <ele>1175.1</ele>
        <time>2026-09-07T06:56:30.000Z</time>
      </trkpt>
      <trkpt lat="46.538488" lon="6.415832">
        <ele>1177.1</ele>
        <time>2026-09-07T06:56:35.000Z</time>
      </trkpt>
      <trkpt lat="46.538496" lon="6.415993">
        <ele>1179.0</ele>
        <time>2026-09-07T06:56:40.000Z</time>
      </trkpt>
      <trkpt lat="46.538501" lon="6.416160">
        <ele>1181.0</ele>
        <time>2026-09-07T06:56:45.000Z</time>
      </trkpt>
      <trkpt lat="46.538504" lon="6.416331">
        <ele>1182.9</ele>
        <time>2026-09-07T06:56:50.000Z</time>
      </trkpt>
      <trkpt lat="46.538505" lon="6.416506">
        <ele>1184.8</ele>
        <time>2026-09-07T06:56:55.000Z</time>
      </trkpt>
      <trkpt lat="46.538504" lon="6.416683">
        <ele>1186.7</ele>
        <time>2026-09-07T06:57:00.000Z</time>
      </trkpt>
      <trkpt lat="46.538502" lon="6.416862">
        <ele>1188.6</ele>
        <time>2026-09-07T06:57:05.000Z</time>
      </trkpt>
      <trkpt lat="46.538500" lon="6.417042">
        <ele>1190.5</ele>
        <time>2026-09-07T06:57:10.000Z</time>
      </trkpt>
      <trkpt lat="46.538497" lon="6.417222">
        <ele>1192.4</ele>
        <time>2026-09-07T06:57:15.000Z</time>
      </trkpt>
      <trkpt lat="46.538495" lon="6.417401">
        <ele>1194.3</ele>
        <time>2026-09-07T06:57:20.000Z</time>
      </trkpt>
      <trkpt lat="46.538494" lon="6.417579">
        <ele>1196.2</ele>
        <time>2026-09-07T06:57:25.000Z</time>
      </trkpt>
      <trkpt lat="46.538494" lon="6.417755">
        <ele>1198.0</ele>
        <time>2026-09-07T06:57:30.000Z</time>
      </trkpt>
      <trkpt lat="46.538495" lon="6.417929">
        <ele>1199.9</ele>
        <time>2026-09-07T06:57:35.000Z</time>
      </trkpt>
      <trkpt lat="46.538498" lon="6.418099">
        <ele>1201.7</ele>
        <time>2026-09-07T06:57:40.000Z</time>
      </trkpt>
      <trkpt lat="46.538503" lon="6.418266">
        <ele>1203.5</ele>
        <time>2026-09-07T06:57:45.000Z</time>
      </trkpt>
      <trkpt lat="46.538511" lon="6.418430">
        <ele>1205.3</ele>
        <time>2026-09-07T06:57:50.000Z</time>
      </trkpt>
      <trkpt lat="46.538521" lon="6.418589">
        <ele>1207.1</ele>
        <time>2026-09-07T06:57:55.000Z</time>
      </trkpt>
      <trkpt lat="46.538534" lon="6.418743">
        <ele>1208.9</ele>
        <time>2026-09-07T06:58:00.000Z</time>
      </trkpt>
      <trkpt lat="46.538549" lon="6.418893">
        <ele>1210.7</ele>
        <time>2026-09-07T06:58:05.000Z</time>
      </trkpt>
      <trkpt lat="46.538567" lon="6.419038">
        <ele>1212.5</ele>
        <time>2026-09-07T06:58:10.000Z</time>
      </trkpt>
      <trkpt lat="46.538588" lon="6.419179">
        <ele>1214.2</ele>
        <time>2026-09-07T06:58:15.000Z</time>
      </trkpt>
      <trkpt lat="46.538612" lon="6.419315">
        <ele>1216.0</ele>
        <time>2026-09-07T06:58:20.000Z</time>
      </trkpt>
      <trkpt lat="46.538639" lon="6.419447">
        <ele>1217.7</ele>
        <time>2026-09-07T06:58:25.000Z</time>
      </trkpt>
      <trkpt lat="46.538667" lon="6.419575">
        <ele>1219.4</ele>
        <time>2026-09-07T06:58:30.000Z</time>
      </trkpt>
      <trkpt lat="46.538698" lon="6.419699">
        <ele>1221.1</ele>
        <time>2026-09-07T06:58:35.000Z</time>
      </trkpt>
      <trkpt lat="46.538732" lon="6.419819">
        <ele>1222.8</ele>
        <time>2026-09-07T06:58:40.000Z</time>
      </trkpt>
      <trkpt lat="46.538767" lon="6.419937">
        <ele>1224.5</ele>
        <time>2026-09-07T06:58:45.000Z</time>
      </trkpt>
      <trkpt lat="46.538803" lon="6.420052">
        <ele>1226.2</ele>
        <time>2026-09-07T06:58:50.000Z</time>
      </trkpt>
      <trkpt lat="46.538841" lon="6.420164">
        <ele>1227.9</ele>
        <time>2026-09-07T06:58:55.000Z</time>
      </trkpt>
      <trkpt lat="46.538879" lon="6.420276">
        <ele>1229.5</ele>
        <time>2026-09-07T06:59:00.000Z</time>
      </trkpt>
      <trkpt lat="46.538919" lon="6.420386">
        <ele>1231.1</ele>
        <time>2026-09-07T06:59:05.000Z</time>
      </trkpt>
      <trkpt lat="46.538958" lon="6.420496">
        <ele>1232.8</ele>
        <time>2026-09-07T06:59:10.000Z</time>
      </trkpt>
      <trkpt lat="46.538997" lon="6.420607">
        <ele>1234.4</ele>
        <time>2026-09-07T06:59:15.000Z</time>
      </trkpt>
      <trkpt lat="46.539036" lon="6.420718">
        <ele>1236.0</ele>
        <time>2026-09-07T06:59:20.000Z</time>
      </trkpt>
      <trkpt lat="46.539074" lon="6.420830">
        <ele>1237.6</ele>
        <time>2026-09-07T06:59:25.000Z</time>
      </trkpt>
      <trkpt lat="46.539111" lon="6.420944">
        <ele>1239.2</ele>
        <time>2026-09-07T06:59:30.000Z</time>
      </trkpt>
      <trkpt lat="46.539147" lon="6.421061">
        <ele>1240.8</ele>
        <time>2026-09-07T06:59:35.000Z</time>
      </trkpt>
      <trkpt lat="46.539181" lon="6.421180">
        <ele>1242.3</ele>
        <time>2026-09-07T06:59:40.000Z</time>
      </trkpt>
      <trkpt lat="46.539213" lon="6.421303">
        <ele>1243.9</ele>
        <time>2026-09-07T06:59:45.000Z</time>
      </trkpt>
      <trkpt lat="46.539242" lon="6.421428">
        <ele>1245.4</ele>
        <time>2026-09-07T06:59:50.000Z</time>
      </trkpt>
      <trkpt lat="46.539270" lon="6.421558">
        <ele>1246.9</ele>
        <time>2026-09-07T06:59:55.000Z</time>
      </trkpt>
      <trkpt lat="46.539296" lon="6.421692">
        <ele>1248.5</ele>
        <time>2026-09-07T07:00:00.000Z</time>
      </trkpt>
      <trkpt lat="46.539318" lon="6.421829">
        <ele>1250.0</ele>
        <time>2026-09-07T07:00:05.000Z</time>
      </trkpt>
      <trkpt lat="46.539339" lon="6.421971">
        <ele>1251.5</ele>
        <time>2026-09-07T07:00:10.000Z</time>
      </trkpt>
      <trkpt lat="46.539357" lon="6.422117">
        <ele>1252.9</ele>
        <time>2026-09-07T07:00:15.000Z</time>
      </trkpt>
      <trkpt lat="46.539373" lon="6.422266">
        <ele>1254.4</ele>
        <time>2026-09-07T07:00:20.000Z</time>
      </trkpt>
      <trkpt lat="46.539386" lon="6.422420">
        <ele>1255.9</ele>
        <time>2026-09-07T07:00:25.000Z</time>
      </trkpt>
      <trkpt lat="46.539397" lon="6.422577">
        <ele>1257.3</ele>
        <time>2026-09-07T07:00:30.000Z</time>
      </trkpt>
      <trkpt lat="46.539407" lon="6.422737">
        <ele>1258.7</ele>
        <time>2026-09-07T07:00:35.000Z</time>
      </trkpt>
      <trkpt lat="46.539414" lon="6.422900">
        <ele>1260.2</ele>
        <time>2026-09-07T07:00:40.000Z</time>
      </trkpt>
      <trkpt lat="46.539421" lon="6.423065">
        <ele>1261.6</ele>
        <time>2026-09-07T07:00:45.000Z</time>
      </trkpt>
      <trkpt lat="46.539426" lon="6.423232">
        <ele>1263.0</ele>
        <time>2026-09-07T07:00:50.000Z</time>
      </trkpt>
      <trkpt lat="46.539431" lon="6.423400">
        <ele>1264.3</ele>
        <time>2026-09-07T07:00:55.000Z</time>
      </trkpt>
      <trkpt lat="46.539435" lon="6.423568">
        <ele>1265.7</ele>
        <time>2026-09-07T07:01:00.000Z</time>
      </trkpt>
      <trkpt lat="46.539440" lon="6.423736">
        <ele>1267.1</ele>
        <time>2026-09-07T07:01:05.000Z</time>
      </trkpt>
      <trkpt lat="46.539445" lon="6.423904">
        <ele>1268.4</ele>
        <time>2026-09-07T07:01:10.000Z</time>
      </trkpt>
      <trkpt lat="46.539451" lon="6.424069">
        <ele>1269.8</ele>
        <time>2026-09-07T07:01:15.000Z</time>
      </trkpt>
      <trkpt lat="46.539458" lon="6.424232">
        <ele>1271.1</ele>
        <time>2026-09-07T07:01:20.000Z</time>
      </trkpt>
      <trkpt lat="46.539468" lon="6.424392">
        <ele>1272.4</ele>
        <time>2026-09-07T07:01:25.000Z</time>
      </trkpt>
      <trkpt lat="46.539480" lon="6.424548">
        <ele>1273.7</ele>
        <time>2026-09-07T07:01:30.000Z</time>
      </trkpt>
      <trkpt lat="46.539495" lon="6.424699">
        <ele>1275.0</ele>
        <time>2026-09-07T07:01:35.000Z</time>
      </trkpt>
      <trkpt lat="46.539513" lon="6.424844">
        <ele>1276.2</ele>
        <time>2026-09-07T07:01:40.000Z</time>
      </trkpt>
      <trkpt lat="46.539535" lon="6.424983">
        <ele>1277.5</ele>
        <time>2026-09-07T07:01:45.000Z</time>
      </trkpt>
      <trkpt lat="46.539561" lon="6.425116">
        <ele>1278.8</ele>
        <time>2026-09-07T07:01:50.000Z</time>
      </trkpt>
      <trkpt lat="46.539592" lon="6.425241">
        <ele>1280.0</ele>
        <time>2026-09-07T07:01:55.000Z</time>
      </trkpt>
      <trkpt lat="46.539627" lon="6.425357">
        <ele>1281.2</ele>
        <time>2026-09-07T07:02:00.000Z</time>
      </trkpt>
      <trkpt lat="46.539668" lon="6.425466">
        <ele>1282.4</ele>
        <time>2026-09-07T07:02:05.000Z</time>
      </trkpt>
      <trkpt lat="46.539714" lon="6.425565">
        <ele>1283.6</ele>
        <time>2026-09-07T07:02:10.000Z</time>
      </trkpt>
      <trkpt lat="46.539765" lon="6.425655">
        <ele>1284.8</ele>
        <time>2026-09-07T07:02:15.000Z</time>
      </trkpt>
      <trkpt lat="46.539822" lon="6.425735">
        <ele>1286.0</ele>
        <time>2026-09-07T07:02:20.000Z</time>
      </trkpt>
      <trkpt lat="46.539885" lon="6.425806">
        <ele>1287.1</ele>
        <time>2026-09-07T07:02:25.000Z</time>
      </trkpt>
      <trkpt lat="46.539954" lon="6.425867">
        <ele>1288.3</ele>
        <time>2026-09-07T07:02:30.000Z</time>
      </trkpt>
      <trkpt lat="46.540029" lon="6.425919">
        <ele>1289.4</ele>
        <time>2026-09-07T07:02:35.000Z</time>
      </trkpt>
      <trkpt lat="46.540109" lon="6.425960">
        <ele>1290.5</ele>
        <time>2026-09-07T07:02:40.000Z</time>
      </trkpt>
      <trkpt lat="46.540195" lon="6.425993">
        <ele>1291.7</ele>
        <time>2026-09-07T07:02:45.000Z</time>
      </trkpt>
      <trkpt lat="46.540287" lon="6.426016">
        <ele>1292.8</ele>
        <time>2026-09-07T07:02:50.000Z</time>
      </trkpt>
      <trkpt lat="46.540384" lon="6.426030">
        <ele>1293.8</ele>
        <time>2026-09-07T07:02:55.000Z</time>
      </trkpt>
      <trkpt lat="46.540485" lon="6.426036">
        <ele>1294.9</ele>
        <time>2026-09-07T07:03:00.000Z</time>
      </trkpt>
      <trkpt lat="46.540592" lon="6.426035">
        <ele>1296.0</ele>
        <time>2026-09-07T07:03:05.000Z</time>
      </trkpt>
      <trkpt lat="46.540702" lon="6.426026">
        <ele>1297.0</ele>
        <time>2026-09-07T07:03:10.000Z</time>
      </trkpt>
      <trkpt lat="46.540817" lon="6.426011">
        <ele>1298.0</ele>
        <time>2026-09-07T07:03:15.000Z</time>
      </trkpt>
      <trkpt lat="46.540935" lon="6.425990">
        <ele>1299.1</ele>
        <time>2026-09-07T07:03:20.000Z</time>
      </trkpt>
      <trkpt lat="46.541056" lon="6.425964">
        <ele>1300.1</ele>
        <time>2026-09-07T07:03:25.000Z</time>
      </trkpt>
      <trkpt lat="46.541179" lon="6.425934">
        <ele>1301.1</ele>
        <time>2026-09-07T07:03:30.000Z</time>
      </trkpt>
      <trkpt lat="46.541305" lon="6.425901">
        <ele>1302.0</ele>
        <time>2026-09-07T07:03:35.000Z</time>
      </trkpt>
      <trkpt lat="46.541431" lon="6.425866">
        <ele>1303.0</ele>
        <time>2026-09-07T07:03:40.000Z</time>
      </trkpt>
      <trkpt lat="46.541559" lon="6.425829">
        <ele>1304.0</ele>
        <time>2026-09-07T07:03:45.000Z</time>
      </trkpt>
      <trkpt lat="46.541687" lon="6.425791">
        <ele>1304.9</ele>
        <time>2026-09-07T07:03:50.000Z</time>
      </trkpt>
      <trkpt lat="46.541815" lon="6.425753">
        <ele>1305.8</ele>
        <time>2026-09-07T07:03:55.000Z</time>
      </trkpt>
      <trkpt lat="46.541942" lon="6.425717">
        <ele>1306.7</ele>
        <time>2026-09-07T07:04:00.000Z</time>
      </trkpt>
      <trkpt lat="46.542069" lon="6.425683">
        <ele>1307.6</ele>
        <time>2026-09-07T07:04:05.000Z</time>
      </trkpt>
      <trkpt lat="46.542193" lon="6.425651">
        <ele>1308.5</ele>
        <time>2026-09-07T07:04:10.000Z</time>
      </trkpt>
      <trkpt lat="46.542316" lon="6.425622">
        <ele>1309.4</ele>
        <time>2026-09-07T07:04:15.000Z</time>
      </trkpt>
      <trkpt lat="46.542436" lon="6.425598">
        <ele>1310.3</ele>
        <time>2026-09-07T07:04:20.000Z</time>
      </trkpt>
      <trkpt lat="46.542553" lon="6.425579">
        <ele>1311.1</ele>
        <time>2026-09-07T07:04:25.000Z</time>
      </trkpt>
      <trkpt lat="46.542667" lon="6.425564">
        <ele>1312.0</ele>
        <time>2026-09-07T07:04:30.000Z</time>
      </trkpt>
      <trkpt lat="46.542777" lon="6.425556">
        <ele>1312.8</ele>
        <time>2026-09-07T07:04:35.000Z</time>
      </trkpt>
      <trkpt lat="46.542884" lon="6.425553">
        <ele>1313.6</ele>
        <time>2026-09-07T07:04:40.000Z</time>
      </trkpt>
      <trkpt lat="46.542987" lon="6.425557">
        <ele>1314.4</ele>
        <time>2026-09-07T07:04:45.000Z</time>
      </trkpt>
      <trkpt lat="46.543086" lon="6.425568">
        <ele>1315.2</ele>
        <time>2026-09-07T07:04:50.000Z</time>
      </trkpt>
      <trkpt lat="46.543181" lon="6.425585">
        <ele>1315.9</ele>
        <time>2026-09-07T07:04:55.000Z</time>
      </trkpt>
      <trkpt lat="46.543272" lon="6.425610">
        <ele>1316.7</ele>
        <time>2026-09-07T07:05:00.000Z</time>
      </trkpt>
      <trkpt lat="46.543359" lon="6.425641">
        <ele>1317.4</ele>
        <time>2026-09-07T07:05:05.000Z</time>
      </trkpt>
      <trkpt lat="46.543442" lon="6.425678">
        <ele>1318.1</ele>
        <time>2026-09-07T07:05:10.000Z</time>
      </trkpt>
      <trkpt lat="46.543521" lon="6.425722">
        <ele>1318.9</ele>
        <time>2026-09-07T07:05:15.000Z</time>
      </trkpt>
      <trkpt lat="46.543597" lon="6.425772">
        <ele>1319.6</ele>
        <time>2026-09-07T07:05:20.000Z</time>
      </trkpt>
      <trkpt lat="46.543669" lon="6.425828">
        <ele>1320.2</ele>
        <time>2026-09-07T07:05:25.000Z</time>
      </trkpt>
      <trkpt lat="46.543738" lon="6.425889">
        <ele>1320.9</ele>
        <time>2026-09-07T07:05:30.000Z</time>
      </trkpt>
      <trkpt lat="46.543804" lon="6.425955">
        <ele>1321.6</ele>
        <time>2026-09-07T07:05:35.000Z</time>
      </trkpt>
      <trkpt lat="46.543867" lon="6.426025">
        <ele>1322.2</ele>
        <time>2026-09-07T07:05:40.000Z</time>
      </trkpt>
      <trkpt lat="46.543928" lon="6.426098">
        <ele>1322.9</ele>
        <time>2026-09-07T07:05:45.000Z</time>
      </trkpt>
      <trkpt lat="46.543988" lon="6.426175">
        <ele>1323.5</ele>
        <time>2026-09-07T07:05:50.000Z</time>
      </trkpt>
      <trkpt lat="46.544046" lon="6.426254">
        <ele>1324.1</ele>
        <time>2026-09-07T07:05:55.000Z</time>
      </trkpt>
      <trkpt lat="46.544103" lon="6.426335">
        <ele>1324.7</ele>
        <time>2026-09-07T07:06:00.000Z</time>
      </trkpt>
      <trkpt lat="46.544159" lon="6.426416">
        <ele>1325.2</ele>
        <time>2026-09-07T07:06:05.000Z</time>
      </trkpt>
      <trkpt lat="46.544216" lon="6.426498">
        <ele>1325.8</ele>
        <time>2026-09-07T07:06:10.000Z</time>
      </trkpt>
      <trkpt lat="46.544272" lon="6.426580">
        <ele>1326.4</ele>
        <time>2026-09-07T07:06:15.000Z</time>
      </trkpt>
      <trkpt lat="46.544329" lon="6.426660">
        <ele>1326.9</ele>
        <time>2026-09-07T07:06:20.000Z</time>
      </trkpt>
      <trkpt lat="46.544388" lon="6.426739">
        <ele>1327.4</ele>
        <time>2026-09-07T07:06:25.000Z</time>
      </trkpt>
      <trkpt lat="46.544447" lon="6.426815">
        <ele>1327.9</ele>
        <time>2026-09-07T07:06:30.000Z</time>
      </trkpt>
      <trkpt lat="46.544508" lon="6.426889">
        <ele>1328.4</ele>
        <time>2026-09-07T07:06:35.000Z</time>
      </trkpt>
      <trkpt lat="46.544572" lon="6.426960">
        <ele>1328.9</ele>
        <time>2026-09-07T07:06:40.000Z</time>
      </trkpt>
      <trkpt lat="46.544637" lon="6.427026">
        <ele>1329.3</ele>
        <time>2026-09-07T07:06:45.000Z</time>
      </trkpt>
      <trkpt lat="46.544705" lon="6.427089">
        <ele>1329.8</ele>
        <time>2026-09-07T07:06:50.000Z</time>
      </trkpt>
      <trkpt lat="46.544775" lon="6.427147">
        <ele>1330.2</ele>
        <time>2026-09-07T07:06:55.000Z</time>
      </trkpt>
      <trkpt lat="46.544849" lon="6.427201">
        <ele>1330.7</ele>
        <time>2026-09-07T07:07:00.000Z</time>
      </trkpt>
      <trkpt lat="46.544925" lon="6.427250">
        <ele>1331.1</ele>
        <time>2026-09-07T07:07:05.000Z</time>
      </trkpt>
      <trkpt lat="46.545004" lon="6.427294">
        <ele>1331.5</ele>
        <time>2026-09-07T07:07:10.000Z</time>
      </trkpt>
      <trkpt lat="46.545086" lon="6.427333">
        <ele>1331.8</ele>
        <time>2026-09-07T07:07:15.000Z</time>
      </trkpt>
      <trkpt lat="46.545170" lon="6.427368">
        <ele>1332.2</ele>
        <time>2026-09-07T07:07:20.000Z</time>
      </trkpt>
      <trkpt lat="46.545258" lon="6.427398">
        <ele>1332.6</ele>
        <time>2026-09-07T07:07:25.000Z</time>
      </trkpt>
      <trkpt lat="46.545348" lon="6.427424">
        <ele>1332.9</ele>
        <time>2026-09-07T07:07:30.000Z</time>
      </trkpt>
      <trkpt lat="46.545440" lon="6.427446">
        <ele>1333.2</ele>
        <time>2026-09-07T07:07:35.000Z</time>
      </trkpt>
      <trkpt lat="46.545535" lon="6.427464">
        <ele>1333.5</ele>
        <time>2026-09-07T07:07:40.000Z</time>
      </trkpt>
      <trkpt lat="46.545631" lon="6.427479">
        <ele>1333.8</ele>
        <time>2026-09-07T07:07:45.000Z</time>
      </trkpt>
      <trkpt lat="46.545729" lon="6.427491">
        <ele>1334.1</ele>
        <time>2026-09-07T07:07:50.000Z</time>
      </trkpt>
      <trkpt lat="46.545828" lon="6.427501">
        <ele>1334.4</ele>
        <time>2026-09-07T07:07:55.000Z</time>
      </trkpt>
      <trkpt lat="46.545929" lon="6.427510">
        <ele>1334.6</ele>
        <time>2026-09-07T07:08:00.000Z</time>
      </trkpt>
      <trkpt lat="46.546029" lon="6.427518">
        <ele>1334.8</ele>
        <time>2026-09-07T07:08:05.000Z</time>
      </trkpt>
      <trkpt lat="46.546130" lon="6.427525">
        <ele>1335.1</ele>
        <time>2026-09-07T07:08:10.000Z</time>
      </trkpt>
      <trkpt lat="46.546231" lon="6.427533">
        <ele>1335.3</ele>
        <time>2026-09-07T07:08:15.000Z</time>
      </trkpt>
      <trkpt lat="46.546332" lon="6.427542">
        <ele>1335.5</ele>
        <time>2026-09-07T07:08:20.000Z</time>
      </trkpt>
      <trkpt lat="46.546431" lon="6.427552">
        <ele>1335.7</ele>
        <time>2026-09-07T07:08:25.000Z</time>
      </trkpt>
      <trkpt lat="46.546529" lon="6.427564">
        <ele>1335.8</ele>
        <time>2026-09-07T07:08:30.000Z</time>
      </trkpt>
      <trkpt lat="46.546625" lon="6.427579">
        <ele>1336.0</ele>
        <time>2026-09-07T07:08:35.000Z</time>
      </trkpt>
      <trkpt lat="46.546720" lon="6.427598">
        <ele>1336.1</ele>
        <time>2026-09-07T07:08:40.000Z</time>
      </trkpt>
      <trkpt lat="46.546812" lon="6.427620">
        <ele>1336.2</ele>
        <time>2026-09-07T07:08:45.000Z</time>
      </trkpt>
      <trkpt lat="46.546902" lon="6.427646">
        <ele>1336.3</ele>
        <time>2026-09-07T07:08:50.000Z</time>
      </trkpt>
      <trkpt lat="46.546988" lon="6.427677">
        <ele>1336.4</ele>
        <time>2026-09-07T07:08:55.000Z</time>
      </trkpt>
      <trkpt lat="46.547072" lon="6.427713">
        <ele>1336.5</ele>
        <time>2026-09-07T07:09:00.000Z</time>
      </trkpt>
      <trkpt lat="46.547153" lon="6.427755">
        <ele>1336.6</ele>
        <time>2026-09-07T07:09:05.000Z</time>
      </trkpt>
      <trkpt lat="46.547230" lon="6.427801">
        <ele>1336.6</ele>
        <time>2026-09-07T07:09:10.000Z</time>
      </trkpt>
      <trkpt lat="46.547304" lon="6.427854">
        <ele>1336.6</ele>
        <time>2026-09-07T07:09:15.000Z</time>
      </trkpt>
      <trkpt lat="46.547375" lon="6.427911">
        <ele>1336.7</ele>
        <time>2026-09-07T07:09:20.000Z</time>
      </trkpt>
      <trkpt lat="46.547443" lon="6.427974">
        <ele>1336.7</ele>
        <time>2026-09-07T07:09:25.000Z</time>
      </trkpt>
      <trkpt lat="46.547507" lon="6.428043">
        <ele>1336.7</ele>
        <time>2026-09-07T07:09:30.000Z</time>
      </trkpt>
      <trkpt lat="46.547569" lon="6.428116">
        <ele>1336.6</ele>
        <time>2026-09-07T07:09:35.000Z</time>
      </trkpt>
      <trkpt lat="46.547627" lon="6.428194">
        <ele>1336.6</ele>
        <time>2026-09-07T07:09:40.000Z</time>
      </trkpt>
      <trkpt lat="46.547683" lon="6.428277">
        <ele>1336.5</ele>
        <time>2026-09-07T07:09:45.000Z</time>
      </trkpt>
      <trkpt lat="46.547737" lon="6.428363">
        <ele>1336.5</ele>
        <time>2026-09-07T07:09:50.000Z</time>
      </trkpt>
      <trkpt lat="46.547788" lon="6.428453">
        <ele>1336.4</ele>
        <time>2026-09-07T07:09:55.000Z</time>
      </trkpt>
      <trkpt lat="46.547838" lon="6.428546">
        <ele>1336.3</ele>
        <time>2026-09-07T07:10:00.000Z</time>
      </trkpt>
      <trkpt lat="46.547887" lon="6.428640">
        <ele>1336.2</ele>
        <time>2026-09-07T07:10:05.000Z</time>
      </trkpt>
      <trkpt lat="46.547935" lon="6.428736">
        <ele>1336.1</ele>
        <time>2026-09-07T07:10:10.000Z</time>
      </trkpt>
      <trkpt lat="46.547983" lon="6.428832">
        <ele>1335.9</ele>
        <time>2026-09-07T07:10:15.000Z</time>
      </trkpt>
      <trkpt lat="46.548031" lon="6.428928">
        <ele>1335.8</ele>
        <time>2026-09-07T07:10:20.000Z</time>
      </trkpt>
      <trkpt lat="46.548079" lon="6.429023">
        <ele>1335.6</ele>
        <time>2026-09-07T07:10:25.000Z</time>
      </trkpt>
      <trkpt lat="46.548129" lon="6.429117">
        <ele>1335.4</ele>
        <time>2026-09-07T07:10:30.000Z</time>
      </trkpt>
      <trkpt lat="46.548180" lon="6.429207">
        <ele>1335.2</ele>
        <time>2026-09-07T07:10:35.000Z</time>
      </trkpt>
      <trkpt lat="46.548233" lon="6.429294">
        <ele>1335.0</ele>
        <time>2026-09-07T07:10:40.000Z</time>
      </trkpt>
      <trkpt lat="46.548289" lon="6.429377">
        <ele>1334.7</ele>
        <time>2026-09-07T07:10:45.000Z</time>
      </trkpt>
      <trkpt lat="46.548348" lon="6.429454">
        <ele>1334.5</ele>
        <time>2026-09-07T07:10:50.000Z</time>
      </trkpt>
      <trkpt lat="46.548410" lon="6.429526">
        <ele>1334.2</ele>
        <time>2026-09-07T07:10:55.000Z</time>
      </trkpt>
      <trkpt lat="46.548477" lon="6.429591">
        <ele>1334.0</ele>
        <time>2026-09-07T07:11:00.000Z</time>
      </trkpt>
      <trkpt lat="46.548548" lon="6.429648">
        <ele>1333.7</ele>
        <time>2026-09-07T07:11:05.000Z</time>
      </trkpt>
      <trkpt lat="46.548623" lon="6.429698">
        <ele>1333.4</ele>
        <time>2026-09-07T07:11:10.000Z</time>
      </trkpt>
      <trkpt lat="46.548704" lon="6.429740">
        <ele>1333.0</ele>
        <time>2026-09-07T07:11:15.000Z</time>
      </trkpt>
      <trkpt lat="46.548790" lon="6.429772">
        <ele>1332.7</ele>
        <time>2026-09-07T07:11:20.000Z</time>
      </trkpt>
      <trkpt lat="46.548881" lon="6.429796">
        <ele>1332.4</ele>
        <time>2026-09-07T07:11:25.000Z</time>
      </trkpt>
      <trkpt lat="46.548978" lon="6.429810">
        <ele>1332.0</ele>
        <time>2026-09-07T07:11:30.000Z</time>
      </trkpt>
      <trkpt lat="46.549081" lon="6.429815">
        <ele>1331.6</ele>
        <time>2026-09-07T07:11:35.000Z</time>
      </trkpt>
      <trkpt lat="46.549189" lon="6.429809">
        <ele>1331.2</ele>
        <time>2026-09-07T07:11:40.000Z</time>
      </trkpt>
      <trkpt lat="46.549304" lon="6.429794">
        <ele>1330.8</ele>
        <time>2026-09-07T07:11:45.000Z</time>
      </trkpt>
      <trkpt lat="46.549424" lon="6.429769">
        <ele>1330.4</ele>
        <time>2026-09-07T07:11:50.000Z</time>
      </trkpt>
      <trkpt lat="46.549550" lon="6.429735">
        <ele>1329.9</ele>
        <time>2026-09-07T07:11:55.000Z</time>
      </trkpt>
      <trkpt lat="46.549682" lon="6.429692">
        <ele>1329.5</ele>
        <time>2026-09-07T07:12:00.000Z</time>
      </trkpt>
      <trkpt lat="46.549818" lon="6.429640">
        <ele>1329.0</ele>
        <time>2026-09-07T07:12:05.000Z</time>
      </trkpt>
      <trkpt lat="46.549960" lon="6.429579">
        <ele>1328.5</ele>
        <time>2026-09-07T07:12:10.000Z</time>
      </trkpt>
      <trkpt lat="46.550107" lon="6.429511">
        <ele>1328.0</ele>
        <time>2026-09-07T07:12:15.000Z</time>
      </trkpt>
      <trkpt lat="46.550258" lon="6.429435">
        <ele>1327.5</ele>
        <time>2026-09-07T07:12:20.000Z</time>
      </trkpt>
      <trkpt lat="46.550413" lon="6.429352">
        <ele>1327.0</ele>
        <time>2026-09-07T07:12:25.000Z</time>
      </trkpt>
      <trkpt lat="46.550571" lon="6.429264">
        <ele>1326.4</ele>
        <time>2026-09-07T07:12:30.000Z</time>
      </trkpt>
      <trkpt lat="46.550733" lon="6.429170">
        <ele>1325.9</ele>
        <time>2026-09-07T07:12:35.000Z</time>
      </trkpt>
      <trkpt lat="46.550897" lon="6.429072">
        <ele>1325.3</ele>
        <time>2026-09-07T07:12:40.000Z</time>
      </trkpt>
      <trkpt lat="46.551064" lon="6.428971">
        <ele>1324.7</ele>
        <time>2026-09-07T07:12:45.000Z</time>
      </trkpt>
      <trkpt lat="46.551232" lon="6.428866">
        <ele>1324.1</ele>
        <time>2026-09-07T07:12:50.000Z</time>
      </trkpt>
      <trkpt lat="46.551401" lon="6.428760">
        <ele>1323.5</ele>
        <time>2026-09-07T07:12:55.000Z</time>
      </trkpt>
      <trkpt lat="46.551570" lon="6.428653">
        <ele>1322.9</ele>
        <time>2026-09-07T07:13:00.000Z</time>
      </trkpt>
      <trkpt lat="46.551740" lon="6.428546">
        <ele>1322.2</ele>
        <time>2026-09-07T07:13:05.000Z</time>
      </trkpt>
      <trkpt lat="46.551910" lon="6.428439">
        <ele>1321.5</ele>
        <time>2026-09-07T07:13:10.000Z</time>
      </trkpt>
      <trkpt lat="46.552078" lon="6.428334">
        <ele>1320.9</ele>
        <time>2026-09-07T07:13:15.000Z</time>
      </trkpt>
      <trkpt lat="46.552245" lon="6.428231">
        <ele>1320.2</ele>
        <time>2026-09-07T07:13:20.000Z</time>
      </trkpt>
      <trkpt lat="46.552411" lon="6.428131">
        <ele>1319.4</ele>
        <time>2026-09-07T07:13:25.000Z</time>
      </trkpt>
      <trkpt lat="46.552574" lon="6.428035">
        <ele>1318.7</ele>
        <time>2026-09-07T07:13:30.000Z</time>
      </trkpt>
      <trkpt lat="46.552735" lon="6.427943">
        <ele>1318.0</ele>
        <time>2026-09-07T07:13:35.000Z</time>
      </trkpt>
      <trkpt lat="46.552893" lon="6.427856">
        <ele>1317.2</ele>
        <time>2026-09-07T07:13:40.000Z</time>
      </trkpt>
      <trkpt lat="46.553047" lon="6.427773">
        <ele>1316.5</ele>
        <time>2026-09-07T07:13:45.000Z</time>
      </trkpt>
      <trkpt lat="46.553199" lon="6.427697">
        <ele>1315.7</ele>
        <time>2026-09-07T07:13:50.000Z</time>
      </trkpt>
      <trkpt lat="46.553347" lon="6.427626">
        <ele>1314.9</ele>
        <time>2026-09-07T07:13:55.000Z</time>
      </trkpt>
      <trkpt lat="46.553491" lon="6.427561">
        <ele>1314.1</ele>
        <time>2026-09-07T07:14:00.000Z</time>
      </trkpt>
      <trkpt lat="46.553632" lon="6.427503">
        <ele>1313.2</ele>
        <time>2026-09-07T07:14:05.000Z</time>
      </trkpt>
      <trkpt lat="46.553768" lon="6.427451">
        <ele>1312.4</ele>
        <time>2026-09-07T07:14:10.000Z</time>
      </trkpt>
      <trkpt lat="46.553901" lon="6.427405">
        <ele>1311.5</ele>
        <time>2026-09-07T07:14:15.000Z</time>
      </trkpt>
      <trkpt lat="46.554031" lon="6.427365">
        <ele>1310.6</ele>
        <time>2026-09-07T07:14:20.000Z</time>
      </trkpt>
      <trkpt lat="46.554157" lon="6.427331">
        <ele>1309.8</ele>
        <time>2026-09-07T07:14:25.000Z</time>
      </trkpt>
      <trkpt lat="46.554279" lon="6.427302">
        <ele>1308.9</ele>
        <time>2026-09-07T07:14:30.000Z</time>
      </trkpt>
      <trkpt lat="46.554398" lon="6.427279">
        <ele>1307.9</ele>
        <time>2026-09-07T07:14:35.000Z</time>
      </trkpt>
      <trkpt lat="46.554515" lon="6.427261">
        <ele>1307.0</ele>
        <time>2026-09-07T07:14:40.000Z</time>
      </trkpt>
      <trkpt lat="46.554628" lon="6.427248">
        <ele>1306.0</ele>
        <time>2026-09-07T07:14:45.000Z</time>
      </trkpt>
      <trkpt lat="46.554739" lon="6.427238">
        <ele>1305.1</ele>
        <time>2026-09-07T07:14:50.000Z</time>
      </trkpt>
      <trkpt lat="46.554848" lon="6.427232">
        <ele>1304.1</ele>
        <time>2026-09-07T07:14:55.000Z</time>
      </trkpt>
      <trkpt lat="46.554956" lon="6.427229">
        <ele>1303.1</ele>
        <time>2026-09-07T07:15:00.000Z</time>
      </trkpt>
      <trkpt lat="46.555062" lon="6.427229">
        <ele>1302.1</ele>
        <time>2026-09-07T07:15:05.000Z</time>
      </trkpt>
      <trkpt lat="46.555166" lon="6.427230">
        <ele>1301.1</ele>
        <time>2026-09-07T07:15:10.000Z</time>
      </trkpt>
      <trkpt lat="46.555270" lon="6.427232">
        <ele>1300.0</ele>
        <time>2026-09-07T07:15:15.000Z</time>
      </trkpt>
      <trkpt lat="46.555374" lon="6.427235">
        <ele>1299.0</ele>
        <time>2026-09-07T07:15:20.000Z</time>
      </trkpt>
      <trkpt lat="46.555478" lon="6.427238">
        <ele>1297.9</ele>
        <time>2026-09-07T07:15:25.000Z</time>
      </trkpt>
      <trkpt lat="46.555582" lon="6.427241">
        <ele>1296.8</ele>
        <time>2026-09-07T07:15:30.000Z</time>
      </trkpt>
      <trkpt lat="46.555686" lon="6.427242">
        <ele>1295.7</ele>
        <time>2026-09-07T07:15:35.000Z</time>
      </trkpt>
      <trkpt lat="46.555791" lon="6.427243">
        <ele>1294.6</ele>
        <time>2026-09-07T07:15:40.000Z</time>
      </trkpt>
      <trkpt lat="46.555898" lon="6.427241">
        <ele>1293.5</ele>
        <time>2026-09-07T07:15:45.000Z</time>
      </trkpt>
      <trkpt lat="46.556005" lon="6.427238">
        <ele>1292.3</ele>
        <time>2026-09-07T07:15:50.000Z</time>
      </trkpt>
      <trkpt lat="46.556115" lon="6.427231">
        <ele>1291.2</ele>
        <time>2026-09-07T07:15:55.000Z</time>
      </trkpt>
      <trkpt lat="46.556225" lon="6.427223">
        <ele>1290.0</ele>
        <time>2026-09-07T07:16:00.000Z</time>
      </trkpt>
      <trkpt lat="46.556338" lon="6.427211">
        <ele>1288.8</ele>
        <time>2026-09-07T07:16:05.000Z</time>
      </trkpt>
      <trkpt lat="46.556452" lon="6.427197">
        <ele>1287.6</ele>
        <time>2026-09-07T07:16:10.000Z</time>
      </trkpt>
      <trkpt lat="46.556567" lon="6.427180">
        <ele>1286.4</ele>
        <time>2026-09-07T07:16:15.000Z</time>
      </trkpt>
      <trkpt lat="46.556685" lon="6.427160">
        <ele>1285.2</ele>
        <time>2026-09-07T07:16:20.000Z</time>
      </trkpt>
      <trkpt lat="46.556803" lon="6.427138">
        <ele>1283.9</ele>
        <time>2026-09-07T07:16:25.000Z</time>
      </trkpt>
      <trkpt lat="46.556924" lon="6.427114">
        <ele>1282.7</ele>
        <time>2026-09-07T07:16:30.000Z</time>
      </trkpt>
      <trkpt lat="46.557045" lon="6.427087">
        <ele>1281.4</ele>
        <time>2026-09-07T07:16:35.000Z</time>
      </trkpt>
      <trkpt lat="46.557167" lon="6.427059">
        <ele>1280.1</ele>
        <time>2026-09-07T07:16:40.000Z</time>
      </trkpt>
      <trkpt lat="46.557290" lon="6.427030">
        <ele>1278.8</ele>
        <time>2026-09-07T07:16:45.000Z</time>
      </trkpt>
      <trkpt lat="46.557413" lon="6.427000">
        <ele>1277.5</ele>
        <time>2026-09-07T07:16:50.000Z</time>
      </trkpt>
      <trkpt lat="46.557537" lon="6.426971">
        <ele>1276.1</ele>
        <time>2026-09-07T07:16:55.000Z</time>
      </trkpt>
      <trkpt lat="46.557660" lon="6.426942">
        <ele>1274.8</ele>
        <time>2026-09-07T07:17:00.000Z</time>
      </trkpt>
      <trkpt lat="46.557782" lon="6.426914">
        <ele>1273.4</ele>
        <time>2026-09-07T07:17:05.000Z</time>
      </trkpt>
      <trkpt lat="46.557903" lon="6.426888">
        <ele>1272.0</ele>
        <time>2026-09-07T07:17:10.000Z</time>
      </trkpt>
      <trkpt lat="46.558022" lon="6.426865">
        <ele>1270.6</ele>
        <time>2026-09-07T07:17:15.000Z</time>
      </trkpt>
      <trkpt lat="46.558139" lon="6.426845">
        <ele>1269.2</ele>
        <time>2026-09-07T07:17:20.000Z</time>
      </trkpt>
      <trkpt lat="46.558254" lon="6.426830">
        <ele>1267.8</ele>
        <time>2026-09-07T07:17:25.000Z</time>
      </trkpt>
      <trkpt lat="46.558365" lon="6.426819">
        <ele>1266.4</ele>
        <time>2026-09-07T07:17:30.000Z</time>
      </trkpt>
      <trkpt lat="46.558474" lon="6.426815">
        <ele>1264.9</ele>
        <time>2026-09-07T07:17:35.000Z</time>
      </trkpt>
      <trkpt lat="46.558579" lon="6.426816">
        <ele>1263.4</ele>
        <time>2026-09-07T07:17:40.000Z</time>
      </trkpt>
      <trkpt lat="46.558679" lon="6.426824">
        <ele>1262.0</ele>
        <time>2026-09-07T07:17:45.000Z</time>
      </trkpt>
      <trkpt lat="46.558775" lon="6.426840">
        <ele>1260.5</ele>
        <time>2026-09-07T07:17:50.000Z</time>
      </trkpt>
      <trkpt lat="46.558866" lon="6.426864">
        <ele>1259.0</ele>
        <time>2026-09-07T07:17:55.000Z</time>
      </trkpt>
      <trkpt lat="46.558952" lon="6.426896">
        <ele>1257.4</ele>
        <time>2026-09-07T07:18:00.000Z</time>
      </trkpt>
      <trkpt lat="46.559033" lon="6.426938">
        <ele>1255.9</ele>
        <time>2026-09-07T07:18:05.000Z</time>
      </trkpt>
      <trkpt lat="46.559108" lon="6.426989">
        <ele>1254.3</ele>
        <time>2026-09-07T07:18:10.000Z</time>
      </trkpt>
      <trkpt lat="46.559177" lon="6.427049">
        <ele>1252.8</ele>
        <time>2026-09-07T07:18:15.000Z</time>
      </trkpt>
      <trkpt lat="46.559240" lon="6.427119">
        <ele>1251.2</ele>
        <time>2026-09-07T07:18:20.000Z</time>
      </trkpt>
      <trkpt lat="46.559298" lon="6.427199">
        <ele>1249.6</ele>
        <time>2026-09-07T07:18:25.000Z</time>
      </trkpt>
      <trkpt lat="46.559349" lon="6.427289">
        <ele>1248.0</ele>
        <time>2026-09-07T07:18:30.000Z</time>
      </trkpt>
      <trkpt lat="46.559395" lon="6.427389">
        <ele>1246.4</ele>
        <time>2026-09-07T07:18:35.000Z</time>
      </trkpt>
      <trkpt lat="46.559435" lon="6.427498">
        <ele>1244.7</ele>
        <time>2026-09-07T07:18:40.000Z</time>
      </trkpt>
      <trkpt lat="46.559469" lon="6.427617">
        <ele>1243.1</ele>
        <time>2026-09-07T07:18:45.000Z</time>
      </trkpt>
      <trkpt lat="46.559498" lon="6.427745">
        <ele>1241.4</ele>
        <time>2026-09-07T07:18:50.000Z</time>
      </trkpt>
      <trkpt lat="46.559521" lon="6.427881">
        <ele>1239.7</ele>
        <time>2026-09-07T07:18:55.000Z</time>
      </trkpt>
      <trkpt lat="46.559540" lon="6.428025">
        <ele>1238.0</ele>
        <time>2026-09-07T07:19:00.000Z</time>
      </trkpt>
      <trkpt lat="46.559555" lon="6.428177">
        <ele>1236.3</ele>
        <time>2026-09-07T07:19:05.000Z</time>
      </trkpt>
      <trkpt lat="46.559565" lon="6.428335">
        <ele>1234.6</ele>
        <time>2026-09-07T07:19:10.000Z</time>
      </trkpt>
      <trkpt lat="46.559572" lon="6.428500">
        <ele>1232.8</ele>
        <time>2026-09-07T07:19:15.000Z</time>
      </trkpt>
      <trkpt lat="46.559576" lon="6.428670">
        <ele>1231.1</ele>
        <time>2026-09-07T07:19:20.000Z</time>
      </trkpt>
      <trkpt lat="46.559577" lon="6.428844">
        <ele>1229.3</ele>
        <time>2026-09-07T07:19:25.000Z</time>
      </trkpt>
      <trkpt lat="46.559575" lon="6.429021">
        <ele>1227.5</ele>
        <time>2026-09-07T07:19:30.000Z</time>
      </trkpt>
      <trkpt lat="46.559573" lon="6.429202">
        <ele>1225.8</ele>
        <time>2026-09-07T07:19:35.000Z</time>
      </trkpt>
      <trkpt lat="46.559569" lon="6.429384">
        <ele>1223.9</ele>
        <time>2026-09-07T07:19:40.000Z</time>
      </trkpt>
      <trkpt lat="46.559564" lon="6.429567">
        <ele>1222.1</ele>
        <time>2026-09-07T07:19:45.000Z</time>
      </trkpt>
      <trkpt lat="46.559560" lon="6.429750">
        <ele>1220.3</ele>
        <time>2026-09-07T07:19:50.000Z</time>
      </trkpt>
      <trkpt lat="46.559556" lon="6.429933">
        <ele>1218.4</ele>
        <time>2026-09-07T07:19:55.000Z</time>
      </trkpt>
      <trkpt lat="46.559553" lon="6.430113">
        <ele>1216.6</ele>
        <time>2026-09-07T07:20:00.000Z</time>
      </trkpt>
      <trkpt lat="46.559552" lon="6.430291">
        <ele>1214.7</ele>
        <time>2026-09-07T07:20:05.000Z</time>
      </trkpt>
      <trkpt lat="46.559553" lon="6.430465">
        <ele>1212.8</ele>
        <time>2026-09-07T07:20:10.000Z</time>
      </trkpt>
      <trkpt lat="46.559556" lon="6.430636">
        <ele>1210.9</ele>
        <time>2026-09-07T07:20:15.000Z</time>
      </trkpt>
      <trkpt lat="46.559562" lon="6.430801">
        <ele>1209.0</ele>
        <time>2026-09-07T07:20:20.000Z</time>
      </trkpt>
      <trkpt lat="46.559572" lon="6.430961">
        <ele>1207.1</ele>
        <time>2026-09-07T07:20:25.000Z</time>
      </trkpt>
      <trkpt lat="46.559585" lon="6.431115">
        <ele>1205.1</ele>
        <time>2026-09-07T07:20:30.000Z</time>
      </trkpt>
      <trkpt lat="46.559602" lon="6.431263">
        <ele>1203.2</ele>
        <time>2026-09-07T07:20:35.000Z</time>
      </trkpt>
      <trkpt lat="46.559622" lon="6.431404">
        <ele>1201.2</ele>
        <time>2026-09-07T07:20:40.000Z</time>
      </trkpt>
      <trkpt lat="46.559648" lon="6.431538">
        <ele>1199.2</ele>
        <time>2026-09-07T07:20:45.000Z</time>
      </trkpt>
      <trkpt lat="46.559677" lon="6.431664">
        <ele>1197.2</ele>
        <time>2026-09-07T07:20:50.000Z</time>
      </trkpt>
      <trkpt lat="46.559711" lon="6.431783">
        <ele>1195.2</ele>
        <time>2026-09-07T07:20:55.000Z</time>
      </trkpt>
      <trkpt lat="46.559750" lon="6.431895">
        <ele>1193.2</ele>
        <time>2026-09-07T07:21:00.000Z</time>
      </trkpt>
      <trkpt lat="46.559792" lon="6.431999">
        <ele>1191.1</ele>
        <time>2026-09-07T07:21:05.000Z</time>
      </trkpt>
      <trkpt lat="46.559840" lon="6.432096">
        <ele>1189.1</ele>
        <time>2026-09-07T07:21:10.000Z</time>
      </trkpt>
      <trkpt lat="46.559891" lon="6.432187">
        <ele>1187.0</ele>
        <time>2026-09-07T07:21:15.000Z</time>
      </trkpt>
      <trkpt lat="46.559946" lon="6.432270">
        <ele>1184.9</ele>
        <time>2026-09-07T07:21:20.000Z</time>
      </trkpt>
      <trkpt lat="46.560005" lon="6.432348">
        <ele>1182.8</ele>
        <time>2026-09-07T07:21:25.000Z</time>
      </trkpt>
      <trkpt lat="46.560068" lon="6.432419">
        <ele>1180.7</ele>
        <time>2026-09-07T07:21:30.000Z</time>
      </trkpt>
      <trkpt lat="46.560133" lon="6.432485">
        <ele>1178.6</ele>
        <time>2026-09-07T07:21:35.000Z</time>
      </trkpt>
      <trkpt lat="46.560202" lon="6.432547">
        <ele>1176.5</ele>
        <time>2026-09-07T07:21:40.000Z</time>
      </trkpt>
      <trkpt lat="46.560273" lon="6.432605">
        <ele>1174.4</ele>
        <time>2026-09-07T07:21:45.000Z</time>
      </trkpt>
      <trkpt lat="46.560346" lon="6.432659">
        <ele>1172.2</ele>
        <time>2026-09-07T07:21:50.000Z</time>
      </trkpt>
      <trkpt lat="46.560421" lon="6.432710">
        <ele>1170.0</ele>
        <time>2026-09-07T07:21:55.000Z</time>
      </trkpt>
      <trkpt lat="46.560497" lon="6.432759">
        <ele>1167.9</ele>
        <time>2026-09-07T07:22:00.000Z</time>
      </trkpt>
      <trkpt lat="46.560573" lon="6.432807">
        <ele>1165.7</ele>
        <time>2026-09-07T07:22:05.000Z</time>
      </trkpt>
      <trkpt lat="46.560651" lon="6.432854">
        <ele>1163.5</ele>
        <time>2026-09-07T07:22:10.000Z</time>
      </trkpt>
      <trkpt lat="46.560728" lon="6.432901">
        <ele>1161.2</ele>
        <time>2026-09-07T07:22:15.000Z</time>
      </trkpt>
      <trkpt lat="46.560805" lon="6.432948">
        <ele>1159.0</ele>
        <time>2026-09-07T07:22:20.000Z</time>
      </trkpt>
      <trkpt lat="46.560881" lon="6.432997">
        <ele>1156.8</ele>
        <time>2026-09-07T07:22:25.000Z</time>
      </trkpt>
      <trkpt lat="46.560956" lon="6.433048">
        <ele>1154.5</ele>
        <time>2026-09-07T07:22:30.000Z</time>
      </trkpt>
      <trkpt lat="46.561030" lon="6.433101">
        <ele>1152.2</ele>
        <time>2026-09-07T07:22:35.000Z</time>
      </trkpt>
      <trkpt lat="46.561101" lon="6.433157">
        <ele>1149.9</ele>
        <time>2026-09-07T07:22:40.000Z</time>
      </trkpt>
      <trkpt lat="46.561171" lon="6.433216">
        <ele>1147.7</ele>
        <time>2026-09-07T07:22:45.000Z</time>
      </trkpt>
      <trkpt lat="46.561239" lon="6.433279">
        <ele>1145.3</ele>
        <time>2026-09-07T07:22:50.000Z</time>
      </trkpt>
      <trkpt lat="46.561305" lon="6.433346">
        <ele>1143.0</ele>
        <time>2026-09-07T07:22:55.000Z</time>
      </trkpt>
      <trkpt lat="46.561368" lon="6.433417">
        <ele>1140.7</ele>
        <time>2026-09-07T07:23:00.000Z</time>
      </trkpt>
      <trkpt lat="46.561428" lon="6.433492">
        <ele>1138.4</ele>
        <time>2026-09-07T07:23:05.000Z</time>
      </trkpt>
      <trkpt lat="46.561486" lon="6.433571">
        <ele>1136.0</ele>
        <time>2026-09-07T07:23:10.000Z</time>
      </trkpt>
      <trkpt lat="46.561541" lon="6.433655">
        <ele>1133.6</ele>
        <time>2026-09-07T07:23:15.000Z</time>
      </trkpt>
      <trkpt lat="46.561594" lon="6.433743">
        <ele>1131.3</ele>
        <time>2026-09-07T07:23:20.000Z</time>
      </trkpt>
      <trkpt lat="46.561644" lon="6.433834">
        <ele>1128.9</ele>
        <time>2026-09-07T07:23:25.000Z</time>
      </trkpt>
      <trkpt lat="46.561692" lon="6.433930">
        <ele>1126.5</ele>
        <time>2026-09-07T07:23:30.000Z</time>
      </trkpt>
      <trkpt lat="46.561739" lon="6.434029">
        <ele>1124.0</ele>
        <time>2026-09-07T07:23:35.000Z</time>
      </trkpt>
      <trkpt lat="46.561783" lon="6.434131">
        <ele>1121.6</ele>
        <time>2026-09-07T07:23:40.000Z</time>
      </trkpt>
      <trkpt lat="46.561826" lon="6.434235">
        <ele>1119.2</ele>
        <time>2026-09-07T07:23:45.000Z</time>
      </trkpt>
      <trkpt lat="46.561867" lon="6.434341">
        <ele>1116.7</ele>
        <time>2026-09-07T07:23:50.000Z</time>
      </trkpt>
      <trkpt lat="46.561908" lon="6.434449">
        <ele>1114.3</ele>
        <time>2026-09-07T07:23:55.000Z</time>
      </trkpt>
      <trkpt lat="46.561948" lon="6.434558">
        <ele>1111.8</ele>
        <time>2026-09-07T07:24:00.000Z</time>
      </trkpt>
      <trkpt lat="46.561988" lon="6.434668">
        <ele>1109.3</ele>
        <time>2026-09-07T07:24:05.000Z</time>
      </trkpt>
      <trkpt lat="46.562028" lon="6.434777">
        <ele>1106.8</ele>
        <time>2026-09-07T07:24:10.000Z</time>
      </trkpt>
      <trkpt lat="46.562069" lon="6.434885">
        <ele>1104.3</ele>
        <time>2026-09-07T07:24:15.000Z</time>
      </trkpt>
      <trkpt lat="46.562110" lon="6.434991">
        <ele>1101.8</ele>
        <time>2026-09-07T07:24:20.000Z</time>
      </trkpt>
      <trkpt lat="46.562153" lon="6.435095">
        <ele>1099.2</ele>
        <time>2026-09-07T07:24:25.000Z</time>
      </trkpt>
      <trkpt lat="46.562198" lon="6.435197">
        <ele>1096.7</ele>
        <time>2026-09-07T07:24:30.000Z</time>
      </trkpt>
      <trkpt lat="46.562244" lon="6.435295">
        <ele>1094.2</ele>
        <time>2026-09-07T07:24:35.000Z</time>
      </trkpt>
      <trkpt lat="46.562293" lon="6.435389">
        <ele>1091.6</ele>
        <time>2026-09-07T07:24:40.000Z</time>
      </trkpt>
      <trkpt lat="46.562345" lon="6.435479">
        <ele>1089.0</ele>
        <time>2026-09-07T07:24:45.000Z</time>
      </trkpt>
      <trkpt lat="46.562399" lon="6.435564">
        <ele>1086.4</ele>
        <time>2026-09-07T07:24:50.000Z</time>
      </trkpt>
      <trkpt lat="46.562457" lon="6.435644">
        <ele>1083.8</ele>
        <time>2026-09-07T07:24:55.000Z</time>
      </trkpt>
      <trkpt lat="46.562518" lon="6.435718">
        <ele>1081.2</ele>
        <time>2026-09-07T07:25:00.000Z</time>
      </trkpt>
      <trkpt lat="46.562582" lon="6.435787">
        <ele>1078.6</ele>
        <time>2026-09-07T07:25:05.000Z</time>
      </trkpt>
      <trkpt lat="46.562650" lon="6.435850">
        <ele>1076.0</ele>
        <time>2026-09-07T07:25:10.000Z</time>
      </trkpt>
      <trkpt lat="46.562721" lon="6.435906">
        <ele>1073.3</ele>
        <time>2026-09-07T07:25:15.000Z</time>
      </trkpt>
      <trkpt lat="46.562796" lon="6.435957">
        <ele>1070.7</ele>
        <time>2026-09-07T07:25:20.000Z</time>
      </trkpt>
      <trkpt lat="46.562875" lon="6.436001">
        <ele>1068.0</ele>
        <time>2026-09-07T07:25:25.000Z</time>
      </trkpt>
      <trkpt lat="46.562957" lon="6.436040">
        <ele>1065.3</ele>
        <time>2026-09-07T07:25:30.000Z</time>
      </trkpt>
      <trkpt lat="46.563043" lon="6.436074">
        <ele>1062.7</ele>
        <time>2026-09-07T07:25:35.000Z</time>
      </trkpt>
      <trkpt lat="46.563131" lon="6.436102">
        <ele>1060.0</ele>
        <time>2026-09-07T07:25:40.000Z</time>
      </trkpt>
      <trkpt lat="46.563223" lon="6.436125">
        <ele>1057.3</ele>
        <time>2026-09-07T07:25:45.000Z</time>
      </trkpt>
      <trkpt lat="46.563317" lon="6.436144">
        <ele>1054.5</ele>
        <time>2026-09-07T07:25:50.000Z</time>
      </trkpt>
      <trkpt lat="46.563413" lon="6.436160">
        <ele>1051.8</ele>
        <time>2026-09-07T07:25:55.000Z</time>
      </trkpt>
      <trkpt lat="46.563511" lon="6.436172">
        <ele>1049.1</ele>
        <time>2026-09-07T07:26:00.000Z</time>
      </trkpt>
      <trkpt lat="46.563611" lon="6.436182">
        <ele>1046.3</ele>
        <time>2026-09-07T07:26:05.000Z</time>
      </trkpt>
      <trkpt lat="46.563711" lon="6.436189">
        <ele>1043.6</ele>
        <time>2026-09-07T07:26:10.000Z</time>
      </trkpt>
      <trkpt lat="46.563813" lon="6.436196">
        <ele>1040.8</ele>
        <time>2026-09-07T07:26:15.000Z</time>
      </trkpt>
      <trkpt lat="46.563914" lon="6.436203">
        <ele>1038.0</ele>
        <time>2026-09-07T07:26:20.000Z</time>
      </trkpt>
      <trkpt lat="46.564015" lon="6.436210">
        <ele>1035.3</ele>
        <time>2026-09-07T07:26:25.000Z</time>
      </trkpt>
      <trkpt lat="46.564116" lon="6.436219">
        <ele>1032.5</ele>
        <time>2026-09-07T07:26:30.000Z</time>
      </trkpt>
      <trkpt lat="46.564215" lon="6.436230">
        <ele>1029.7</ele>
        <time>2026-09-07T07:26:35.000Z</time>
      </trkpt>
      <trkpt lat="46.564312" lon="6.436243">
        <ele>1026.8</ele>
        <time>2026-09-07T07:26:40.000Z</time>
      </trkpt>
      <trkpt lat="46.564407" lon="6.436261">
        <ele>1024.0</ele>
        <time>2026-09-07T07:26:45.000Z</time>
      </trkpt>
      <trkpt lat="46.564499" lon="6.436283">
        <ele>1021.2</ele>
        <time>2026-09-07T07:26:50.000Z</time>
      </trkpt>
      <trkpt lat="46.564588" lon="6.436310">
        <ele>1018.3</ele>
        <time>2026-09-07T07:26:55.000Z</time>
      </trkpt>
      <trkpt lat="46.564674" lon="6.436344">
        <ele>1015.5</ele>
        <time>2026-09-07T07:27:00.000Z</time>
      </trkpt>
      <trkpt lat="46.564755" lon="6.436383">
        <ele>1012.6</ele>
        <time>2026-09-07T07:27:05.000Z</time>
      </trkpt>
      <trkpt lat="46.564832" lon="6.436430">
        <ele>1009.8</ele>
        <time>2026-09-07T07:27:10.000Z</time>
      </trkpt>
      <trkpt lat="46.564905" lon="6.436485">
        <ele>1006.9</ele>
        <time>2026-09-07T07:27:15.000Z</time>
      </trkpt>
      <trkpt lat="46.564973" lon="6.436547">
        <ele>1004.0</ele>
        <time>2026-09-07T07:27:20.000Z</time>
      </trkpt>
      <trkpt lat="46.565036" lon="6.436618">
        <ele>1001.1</ele>
        <time>2026-09-07T07:27:25.000Z</time>
      </trkpt>
      <trkpt lat="46.565094" lon="6.436697">
        <ele>998.2</ele>
        <time>2026-09-07T07:27:30.000Z</time>
      </trkpt>
      <trkpt lat="46.565147" lon="6.436785">
        <ele>995.3</ele>
        <time>2026-09-07T07:27:35.000Z</time>
      </trkpt>
      <trkpt lat="46.565194" lon="6.436882">
        <ele>992.3</ele>
        <time>2026-09-07T07:27:40.000Z</time>
      </trkpt>
      <trkpt lat="46.565237" lon="6.436987">
        <ele>989.4</ele>
        <time>2026-09-07T07:27:45.000Z</time>
      </trkpt>
      <trkpt lat="46.565274" lon="6.437101">
        <ele>986.5</ele>
        <time>2026-09-07T07:27:50.000Z</time>
      </trkpt>
      <trkpt lat="46.565306" lon="6.437223">
        <ele>983.5</ele>
        <time>2026-09-07T07:27:55.000Z</time>
      </trkpt>
      <trkpt lat="46.565333" lon="6.437353">
        <ele>980.5</ele>
        <time>2026-09-07T07:28:00.000Z</time>
      </trkpt>
      <trkpt lat="46.565356" lon="6.437491">
        <ele>977.6</ele>
        <time>2026-09-07T07:28:05.000Z</time>
      </trkpt>
      <trkpt lat="46.565375" lon="6.437636">
        <ele>974.6</ele>
        <time>2026-09-07T07:28:10.000Z</time>
      </trkpt>
      <trkpt lat="46.565389" lon="6.437787">
        <ele>971.6</ele>
        <time>2026-09-07T07:28:15.000Z</time>
      </trkpt>
      <trkpt lat="46.565400" lon="6.437945">
        <ele>968.6</ele>
        <time>2026-09-07T07:28:20.000Z</time>
      </trkpt>
      <trkpt lat="46.565408" lon="6.438108">
        <ele>965.6</ele>
        <time>2026-09-07T07:28:25.000Z</time>
      </trkpt>
      <trkpt lat="46.565413" lon="6.438275">
        <ele>962.6</ele>
        <time>2026-09-07T07:28:30.000Z</time>
      </trkpt>
      <trkpt lat="46.565416" lon="6.438446">
        <ele>959.6</ele>
        <time>2026-09-07T07:28:35.000Z</time>
      </trkpt>
      <trkpt lat="46.565417" lon="6.438620">
        <ele>956.6</ele>
        <time>2026-09-07T07:28:40.000Z</time>
      </trkpt>
      <trkpt lat="46.565417" lon="6.438796">
        <ele>953.5</ele>
        <time>2026-09-07T07:28:45.000Z</time>
      </trkpt>
      <trkpt lat="46.565416" lon="6.438973">
        <ele>950.5</ele>
        <time>2026-09-07T07:28:50.000Z</time>
      </trkpt>
      <trkpt lat="46.565415" lon="6.439151">
        <ele>947.4</ele>
        <time>2026-09-07T07:28:55.000Z</time>
      </trkpt>
      <trkpt lat="46.565414" lon="6.439328">
        <ele>944.4</ele>
        <time>2026-09-07T07:29:00.000Z</time>
      </trkpt>
      <trkpt lat="46.565414" lon="6.439503">
        <ele>941.3</ele>
        <time>2026-09-07T07:29:05.000Z</time>
      </trkpt>
      <trkpt lat="46.565415" lon="6.439677">
        <ele>938.3</ele>
        <time>2026-09-07T07:29:10.000Z</time>
      </trkpt>
      <trkpt lat="46.565419" lon="6.439848">
        <ele>935.2</ele>
        <time>2026-09-07T07:29:15.000Z</time>
      </trkpt>
      <trkpt lat="46.565424" lon="6.440014">
        <ele>932.1</ele>
        <time>2026-09-07T07:29:20.000Z</time>
      </trkpt>
      <trkpt lat="46.565432" lon="6.440177">
        <ele>929.0</ele>
        <time>2026-09-07T07:29:25.000Z</time>
      </trkpt>
      <trkpt lat="46.565443" lon="6.440334">
        <ele>925.9</ele>
        <time>2026-09-07T07:29:30.000Z</time>
      </trkpt>
      <trkpt lat="46.565457" lon="6.440486">
        <ele>922.8</ele>
        <time>2026-09-07T07:29:35.000Z</time>
      </trkpt>
      <trkpt lat="46.565475" lon="6.440632">
        <ele>919.7</ele>
        <time>2026-09-07T07:29:40.000Z</time>
      </trkpt>
      <trkpt lat="46.565497" lon="6.440771">
        <ele>916.5</ele>
        <time>2026-09-07T07:29:45.000Z</time>
      </trkpt>
      <trkpt lat="46.565524" lon="6.440903">
        <ele>913.4</ele>
        <time>2026-09-07T07:29:50.000Z</time>
      </trkpt>
      <trkpt lat="46.565554" lon="6.441028">
        <ele>910.3</ele>
        <time>2026-09-07T07:29:55.000Z</time>
      </trkpt>
      <trkpt lat="46.565589" lon="6.441146">
        <ele>907.1</ele>
        <time>2026-09-07T07:30:00.000Z</time>
      </trkpt>
      <trkpt lat="46.565628" lon="6.441256">
        <ele>904.0</ele>
        <time>2026-09-07T07:30:05.000Z</time>
      </trkpt>
      <trkpt lat="46.565672" lon="6.441358">
        <ele>900.8</ele>
        <time>2026-09-07T07:30:10.000Z</time>
      </trkpt>
      <trkpt lat="46.565720" lon="6.441454">
        <ele>897.7</ele>
        <time>2026-09-07T07:30:15.000Z</time>
      </trkpt>
      <trkpt lat="46.565773" lon="6.441542">
        <ele>894.5</ele>
        <time>2026-09-07T07:30:20.000Z</time>
      </trkpt>
      <trkpt lat="46.565830" lon="6.441623">
        <ele>891.3</ele>
        <time>2026-09-07T07:30:25.000Z</time>
      </trkpt>
      <trkpt lat="46.565891" lon="6.441697">
        <ele>888.1</ele>
        <time>2026-09-07T07:30:30.000Z</time>
      </trkpt>
      <trkpt lat="46.565955" lon="6.441765">
        <ele>885.0</ele>
        <time>2026-09-07T07:30:35.000Z</time>
      </trkpt>
      <trkpt lat="46.566024" lon="6.441827">
        <ele>881.8</ele>
        <time>2026-09-07T07:30:40.000Z</time>
      </trkpt>
      <trkpt lat="46.566095" lon="6.441884">
        <ele>878.6</ele>
        <time>2026-09-07T07:30:45.000Z</time>
      </trkpt>
      <trkpt lat="46.566170" lon="6.441935">
        <ele>875.4</ele>
        <time>2026-09-07T07:30:50.000Z</time>
      </trkpt>
      <trkpt lat="46.566247" lon="6.441983">
        <ele>872.1</ele>
        <time>2026-09-07T07:30:55.000Z</time>
      </trkpt>
      <trkpt lat="46.566326" lon="6.442026">
        <ele>868.9</ele>
        <time>2026-09-07T07:31:00.000Z</time>
      </trkpt>
      <trkpt lat="46.566407" lon="6.442067">
        <ele>865.7</ele>
        <time>2026-09-07T07:31:05.000Z</time>
      </trkpt>
      <trkpt lat="46.566490" lon="6.442105">
        <ele>862.5</ele>
        <time>2026-09-07T07:31:10.000Z</time>
      </trkpt>
      <trkpt lat="46.566574" lon="6.442140">
        <ele>859.2</ele>
        <time>2026-09-07T07:31:15.000Z</time>
      </trkpt>
      <trkpt lat="46.566659" lon="6.442175">
        <ele>856.0</ele>
        <time>2026-09-07T07:31:20.000Z</time>
      </trkpt>
      <trkpt lat="46.566744" lon="6.442209">
        <ele>852.8</ele>
        <time>2026-09-07T07:31:25.000Z</time>
      </trkpt>
      <trkpt lat="46.566829" lon="6.442243">
        <ele>849.5</ele>
        <time>2026-09-07T07:31:30.000Z</time>
      </trkpt>
      <trkpt lat="46.569000" lon="6.438800">
        <ele>846.2</ele>
        <time>2026-09-07T07:31:35.000Z</time>
      </trkpt>
    </trkseg>
  </trk>
</gpx>
