<?xml version="1.0" encoding="UTF-8"?>
<gpx creator="strava-studio" version="1.1"
     xmlns="http://www.topografix.com/GPX/1/1">
  <metadata><time>2026-07-14T08:00:00.000Z</time></metadata>
  <trk>
    <name>Tour du lac</name>
    <type>ride</type>
    <trkseg>
      <trkpt lat="46.546112" lon="6.350157">
        <ele>615.8</ele>
        <time>2026-07-14T08:00:00.000Z</time>
      </trkpt>
      <trkpt lat="46.546267" lon="6.350436">
        <ele>617.0</ele>
        <time>2026-07-14T08:00:06.000Z</time>
      </trkpt>
      <trkpt lat="46.546565" lon="6.350917">
        <ele>619.4</ele>
        <time>2026-07-14T08:00:12.000Z</time>
      </trkpt>
      <trkpt lat="46.546930" lon="6.351491">
        <ele>620.7</ele>
        <time>2026-07-14T08:00:18.000Z</time>
      </trkpt>
      <trkpt lat="46.547056" lon="6.351730">
        <ele>623.4</ele>
        <time>2026-07-14T08:00:24.000Z</time>
      </trkpt>
      <trkpt lat="46.547393" lon="6.352264">
        <ele>626.1</ele>
        <time>2026-07-14T08:00:30.000Z</time>
      </trkpt>
      <trkpt lat="46.547680" lon="6.352729">
        <ele>627.4</ele>
        <time>2026-07-14T08:00:36.000Z</time>
      </trkpt>
      <trkpt lat="46.547825" lon="6.352996">
        <ele>627.5</ele>
        <time>2026-07-14T08:00:42.000Z</time>
      </trkpt>
      <trkpt lat="46.548143" lon="6.353503">
        <ele>629.3</ele>
        <time>2026-07-14T08:00:48.000Z</time>
      </trkpt>
      <trkpt lat="46.548565" lon="6.354157">
        <ele>632.2</ele>
        <time>2026-07-14T08:00:54.000Z</time>
      </trkpt>
      <trkpt lat="46.548820" lon="6.354577">
        <ele>635.0</ele>
        <time>2026-07-14T08:01:00.000Z</time>
      </trkpt>
      <trkpt lat="46.548961" lon="6.354837">
        <ele>635.0</ele>
        <time>2026-07-14T08:01:06.000Z</time>
      </trkpt>
      <trkpt lat="46.549301" lon="6.355375">
        <ele>637.6</ele>
        <time>2026-07-14T08:01:12.000Z</time>
      </trkpt>
      <trkpt lat="46.549405" lon="6.355584">
        <ele>638.4</ele>
        <time>2026-07-14T08:01:18.000Z</time>
      </trkpt>
      <trkpt lat="46.549826" lon="6.356236">
        <ele>641.5</ele>
        <time>2026-07-14T08:01:24.000Z</time>
      </trkpt>
      <trkpt lat="46.550125" lon="6.356704">
        <ele>643.4</ele>
        <time>2026-07-14T08:01:30.000Z</time>
      </trkpt>
      <trkpt lat="46.550517" lon="6.357302">
        <ele>646.7</ele>
        <time>2026-07-14T08:01:36.000Z</time>
      </trkpt>
      <trkpt lat="46.550703" lon="6.357609">
        <ele>649.8</ele>
        <time>2026-07-14T08:01:42.000Z</time>
      </trkpt>
      <trkpt lat="46.551134" lon="6.358261">
        <ele>653.5</ele>
        <time>2026-07-14T08:01:48.000Z</time>
      </trkpt>
      <trkpt lat="46.551476" lon="6.358789">
        <ele>654.4</ele>
        <time>2026-07-14T08:01:54.000Z</time>
      </trkpt>
      <trkpt lat="46.551587" lon="6.358993">
        <ele>658.6</ele>
        <time>2026-07-14T08:02:00.000Z</time>
      </trkpt>
      <trkpt lat="46.551855" lon="6.359417">
        <ele>660.6</ele>
        <time>2026-07-14T08:02:06.000Z</time>
      </trkpt>
      <trkpt lat="46.552119" lon="6.359835">
        <ele>665.2</ele>
        <time>2026-07-14T08:02:12.000Z</time>
      </trkpt>
      <trkpt lat="46.552605" lon="6.360564">
        <ele>667.6</ele>
        <time>2026-07-14T08:02:18.000Z</time>
      </trkpt>
      <trkpt lat="46.552963" lon="6.361114">
        <ele>670.3</ele>
        <time>2026-07-14T08:02:24.000Z</time>
      </trkpt>
      <trkpt lat="46.553138" lon="6.361408">
        <ele>673.8</ele>
        <time>2026-07-14T08:02:30.000Z</time>
      </trkpt>
      <trkpt lat="46.553375" lon="6.361787">
        <ele>675.9</ele>
        <time>2026-07-14T08:02:36.000Z</time>
      </trkpt>
      <trkpt lat="46.553673" lon="6.362253">
        <ele>678.3</ele>
        <time>2026-07-14T08:02:42.000Z</time>
      </trkpt>
      <trkpt lat="46.554028" lon="6.362800">
        <ele>681.9</ele>
        <time>2026-07-14T08:02:48.000Z</time>
      </trkpt>
      <trkpt lat="46.554352" lon="6.363312">
        <ele>685.6</ele>
        <time>2026-07-14T08:02:54.000Z</time>
      </trkpt>
      <trkpt lat="46.554668" lon="6.363813">
        <ele>689.9</ele>
        <time>2026-07-14T08:03:00.000Z</time>
      </trkpt>
      <trkpt lat="46.555105" lon="6.364482">
        <ele>695.4</ele>
        <time>2026-07-14T08:03:06.000Z</time>
      </trkpt>
      <trkpt lat="46.555443" lon="6.365015">
        <ele>699.7</ele>
        <time>2026-07-14T08:03:12.000Z</time>
      </trkpt>
      <trkpt lat="46.555891" lon="6.365701">
        <ele>703.6</ele>
        <time>2026-07-14T08:03:18.000Z</time>
      </trkpt>
      <trkpt lat="46.556089" lon="6.366037">
        <ele>708.0</ele>
        <time>2026-07-14T08:03:24.000Z</time>
      </trkpt>
      <trkpt lat="46.556450" lon="6.366600">
        <ele>711.4</ele>
        <time>2026-07-14T08:03:30.000Z</time>
      </trkpt>
      <trkpt lat="46.556794" lon="6.367140">
        <ele>716.9</ele>
        <time>2026-07-14T08:03:36.000Z</time>
      </trkpt>
      <trkpt lat="46.557025" lon="6.367521">
        <ele>719.8</ele>
        <time>2026-07-14T08:03:42.000Z</time>
      </trkpt>
      <trkpt lat="46.557511" lon="6.368260">
        <ele>723.9</ele>
        <time>2026-07-14T08:03:48.000Z</time>
      </trkpt>
      <trkpt lat="46.557835" lon="6.368773">
        <ele>728.4</ele>
        <time>2026-07-14T08:03:54.000Z</time>
      </trkpt>
      <trkpt lat="46.558073" lon="6.369165">
        <ele>732.8</ele>
        <time>2026-07-14T08:04:00.000Z</time>
      </trkpt>
      <trkpt lat="46.558330" lon="6.369584">
        <ele>736.4</ele>
        <time>2026-07-14T08:04:06.000Z</time>
      </trkpt>
      <trkpt lat="46.558730" lon="6.370202">
        <ele>741.6</ele>
        <time>2026-07-14T08:04:12.000Z</time>
      </trkpt>
      <trkpt lat="46.559233" lon="6.370925">
        <ele>747.8</ele>
        <time>2026-07-14T08:04:18.000Z</time>
      </trkpt>
      <trkpt lat="46.559855" lon="6.371814">
        <ele>755.1</ele>
        <time>2026-07-14T08:04:24.000Z</time>
      </trkpt>
      <trkpt lat="46.560493" lon="6.372725">
        <ele>762.8</ele>
        <time>2026-07-14T08:04:30.000Z</time>
      </trkpt>
      <trkpt lat="46.560946" lon="6.373378">
        <ele>769.0</ele>
        <time>2026-07-14T08:04:36.000Z</time>
      </trkpt>
      <trkpt lat="46.561377" lon="6.374001">
        <ele>775.3</ele>
        <time>2026-07-14T08:04:42.000Z</time>
      </trkpt>
      <trkpt lat="46.562129" lon="6.375072">
        <ele>782.2</ele>
        <time>2026-07-14T08:04:48.000Z</time>
      </trkpt>
      <trkpt lat="46.562616" lon="6.375772">
        <ele>789.3</ele>
        <time>2026-07-14T08:04:54.000Z</time>
      </trkpt>
      <trkpt lat="46.563168" lon="6.376563">
        <ele>797.8</ele>
        <time>2026-07-14T08:05:00.000Z</time>
      </trkpt>
      <trkpt lat="46.563645" lon="6.377251">
        <ele>802.6</ele>
        <time>2026-07-14T08:05:06.000Z</time>
      </trkpt>
      <trkpt lat="46.564277" lon="6.378154">
        <ele>811.3</ele>
        <time>2026-07-14T08:05:12.000Z</time>
      </trkpt>
      <trkpt lat="46.564636" lon="6.378675">
        <ele>816.0</ele>
        <time>2026-07-14T08:05:18.000Z</time>
      </trkpt>
      <trkpt lat="46.565375" lon="6.379729">
        <ele>825.2</ele>
        <time>2026-07-14T08:05:24.000Z</time>
      </trkpt>
      <trkpt lat="46.565880" lon="6.380454">
        <ele>831.3</ele>
        <time>2026-07-14T08:05:30.000Z</time>
      </trkpt>
      <trkpt lat="46.566276" lon="6.381027">
        <ele>837.2</ele>
        <time>2026-07-14T08:05:36.000Z</time>
      </trkpt>
      <trkpt lat="46.566992" lon="6.382045">
        <ele>845.2</ele>
        <time>2026-07-14T08:05:42.000Z</time>
      </trkpt>
      <trkpt lat="46.567333" lon="6.382538">
        <ele>853.1</ele>
        <time>2026-07-14T08:05:48.000Z</time>
      </trkpt>
      <trkpt lat="46.567876" lon="6.383313">
        <ele>858.8</ele>
        <time>2026-07-14T08:05:54.000Z</time>
      </trkpt>
      <trkpt lat="46.568306" lon="6.383931">
        <ele>867.2</ele>
        <time>2026-07-14T08:06:00.000Z</time>
      </trkpt>
      <trkpt lat="46.568894" lon="6.384770">
        <ele>874.1</ele>
        <time>2026-07-14T08:06:06.000Z</time>
      </trkpt>
      <trkpt lat="46.569384" lon="6.385471">
        <ele>881.7</ele>
        <time>2026-07-14T08:06:12.000Z</time>
      </trkpt>
      <trkpt lat="46.569831" lon="6.386113">
        <ele>886.7</ele>
        <time>2026-07-14T08:06:18.000Z</time>
      </trkpt>
      <trkpt lat="46.570092" lon="6.386494">
        <ele>893.8</ele>
        <time>2026-07-14T08:06:24.000Z</time>
      </trkpt>
      <trkpt lat="46.570656" lon="6.387300">
        <ele>901.4</ele>
        <time>2026-07-14T08:06:30.000Z</time>
      </trkpt>
      <trkpt lat="46.571170" lon="6.388035">
        <ele>908.1</ele>
        <time>2026-07-14T08:06:36.000Z</time>
      </trkpt>
      <trkpt lat="46.571675" lon="6.388758">
        <ele>917.3</ele>
        <time>2026-07-14T08:06:42.000Z</time>
      </trkpt>
      <trkpt lat="46.572112" lon="6.389385">
        <ele>924.2</ele>
        <time>2026-07-14T08:06:48.000Z</time>
      </trkpt>
      <trkpt lat="46.572698" lon="6.390221">
        <ele>930.4</ele>
        <time>2026-07-14T08:06:54.000Z</time>
      </trkpt>
      <trkpt lat="46.573097" lon="6.390796">
        <ele>938.1</ele>
        <time>2026-07-14T08:07:00.000Z</time>
      </trkpt>
      <trkpt lat="46.573440" lon="6.391514">
        <ele>945.6</ele>
        <time>2026-07-14T08:07:06.000Z</time>
      </trkpt>
      <trkpt lat="46.573903" lon="6.392398">
        <ele>955.8</ele>
        <time>2026-07-14T08:07:12.000Z</time>
      </trkpt>
      <trkpt lat="46.574288" lon="6.393174">
        <ele>964.2</ele>
        <time>2026-07-14T08:07:18.000Z</time>
      </trkpt>
      <trkpt lat="46.574718" lon="6.394013">
        <ele>971.8</ele>
        <time>2026-07-14T08:07:24.000Z</time>
      </trkpt>
      <trkpt lat="46.575051" lon="6.394717">
        <ele>981.2</ele>
        <time>2026-07-14T08:07:30.000Z</time>
      </trkpt>
      <trkpt lat="46.575562" lon="6.395670">
        <ele>989.6</ele>
        <time>2026-07-14T08:07:36.000Z</time>
      </trkpt>
      <trkpt lat="46.576060" lon="6.396605">
        <ele>999.5</ele>
        <time>2026-07-14T08:07:42.000Z</time>
      </trkpt>
      <trkpt lat="46.576412" lon="6.397333">
        <ele>1006.7</ele>
        <time>2026-07-14T08:07:48.000Z</time>
      </trkpt>
      <trkpt lat="46.576644" lon="6.397896">
        <ele>1016.5</ele>
        <time>2026-07-14T08:07:54.000Z</time>
      </trkpt>
      <trkpt lat="46.577060" lon="6.398715">
        <ele>1025.9</ele>
        <time>2026-07-14T08:08:00.000Z</time>
      </trkpt>
      <trkpt lat="46.577538" lon="6.399621">
        <ele>1035.0</ele>
        <time>2026-07-14T08:08:06.000Z</time>
      </trkpt>
      <trkpt lat="46.578059" lon="6.400588">
        <ele>1042.2</ele>
        <time>2026-07-14T08:08:12.000Z</time>
      </trkpt>
      <trkpt lat="46.578306" lon="6.401172">
        <ele>1052.6</ele>
        <time>2026-07-14T08:08:18.000Z</time>
      </trkpt>
      <trkpt lat="46.578740" lon="6.402016">
        <ele>1061.0</ele>
        <time>2026-07-14T08:08:24.000Z</time>
      </trkpt>
      <trkpt lat="46.578517" lon="6.402914">
        <ele>1054.4</ele>
        <time>2026-07-14T08:08:30.000Z</time>
      </trkpt>
      <trkpt lat="46.578171" lon="6.403639">
        <ele>1051.1</ele>
        <time>2026-07-14T08:08:36.000Z</time>
      </trkpt>
      <trkpt lat="46.577683" lon="6.404167">
        <ele>1046.8</ele>
        <time>2026-07-14T08:08:42.000Z</time>
      </trkpt>
      <trkpt lat="46.577348" lon="6.404908">
        <ele>1040.7</ele>
        <time>2026-07-14T08:08:48.000Z</time>
      </trkpt>
      <trkpt lat="46.577029" lon="6.405670">
        <ele>1037.4</ele>
        <time>2026-07-14T08:08:54.000Z</time>
      </trkpt>
      <trkpt lat="46.576962" lon="6.406787">
        <ele>1031.7</ele>
        <time>2026-07-14T08:09:00.000Z</time>
      </trkpt>
      <trkpt lat="46.576381" lon="6.407184">
        <ele>1025.9</ele>
        <time>2026-07-14T08:09:06.000Z</time>
      </trkpt>
      <trkpt lat="46.576130" lon="6.408042">
        <ele>1023.3</ele>
        <time>2026-07-14T08:09:12.000Z</time>
      </trkpt>
      <trkpt lat="46.575738" lon="6.408703">
        <ele>1016.2</ele>
        <time>2026-07-14T08:09:18.000Z</time>
      </trkpt>
      <trkpt lat="46.575492" lon="6.409569">
        <ele>1013.0</ele>
        <time>2026-07-14T08:09:24.000Z</time>
      </trkpt>
      <trkpt lat="46.575116" lon="6.410253">
        <ele>1007.7</ele>
        <time>2026-07-14T08:09:30.000Z</time>
      </trkpt>
      <trkpt lat="46.574753" lon="6.410954">
        <ele>1003.9</ele>
        <time>2026-07-14T08:09:36.000Z</time>
      </trkpt>
      <trkpt lat="46.574542" lon="6.411869">
        <ele>998.5</ele>
        <time>2026-07-14T08:09:42.000Z</time>
      </trkpt>
      <trkpt lat="46.574197" lon="6.412595">
        <ele>994.6</ele>
        <time>2026-07-14T08:09:48.000Z</time>
      </trkpt>
      <trkpt lat="46.573519" lon="6.412285">
        <ele>984.1</ele>
        <time>2026-07-14T08:09:54.000Z</time>
      </trkpt>
      <trkpt lat="46.572906" lon="6.412065">
        <ele>976.2</ele>
        <time>2026-07-14T08:10:00.000Z</time>
      </trkpt>
      <trkpt lat="46.572287" lon="6.411837">
        <ele>966.5</ele>
        <time>2026-07-14T08:10:06.000Z</time>
      </trkpt>
      <trkpt lat="46.571608" lon="6.411526">
        <ele>957.7</ele>
        <time>2026-07-14T08:10:12.000Z</time>
      </trkpt>
      <trkpt lat="46.570875" lon="6.411138">
        <ele>949.4</ele>
        <time>2026-07-14T08:10:18.000Z</time>
      </trkpt>
      <trkpt lat="46.570283" lon="6.410947">
        <ele>940.4</ele>
        <time>2026-07-14T08:10:24.000Z</time>
      </trkpt>
      <trkpt lat="46.569535" lon="6.410539">
        <ele>931.4</ele>
        <time>2026-07-14T08:10:30.000Z</time>
      </trkpt>
      <trkpt lat="46.569053" lon="6.410503">
        <ele>924.1</ele>
        <time>2026-07-14T08:10:36.000Z</time>
      </trkpt>
      <trkpt lat="46.568412" lon="6.410243">
        <ele>915.1</ele>
        <time>2026-07-14T08:10:42.000Z</time>
      </trkpt>
      <trkpt lat="46.567598" lon="6.409743">
        <ele>906.4</ele>
        <time>2026-07-14T08:10:48.000Z</time>
      </trkpt>
      <trkpt lat="46.566966" lon="6.409497">
        <ele>896.8</ele>
        <time>2026-07-14T08:10:54.000Z</time>
      </trkpt>
      <trkpt lat="46.566376" lon="6.409309">
        <ele>889.4</ele>
        <time>2026-07-14T08:11:00.000Z</time>
      </trkpt>
      <trkpt lat="46.565700" lon="6.409002">
        <ele>879.0</ele>
        <time>2026-07-14T08:11:06.000Z</time>
      </trkpt>
      <trkpt lat="46.565226" lon="6.408976">
        <ele>870.4</ele>
        <time>2026-07-14T08:11:12.000Z</time>
      </trkpt>
      <trkpt lat="46.564502" lon="6.407774">
        <ele>865.5</ele>
        <time>2026-07-14T08:11:18.000Z</time>
      </trkpt>
      <trkpt lat="46.563862" lon="6.406690">
        <ele>857.5</ele>
        <time>2026-07-14T08:11:24.000Z</time>
      </trkpt>
      <trkpt lat="46.563304" lon="6.405720">
        <ele>851.6</ele>
        <time>2026-07-14T08:11:30.000Z</time>
      </trkpt>
      <trkpt lat="46.562870" lon="6.404923">
        <ele>843.8</ele>
        <time>2026-07-14T08:11:36.000Z</time>
      </trkpt>
      <trkpt lat="46.562407" lon="6.404087">
        <ele>835.9</ele>
        <time>2026-07-14T08:11:42.000Z</time>
      </trkpt>
      <trkpt lat="46.561589" lon="6.402753">
        <ele>829.6</ele>
        <time>2026-07-14T08:11:48.000Z</time>
      </trkpt>
      <trkpt lat="46.561033" lon="6.401786">
        <ele>823.8</ele>
        <time>2026-07-14T08:11:54.000Z</time>
      </trkpt>
      <trkpt lat="46.560536" lon="6.400902">
        <ele>815.6</ele>
        <time>2026-07-14T08:12:00.000Z</time>
      </trkpt>
      <trkpt lat="46.560059" lon="6.400046">
        <ele>809.9</ele>
        <time>2026-07-14T08:12:06.000Z</time>
      </trkpt>
      <trkpt lat="46.559540" lon="6.399131">
        <ele>803.4</ele>
        <time>2026-07-14T08:12:12.000Z</time>
      </trkpt>
      <trkpt lat="46.558889" lon="6.398030">
        <ele>795.8</ele>
        <time>2026-07-14T08:12:18.000Z</time>
      </trkpt>
      <trkpt lat="46.558248" lon="6.396944">
        <ele>789.5</ele>
        <time>2026-07-14T08:12:24.000Z</time>
      </trkpt>
      <trkpt lat="46.557889" lon="6.396253">
        <ele>782.6</ele>
        <time>2026-07-14T08:12:30.000Z</time>
      </trkpt>
      <trkpt lat="46.557257" lon="6.395180">
        <ele>775.5</ele>
        <time>2026-07-14T08:12:36.000Z</time>
      </trkpt>
      <trkpt lat="46.556658" lon="6.393805">
        <ele>768.3</ele>
        <time>2026-07-14T08:12:42.000Z</time>
      </trkpt>
      <trkpt lat="46.556232" lon="6.392674">
        <ele>763.7</ele>
        <time>2026-07-14T08:12:48.000Z</time>
      </trkpt>
      <trkpt lat="46.555825" lon="6.391568">
        <ele>758.3</ele>
        <time>2026-07-14T08:12:54.000Z</time>
      </trkpt>
      <trkpt lat="46.555500" lon="6.390577">
        <ele>752.3</ele>
        <time>2026-07-14T08:13:00.000Z</time>
      </trkpt>
      <trkpt lat="46.555157" lon="6.389561">
        <ele>748.6</ele>
        <time>2026-07-14T08:13:06.000Z</time>
      </trkpt>
      <trkpt lat="46.554714" lon="6.388406">
        <ele>742.7</ele>
        <time>2026-07-14T08:13:12.000Z</time>
      </trkpt>
      <trkpt lat="46.554286" lon="6.387271">
        <ele>737.2</ele>
        <time>2026-07-14T08:13:18.000Z</time>
      </trkpt>
      <trkpt lat="46.553720" lon="6.385942">
        <ele>731.8</ele>
        <time>2026-07-14T08:13:24.000Z</time>
      </trkpt>
      <trkpt lat="46.553394" lon="6.384951">
        <ele>725.7</ele>
        <time>2026-07-14T08:13:30.000Z</time>
      </trkpt>
      <trkpt lat="46.553027" lon="6.383901">
        <ele>721.4</ele>
        <time>2026-07-14T08:13:36.000Z</time>
      </trkpt>
      <trkpt lat="46.552568" lon="6.382722">
        <ele>715.1</ele>
        <time>2026-07-14T08:13:42.000Z</time>
      </trkpt>
      <trkpt lat="46.552008" lon="6.381403">
        <ele>708.8</ele>
        <time>2026-07-14T08:13:48.000Z</time>
      </trkpt>
      <trkpt lat="46.551514" lon="6.380175">
        <ele>703.3</ele>
        <time>2026-07-14T08:13:54.000Z</time>
      </trkpt>
      <trkpt lat="46.551270" lon="6.379298">
        <ele>697.3</ele>
        <time>2026-07-14T08:14:00.000Z</time>
      </trkpt>
      <trkpt lat="46.550756" lon="6.377012">
        <ele>692.1</ele>
        <time>2026-07-14T08:14:06.000Z</time>
      </trkpt>
      <trkpt lat="46.550551" lon="6.375160">
        <ele>687.8</ele>
        <time>2026-07-14T08:14:12.000Z</time>
      </trkpt>
      <trkpt lat="46.550123" lon="6.372995">
        <ele>680.2</ele>
        <time>2026-07-14T08:14:18.000Z</time>
      </trkpt>
      <trkpt lat="46.549681" lon="6.370810">
        <ele>674.8</ele>
        <time>2026-07-14T08:14:24.000Z</time>
      </trkpt>
      <trkpt lat="46.549247" lon="6.368637">
        <ele>668.6</ele>
        <time>2026-07-14T08:14:30.000Z</time>
      </trkpt>
      <trkpt lat="46.548909" lon="6.366598">
        <ele>664.2</ele>
        <time>2026-07-14T08:14:36.000Z</time>
      </trkpt>
      <trkpt lat="46.548695" lon="6.364733">
        <ele>656.8</ele>
        <time>2026-07-14T08:14:42.000Z</time>
      </trkpt>
      <trkpt lat="46.548262" lon="6.362561">
        <ele>651.9</ele>
        <time>2026-07-14T08:14:48.000Z</time>
      </trkpt>
      <trkpt lat="46.547990" lon="6.360615">
        <ele>645.2</ele>
        <time>2026-07-14T08:14:54.000Z</time>
      </trkpt>
      <trkpt lat="46.547572" lon="6.358464">
        <ele>640.9</ele>
        <time>2026-07-14T08:15:00.000Z</time>
      </trkpt>
      <trkpt lat="46.547045" lon="6.356159">
        <ele>633.9</ele>
        <time>2026-07-14T08:15:06.000Z</time>
      </trkpt>
      <trkpt lat="46.546610" lon="6.353986">
        <ele>628.5</ele>
        <time>2026-07-14T08:15:12.000Z</time>
      </trkpt>
      <trkpt lat="46.546359" lon="6.352069">
        <ele>622.6</ele>
        <time>2026-07-14T08:15:18.000Z</time>
      </trkpt>
      <trkpt lat="46.546000" lon="6.350000">
        <ele>616.5</ele>
        <time>2026-07-14T08:15:24.000Z</time>
      </trkpt>
    </trkseg>
  </trk>
</gpx>
