<?xml version="1.0" encoding="UTF-8"?>
<gpx version="1.1" creator="banc" xmlns="http://www.topografix.com/GPX/1/1" xmlns:gpxtpx="http://www.garmin.com/xmlschemas/TrackPointExtension/v1">
<trk><name>avec-puissance</name><trkseg>
<trkpt lat="46.500000" lon="7.100000"><ele>500.0</ele><time>2026-06-01T06:00:00Z</time><extensions><power>205</power><gpxtpx:TrackPointExtension><gpxtpx:hr>161</gpxtpx:hr></gpxtpx:TrackPointExtension></extensions></trkpt>
<trkpt lat="46.500150" lon="7.100226"><ele>502.4</ele><time>2026-06-01T06:00:05Z</time><extensions><power>201</power><gpxtpx:TrackPointExtension><gpxtpx:hr>160</gpxtpx:hr></gpxtpx:TrackPointExtension></extensions></trkpt>
<trkpt lat="46.500301" lon="7.100451"><ele>504.7</ele><time>2026-06-01T06:00:10Z</time><extensions><power>198</power><gpxtpx:TrackPointExtension><gpxtpx:hr>159</gpxtpx:hr></gpxtpx:TrackPointExtension></extensions></trkpt>
<trkpt lat="46.500451" lon="7.100677"><ele>507.1</ele><time>2026-06-01T06:00:15Z</time><extensions><power>195</power><gpxtpx:TrackPointExtension><gpxtpx:hr>158</gpxtpx:hr></gpxtpx:TrackPointExtension></extensions></trkpt>
<trkpt lat="46.500602" lon="7.100902"><ele>509.4</ele><time>2026-06-01T06:00:20Z</time><extensions><power>193</power><gpxtpx:TrackPointExtension><gpxtpx:hr>158</gpxtpx:hr></gpxtpx:TrackPointExtension></extensions></trkpt>
<trkpt lat="46.500752" lon="7.101128"><ele>511.8</ele><time>2026-06-01T06:00:25Z</time><extensions><power>192</power><gpxtpx:TrackPointExtension><gpxtpx:hr>158</gpxtpx:hr></gpxtpx:TrackPointExtension></extensions></trkpt>
<trkpt lat="46.500902" lon="7.101353"><ele>514.2</ele><time>2026-06-01T06:00:30Z</time><extensions><power>191</power><gpxtpx:TrackPointExtension><gpxtpx:hr>157</gpxtpx:hr></gpxtpx:TrackPointExtension></extensions></trkpt>
<trkpt lat="46.501053" lon="7.101579"><ele>516.5</ele><time>2026-06-01T06:00:35Z</time><extensions><power>190</power><gpxtpx:TrackPointExtension><gpxtpx:hr>157</gpxtpx:hr></gpxtpx:TrackPointExtension></extensions></trkpt>
<trkpt lat="46.501203" lon="7.101805"><ele>518.9</ele><time>2026-06-01T06:00:40Z</time><extensions><power>190</power><gpxtpx:TrackPointExtension><gpxtpx:hr>157</gpxtpx:hr></gpxtpx:TrackPointExtension></extensions></trkpt>
<trkpt lat="46.501353" lon="7.102030"><ele>521.2</ele><time>2026-06-01T06:00:45Z</time><extensions><power>190</power><gpxtpx:TrackPointExtension><gpxtpx:hr>157</gpxtpx:hr></gpxtpx:TrackPointExtension></extensions></trkpt>
<trkpt lat="46.501504" lon="7.102256"><ele>523.6</ele><time>2026-06-01T06:00:50Z</time><extensions><power>190</power><gpxtpx:TrackPointExtension><gpxtpx:hr>157</gpxtpx:hr></gpxtpx:TrackPointExtension></extensions></trkpt>
<trkpt lat="46.501654" lon="7.102481"><ele>526.0</ele><time>2026-06-01T06:00:55Z</time><extensions><power>190</power><gpxtpx:TrackPointExtension><gpxtpx:hr>157</gpxtpx:hr></gpxtpx:TrackPointExtension></extensions></trkpt>
<trkpt lat="46.501805" lon="7.102707"><ele>528.3</ele><time>2026-06-01T06:01:00Z</time><extensions><power>190</power><gpxtpx:TrackPointExtension><gpxtpx:hr>157</gpxtpx:hr></gpxtpx:TrackPointExtension></extensions></trkpt>
<trkpt lat="46.501955" lon="7.102932"><ele>530.7</ele><time>2026-06-01T06:01:05Z</time><extensions><power>190</power><gpxtpx:TrackPointExtension><gpxtpx:hr>157</gpxtpx:hr></gpxtpx:TrackPointExtension></extensions></trkpt>
<trkpt lat="46.502105" lon="7.103158"><ele>533.0</ele><time>2026-06-01T06:01:10Z</time><extensions><power>190</power><gpxtpx:TrackPointExtension><gpxtpx:hr>157</gpxtpx:hr></gpxtpx:TrackPointExtension></extensions></trkpt>
<trkpt lat="46.502256" lon="7.103383"><ele>535.3</ele><time>2026-06-01T06:01:15Z</time><extensions><power>190</power><gpxtpx:TrackPointExtension><gpxtpx:hr>157</gpxtpx:hr></gpxtpx:TrackPointExtension></extensions></trkpt>
<trkpt lat="46.502406" lon="7.103609"><ele>537.7</ele><time>2026-06-01T06:01:20Z</time><extensions><power>190</power><gpxtpx:TrackPointExtension><gpxtpx:hr>157</gpxtpx:hr></gpxtpx:TrackPointExtension></extensions></trkpt>
<trkpt lat="46.502556" lon="7.103835"><ele>540.0</ele><time>2026-06-01T06:01:25Z</time><extensions><power>190</power><gpxtpx:TrackPointExtension><gpxtpx:hr>157</gpxtpx:hr></gpxtpx:TrackPointExtension></extensions></trkpt>
<trkpt lat="46.502707" lon="7.104060"><ele>542.4</ele><time>2026-06-01T06:01:30Z</time><extensions><power>190</power><gpxtpx:TrackPointExtension><gpxtpx:hr>157</gpxtpx:hr></gpxtpx:TrackPointExtension></extensions></trkpt>
<trkpt lat="46.502857" lon="7.104286"><ele>544.7</ele><time>2026-06-01T06:01:35Z</time><extensions><power>190</power><gpxtpx:TrackPointExtension><gpxtpx:hr>157</gpxtpx:hr></gpxtpx:TrackPointExtension></extensions></trkpt>
<trkpt lat="46.503008" lon="7.104511"><ele>547.0</ele><time>2026-06-01T06:01:40Z</time><extensions><power>190</power><gpxtpx:TrackPointExtension><gpxtpx:hr>157</gpxtpx:hr></gpxtpx:TrackPointExtension></extensions></trkpt>
<trkpt lat="46.503158" lon="7.104737"><ele>549.4</ele><time>2026-06-01T06:01:45Z</time><extensions><power>190</power><gpxtpx:TrackPointExtension><gpxtpx:hr>157</gpxtpx:hr></gpxtpx:TrackPointExtension></extensions></trkpt>
<trkpt lat="46.503308" lon="7.104962"><ele>551.7</ele><time>2026-06-01T06:01:50Z</time><extensions><power>190</power><gpxtpx:TrackPointExtension><gpxtpx:hr>157</gpxtpx:hr></gpxtpx:TrackPointExtension></extensions></trkpt>
<trkpt lat="46.503459" lon="7.105188"><ele>554.0</ele><time>2026-06-01T06:01:55Z</time><extensions><power>190</power><gpxtpx:TrackPointExtension><gpxtpx:hr>157</gpxtpx:hr></gpxtpx:TrackPointExtension></extensions></trkpt>
<trkpt lat="46.503609" lon="7.105414"><ele>556.4</ele><time>2026-06-01T06:02:00Z</time><extensions><power>190</power><gpxtpx:TrackPointExtension><gpxtpx:hr>157</gpxtpx:hr></gpxtpx:TrackPointExtension></extensions></trkpt>
<trkpt lat="46.503759" lon="7.105639"><ele>558.7</ele><time>2026-06-01T06:02:05Z</time><extensions><power>190</power><gpxtpx:TrackPointExtension><gpxtpx:hr>157</gpxtpx:hr></gpxtpx:TrackPointExtension></extensions></trkpt>
<trkpt lat="46.503910" lon="7.105865"><ele>561.0</ele><time>2026-06-01T06:02:10Z</time><extensions><power>190</power><gpxtpx:TrackPointExtension><gpxtpx:hr>157</gpxtpx:hr></gpxtpx:TrackPointExtension></extensions></trkpt>
<trkpt lat="46.504060" lon="7.106090"><ele>563.3</ele><time>2026-06-01T06:02:15Z</time><extensions><power>190</power><gpxtpx:TrackPointExtension><gpxtpx:hr>157</gpxtpx:hr></gpxtpx:TrackPointExtension></extensions></trkpt>
<trkpt lat="46.504211" lon="7.106316"><ele>565.6</ele><time>2026-06-01T06:02:20Z</time><extensions><power>190</power><gpxtpx:TrackPointExtension><gpxtpx:hr>157</gpxtpx:hr></gpxtpx:TrackPointExtension></extensions></trkpt>
<trkpt lat="46.504361" lon="7.106541"><ele>567.9</ele><time>2026-06-01T06:02:25Z</time><extensions><power>190</power><gpxtpx:TrackPointExtension><gpxtpx:hr>157</gpxtpx:hr></gpxtpx:TrackPointExtension></extensions></trkpt>
<trkpt lat="46.504511" lon="7.106767"><ele>570.2</ele><time>2026-06-01T06:02:30Z</time><extensions><power>190</power><gpxtpx:TrackPointExtension><gpxtpx:hr>157</gpxtpx:hr></gpxtpx:TrackPointExtension></extensions></trkpt>
<trkpt lat="46.504662" lon="7.106992"><ele>572.5</ele><time>2026-06-01T06:02:35Z</time><extensions><power>190</power><gpxtpx:TrackPointExtension><gpxtpx:hr>157</gpxtpx:hr></gpxtpx:TrackPointExtension></extensions></trkpt>
<trkpt lat="46.504812" lon="7.107218"><ele>574.8</ele><time>2026-06-01T06:02:40Z</time><extensions><power>190</power><gpxtpx:TrackPointExtension><gpxtpx:hr>157</gpxtpx:hr></gpxtpx:TrackPointExtension></extensions></trkpt>
<trkpt lat="46.504962" lon="7.107444"><ele>577.1</ele><time>2026-06-01T06:02:45Z</time><extensions><power>190</power><gpxtpx:TrackPointExtension><gpxtpx:hr>157</gpxtpx:hr></gpxtpx:TrackPointExtension></extensions></trkpt>
<trkpt lat="46.505113" lon="7.107669"><ele>579.4</ele><time>2026-06-01T06:02:50Z</time><extensions><power>190</power><gpxtpx:TrackPointExtension><gpxtpx:hr>157</gpxtpx:hr></gpxtpx:TrackPointExtension></extensions></trkpt>
<trkpt lat="46.505263" lon="7.107895"><ele>581.6</ele><time>2026-06-01T06:02:55Z</time><extensions><power>190</power><gpxtpx:TrackPointExtension><gpxtpx:hr>157</gpxtpx:hr></gpxtpx:TrackPointExtension></extensions></trkpt>
<trkpt lat="46.505414" lon="7.108120"><ele>583.9</ele><time>2026-06-01T06:03:00Z</time><extensions><power>190</power><gpxtpx:TrackPointExtension><gpxtpx:hr>157</gpxtpx:hr></gpxtpx:TrackPointExtension></extensions></trkpt>
<trkpt lat="46.505564" lon="7.108346"><ele>586.2</ele><time>2026-06-01T06:03:05Z</time><extensions><power>190</power><gpxtpx:TrackPointExtension><gpxtpx:hr>157</gpxtpx:hr></gpxtpx:TrackPointExtension></extensions></trkpt>
<trkpt lat="46.505714" lon="7.108571"><ele>588.4</ele><time>2026-06-01T06:03:10Z</time><extensions><power>190</power><gpxtpx:TrackPointExtension><gpxtpx:hr>157</gpxtpx:hr></gpxtpx:TrackPointExtension></extensions></trkpt>
<trkpt lat="46.505865" lon="7.108797"><ele>590.7</ele><time>2026-06-01T06:03:15Z</time><extensions><power>190</power><gpxtpx:TrackPointExtension><gpxtpx:hr>157</gpxtpx:hr></gpxtpx:TrackPointExtension></extensions></trkpt>
<trkpt lat="46.506015" lon="7.109023"><ele>592.9</ele><time>2026-06-01T06:03:20Z</time><extensions><power>190</power><gpxtpx:TrackPointExtension><gpxtpx:hr>157</gpxtpx:hr></gpxtpx:TrackPointExtension></extensions></trkpt>
<trkpt lat="46.506165" lon="7.109248"><ele>595.2</ele><time>2026-06-01T06:03:25Z</time><extensions><power>190</power><gpxtpx:TrackPointExtension><gpxtpx:hr>157</gpxtpx:hr></gpxtpx:TrackPointExtension></extensions></trkpt>
<trkpt lat="46.506316" lon="7.109474"><ele>597.4</ele><time>2026-06-01T06:03:30Z</time><extensions><power>190</power><gpxtpx:TrackPointExtension><gpxtpx:hr>157</gpxtpx:hr></gpxtpx:TrackPointExtension></extensions></trkpt>
<trkpt lat="46.506466" lon="7.109699"><ele>599.6</ele><time>2026-06-01T06:03:35Z</time><extensions><power>190</power><gpxtpx:TrackPointExtension><gpxtpx:hr>157</gpxtpx:hr></gpxtpx:TrackPointExtension></extensions></trkpt>
<trkpt lat="46.506617" lon="7.109925"><ele>601.9</ele><time>2026-06-01T06:03:40Z</time><extensions><power>190</power><gpxtpx:TrackPointExtension><gpxtpx:hr>157</gpxtpx:hr></gpxtpx:TrackPointExtension></extensions></trkpt>
<trkpt lat="46.506767" lon="7.110150"><ele>604.1</ele><time>2026-06-01T06:03:45Z</time><extensions><power>190</power><gpxtpx:TrackPointExtension><gpxtpx:hr>157</gpxtpx:hr></gpxtpx:TrackPointExtension></extensions></trkpt>
<trkpt lat="46.506917" lon="7.110376"><ele>606.3</ele><time>2026-06-01T06:03:50Z</time><extensions><power>190</power><gpxtpx:TrackPointExtension><gpxtpx:hr>157</gpxtpx:hr></gpxtpx:TrackPointExtension></extensions></trkpt>
<trkpt lat="46.507068" lon="7.110602"><ele>608.5</ele><time>2026-06-01T06:03:55Z</time><extensions><power>190</power><gpxtpx:TrackPointExtension><gpxtpx:hr>157</gpxtpx:hr></gpxtpx:TrackPointExtension></extensions></trkpt>
<trkpt lat="46.507218" lon="7.110827"><ele>610.7</ele><time>2026-06-01T06:04:00Z</time><extensions><power>190</power><gpxtpx:TrackPointExtension><gpxtpx:hr>157</gpxtpx:hr></gpxtpx:TrackPointExtension></extensions></trkpt>
<trkpt lat="46.507368" lon="7.111053"><ele>612.9</ele><time>2026-06-01T06:04:05Z</time><extensions><power>190</power><gpxtpx:TrackPointExtension><gpxtpx:hr>157</gpxtpx:hr></gpxtpx:TrackPointExtension></extensions></trkpt>
<trkpt lat="46.507519" lon="7.111278"><ele>615.1</ele><time>2026-06-01T06:04:10Z</time><extensions><power>190</power><gpxtpx:TrackPointExtension><gpxtpx:hr>157</gpxtpx:hr></gpxtpx:TrackPointExtension></extensions></trkpt>
<trkpt lat="46.507669" lon="7.111504"><ele>617.3</ele><time>2026-06-01T06:04:15Z</time><extensions><power>190</power><gpxtpx:TrackPointExtension><gpxtpx:hr>157</gpxtpx:hr></gpxtpx:TrackPointExtension></extensions></trkpt>
<trkpt lat="46.507820" lon="7.111729"><ele>619.4</ele><time>2026-06-01T06:04:20Z</time><extensions><power>190</power><gpxtpx:TrackPointExtension><gpxtpx:hr>157</gpxtpx:hr></gpxtpx:TrackPointExtension></extensions></trkpt>
<trkpt lat="46.507970" lon="7.111955"><ele>621.6</ele><time>2026-06-01T06:04:25Z</time><extensions><power>190</power><gpxtpx:TrackPointExtension><gpxtpx:hr>157</gpxtpx:hr></gpxtpx:TrackPointExtension></extensions></trkpt>
<trkpt lat="46.508120" lon="7.112180"><ele>623.7</ele><time>2026-06-01T06:04:30Z</time><extensions><power>190</power><gpxtpx:TrackPointExtension><gpxtpx:hr>157</gpxtpx:hr></gpxtpx:TrackPointExtension></extensions></trkpt>
<trkpt lat="46.508271" lon="7.112406"><ele>625.9</ele><time>2026-06-01T06:04:35Z</time><extensions><power>190</power><gpxtpx:TrackPointExtension><gpxtpx:hr>157</gpxtpx:hr></gpxtpx:TrackPointExtension></extensions></trkpt>
<trkpt lat="46.508421" lon="7.112632"><ele>628.0</ele><time>2026-06-01T06:04:40Z</time><extensions><power>190</power><gpxtpx:TrackPointExtension><gpxtpx:hr>157</gpxtpx:hr></gpxtpx:TrackPointExtension></extensions></trkpt>
<trkpt lat="46.508571" lon="7.112857"><ele>630.2</ele><time>2026-06-01T06:04:45Z</time><extensions><power>190</power><gpxtpx:TrackPointExtension><gpxtpx:hr>157</gpxtpx:hr></gpxtpx:TrackPointExtension></extensions></trkpt>
<trkpt lat="46.508722" lon="7.113083"><ele>632.3</ele><time>2026-06-01T06:04:50Z</time><extensions><power>190</power><gpxtpx:TrackPointExtension><gpxtpx:hr>157</gpxtpx:hr></gpxtpx:TrackPointExtension></extensions></trkpt>
<trkpt lat="46.508872" lon="7.113308"><ele>634.4</ele><time>2026-06-01T06:04:55Z</time><extensions><power>190</power><gpxtpx:TrackPointExtension><gpxtpx:hr>157</gpxtpx:hr></gpxtpx:TrackPointExtension></extensions></trkpt>
<trkpt lat="46.509023" lon="7.113534"><ele>636.5</ele><time>2026-06-01T06:05:00Z</time><extensions><power>190</power><gpxtpx:TrackPointExtension><gpxtpx:hr>157</gpxtpx:hr></gpxtpx:TrackPointExtension></extensions></trkpt>
<trkpt lat="46.509173" lon="7.113759"><ele>638.6</ele><time>2026-06-01T06:05:05Z</time><extensions><power>190</power><gpxtpx:TrackPointExtension><gpxtpx:hr>157</gpxtpx:hr></gpxtpx:TrackPointExtension></extensions></trkpt>
<trkpt lat="46.509323" lon="7.113985"><ele>640.7</ele><time>2026-06-01T06:05:10Z</time><extensions><power>190</power><gpxtpx:TrackPointExtension><gpxtpx:hr>157</gpxtpx:hr></gpxtpx:TrackPointExtension></extensions></trkpt>
<trkpt lat="46.509474" lon="7.114211"><ele>642.8</ele><time>2026-06-01T06:05:15Z</time><extensions><power>190</power><gpxtpx:TrackPointExtension><gpxtpx:hr>157</gpxtpx:hr></gpxtpx:TrackPointExtension></extensions></trkpt>
<trkpt lat="46.509624" lon="7.114436"><ele>644.9</ele><time>2026-06-01T06:05:20Z</time><extensions><power>190</power><gpxtpx:TrackPointExtension><gpxtpx:hr>157</gpxtpx:hr></gpxtpx:TrackPointExtension></extensions></trkpt>
<trkpt lat="46.509774" lon="7.114662"><ele>646.9</ele><time>2026-06-01T06:05:25Z</time><extensions><power>190</power><gpxtpx:TrackPointExtension><gpxtpx:hr>157</gpxtpx:hr></gpxtpx:TrackPointExtension></extensions></trkpt>
<trkpt lat="46.509925" lon="7.114887"><ele>649.0</ele><time>2026-06-01T06:05:30Z</time><extensions><power>190</power><gpxtpx:TrackPointExtension><gpxtpx:hr>157</gpxtpx:hr></gpxtpx:TrackPointExtension></extensions></trkpt>
<trkpt lat="46.510075" lon="7.115113"><ele>651.0</ele><time>2026-06-01T06:05:35Z</time><extensions><power>190</power><gpxtpx:TrackPointExtension><gpxtpx:hr>157</gpxtpx:hr></gpxtpx:TrackPointExtension></extensions></trkpt>
<trkpt lat="46.510226" lon="7.115338"><ele>653.1</ele><time>2026-06-01T06:05:40Z</time><extensions><power>190</power><gpxtpx:TrackPointExtension><gpxtpx:hr>157</gpxtpx:hr></gpxtpx:TrackPointExtension></extensions></trkpt>
<trkpt lat="46.510376" lon="7.115564"><ele>655.1</ele><time>2026-06-01T06:05:45Z</time><extensions><power>190</power><gpxtpx:TrackPointExtension><gpxtpx:hr>157</gpxtpx:hr></gpxtpx:TrackPointExtension></extensions></trkpt>
<trkpt lat="46.510526" lon="7.115789"><ele>657.1</ele><time>2026-06-01T06:05:50Z</time><extensions><power>190</power><gpxtpx:TrackPointExtension><gpxtpx:hr>157</gpxtpx:hr></gpxtpx:TrackPointExtension></extensions></trkpt>
<trkpt lat="46.510677" lon="7.116015"><ele>659.1</ele><time>2026-06-01T06:05:55Z</time><extensions><power>190</power><gpxtpx:TrackPointExtension><gpxtpx:hr>157</gpxtpx:hr></gpxtpx:TrackPointExtension></extensions></trkpt>
<trkpt lat="46.510827" lon="7.116241"><ele>661.1</ele><time>2026-06-01T06:06:00Z</time><extensions><power>190</power><gpxtpx:TrackPointExtension><gpxtpx:hr>157</gpxtpx:hr></gpxtpx:TrackPointExtension></extensions></trkpt>
<trkpt lat="46.510977" lon="7.116466"><ele>663.1</ele><time>2026-06-01T06:06:05Z</time><extensions><power>190</power><gpxtpx:TrackPointExtension><gpxtpx:hr>157</gpxtpx:hr></gpxtpx:TrackPointExtension></extensions></trkpt>
<trkpt lat="46.511128" lon="7.116692"><ele>665.1</ele><time>2026-06-01T06:06:10Z</time><extensions><power>190</power><gpxtpx:TrackPointExtension><gpxtpx:hr>157</gpxtpx:hr></gpxtpx:TrackPointExtension></extensions></trkpt>
<trkpt lat="46.511278" lon="7.116917"><ele>667.0</ele><time>2026-06-01T06:06:15Z</time><extensions><power>190</power><gpxtpx:TrackPointExtension><gpxtpx:hr>157</gpxtpx:hr></gpxtpx:TrackPointExtension></extensions></trkpt>
<trkpt lat="46.511429" lon="7.117143"><ele>669.0</ele><time>2026-06-01T06:06:20Z</time><extensions><power>190</power><gpxtpx:TrackPointExtension><gpxtpx:hr>157</gpxtpx:hr></gpxtpx:TrackPointExtension></extensions></trkpt>
<trkpt lat="46.511579" lon="7.117368"><ele>670.9</ele><time>2026-06-01T06:06:25Z</time><extensions><power>190</power><gpxtpx:TrackPointExtension><gpxtpx:hr>157</gpxtpx:hr></gpxtpx:TrackPointExtension></extensions></trkpt>
<trkpt lat="46.511729" lon="7.117594"><ele>672.9</ele><time>2026-06-01T06:06:30Z</time><extensions><power>190</power><gpxtpx:TrackPointExtension><gpxtpx:hr>157</gpxtpx:hr></gpxtpx:TrackPointExtension></extensions></trkpt>
<trkpt lat="46.511880" lon="7.117820"><ele>674.8</ele><time>2026-06-01T06:06:35Z</time><extensions><power>190</power><gpxtpx:TrackPointExtension><gpxtpx:hr>157</gpxtpx:hr></gpxtpx:TrackPointExtension></extensions></trkpt>
<trkpt lat="46.512030" lon="7.118045"><ele>676.7</ele><time>2026-06-01T06:06:40Z</time><extensions><power>190</power><gpxtpx:TrackPointExtension><gpxtpx:hr>157</gpxtpx:hr></gpxtpx:TrackPointExtension></extensions></trkpt>
<trkpt lat="46.512180" lon="7.118271"><ele>678.6</ele><time>2026-06-01T06:06:45Z</time><extensions><power>190</power><gpxtpx:TrackPointExtension><gpxtpx:hr>157</gpxtpx:hr></gpxtpx:TrackPointExtension></extensions></trkpt>
<trkpt lat="46.512331" lon="7.118496"><ele>680.5</ele><time>2026-06-01T06:06:50Z</time><extensions><power>190</power><gpxtpx:TrackPointExtension><gpxtpx:hr>157</gpxtpx:hr></gpxtpx:TrackPointExtension></extensions></trkpt>
<trkpt lat="46.512481" lon="7.118722"><ele>682.4</ele><time>2026-06-01T06:06:55Z</time><extensions><power>190</power><gpxtpx:TrackPointExtension><gpxtpx:hr>157</gpxtpx:hr></gpxtpx:TrackPointExtension></extensions></trkpt>
<trkpt lat="46.512632" lon="7.118947"><ele>684.3</ele><time>2026-06-01T06:07:00Z</time><extensions><power>190</power><gpxtpx:TrackPointExtension><gpxtpx:hr>157</gpxtpx:hr></gpxtpx:TrackPointExtension></extensions></trkpt>
<trkpt lat="46.512782" lon="7.119173"><ele>686.1</ele><time>2026-06-01T06:07:05Z</time><extensions><power>190</power><gpxtpx:TrackPointExtension><gpxtpx:hr>157</gpxtpx:hr></gpxtpx:TrackPointExtension></extensions></trkpt>
<trkpt lat="46.512932" lon="7.119398"><ele>688.0</ele><time>2026-06-01T06:07:10Z</time><extensions><power>190</power><gpxtpx:TrackPointExtension><gpxtpx:hr>157</gpxtpx:hr></gpxtpx:TrackPointExtension></extensions></trkpt>
<trkpt lat="46.513083" lon="7.119624"><ele>689.8</ele><time>2026-06-01T06:07:15Z</time><extensions><power>191</power><gpxtpx:TrackPointExtension><gpxtpx:hr>157</gpxtpx:hr></gpxtpx:TrackPointExtension></extensions></trkpt>
<trkpt lat="46.513233" lon="7.119850"><ele>691.6</ele><time>2026-06-01T06:07:20Z</time><extensions><power>192</power><gpxtpx:TrackPointExtension><gpxtpx:hr>158</gpxtpx:hr></gpxtpx:TrackPointExtension></extensions></trkpt>
<trkpt lat="46.513383" lon="7.120075"><ele>693.4</ele><time>2026-06-01T06:07:25Z</time><extensions><power>193</power><gpxtpx:TrackPointExtension><gpxtpx:hr>158</gpxtpx:hr></gpxtpx:TrackPointExtension></extensions></trkpt>
<trkpt lat="46.513534" lon="7.120301"><ele>695.2</ele><time>2026-06-01T06:07:30Z</time><extensions><power>195</power><gpxtpx:TrackPointExtension><gpxtpx:hr>158</gpxtpx:hr></gpxtpx:TrackPointExtension></extensions></trkpt>
<trkpt lat="46.513684" lon="7.120526"><ele>697.0</ele><time>2026-06-01T06:07:35Z</time><extensions><power>197</power><gpxtpx:TrackPointExtension><gpxtpx:hr>159</gpxtpx:hr></gpxtpx:TrackPointExtension></extensions></trkpt>
<trkpt lat="46.513835" lon="7.120752"><ele>698.8</ele><time>2026-06-01T06:07:40Z</time><extensions><power>200</power><gpxtpx:TrackPointExtension><gpxtpx:hr>160</gpxtpx:hr></gpxtpx:TrackPointExtension></extensions></trkpt>
<trkpt lat="46.513985" lon="7.120977"><ele>700.6</ele><time>2026-06-01T06:07:45Z</time><extensions><power>204</power><gpxtpx:TrackPointExtension><gpxtpx:hr>161</gpxtpx:hr></gpxtpx:TrackPointExtension></extensions></trkpt>
<trkpt lat="46.514135" lon="7.121203"><ele>702.3</ele><time>2026-06-01T06:07:50Z</time><extensions><power>208</power><gpxtpx:TrackPointExtension><gpxtpx:hr>162</gpxtpx:hr></gpxtpx:TrackPointExtension></extensions></trkpt>
<trkpt lat="46.514286" lon="7.121429"><ele>704.1</ele><time>2026-06-01T06:07:55Z</time><extensions><power>213</power><gpxtpx:TrackPointExtension><gpxtpx:hr>163</gpxtpx:hr></gpxtpx:TrackPointExtension></extensions></trkpt>
<trkpt lat="46.514436" lon="7.121654"><ele>705.8</ele><time>2026-06-01T06:08:00Z</time><extensions><power>218</power><gpxtpx:TrackPointExtension><gpxtpx:hr>164</gpxtpx:hr></gpxtpx:TrackPointExtension></extensions></trkpt>
<trkpt lat="46.514586" lon="7.121880"><ele>707.5</ele><time>2026-06-01T06:08:05Z</time><extensions><power>224</power><gpxtpx:TrackPointExtension><gpxtpx:hr>166</gpxtpx:hr></gpxtpx:TrackPointExtension></extensions></trkpt>
<trkpt lat="46.514737" lon="7.122105"><ele>709.2</ele><time>2026-06-01T06:08:10Z</time><extensions><power>231</power><gpxtpx:TrackPointExtension><gpxtpx:hr>167</gpxtpx:hr></gpxtpx:TrackPointExtension></extensions></trkpt>
<trkpt lat="46.514887" lon="7.122331"><ele>710.9</ele><time>2026-06-01T06:08:15Z</time><extensions><power>239</power><gpxtpx:TrackPointExtension><gpxtpx:hr>169</gpxtpx:hr></gpxtpx:TrackPointExtension></extensions></trkpt>
<trkpt lat="46.515038" lon="7.122556"><ele>712.5</ele><time>2026-06-01T06:08:20Z</time><extensions><power>247</power><gpxtpx:TrackPointExtension><gpxtpx:hr>171</gpxtpx:hr></gpxtpx:TrackPointExtension></extensions></trkpt>
<trkpt lat="46.515188" lon="7.122782"><ele>714.2</ele><time>2026-06-01T06:08:25Z</time><extensions><power>255</power><gpxtpx:TrackPointExtension><gpxtpx:hr>173</gpxtpx:hr></gpxtpx:TrackPointExtension></extensions></trkpt>
<trkpt lat="46.515338" lon="7.123008"><ele>715.9</ele><time>2026-06-01T06:08:30Z</time><extensions><power>264</power><gpxtpx:TrackPointExtension><gpxtpx:hr>176</gpxtpx:hr></gpxtpx:TrackPointExtension></extensions></trkpt>
<trkpt lat="46.515489" lon="7.123233"><ele>717.5</ele><time>2026-06-01T06:08:35Z</time><extensions><power>274</power><gpxtpx:TrackPointExtension><gpxtpx:hr>178</gpxtpx:hr></gpxtpx:TrackPointExtension></extensions></trkpt>
<trkpt lat="46.515639" lon="7.123459"><ele>719.1</ele><time>2026-06-01T06:08:40Z</time><extensions><power>283</power><gpxtpx:TrackPointExtension><gpxtpx:hr>180</gpxtpx:hr></gpxtpx:TrackPointExtension></extensions></trkpt>
<trkpt lat="46.515789" lon="7.123684"><ele>720.7</ele><time>2026-06-01T06:08:45Z</time><extensions><power>293</power><gpxtpx:TrackPointExtension><gpxtpx:hr>183</gpxtpx:hr></gpxtpx:TrackPointExtension></extensions></trkpt>
<trkpt lat="46.515940" lon="7.123910"><ele>722.3</ele><time>2026-06-01T06:08:50Z</time><extensions><power>302</power><gpxtpx:TrackPointExtension><gpxtpx:hr>185</gpxtpx:hr></gpxtpx:TrackPointExtension></extensions></trkpt>
<trkpt lat="46.516090" lon="7.124135"><ele>723.9</ele><time>2026-06-01T06:08:55Z</time><extensions><power>311</power><gpxtpx:TrackPointExtension><gpxtpx:hr>187</gpxtpx:hr></gpxtpx:TrackPointExtension></extensions></trkpt>
<trkpt lat="46.516241" lon="7.124361"><ele>725.5</ele><time>2026-06-01T06:09:00Z</time><extensions><power>320</power><gpxtpx:TrackPointExtension><gpxtpx:hr>190</gpxtpx:hr></gpxtpx:TrackPointExtension></extensions></trkpt>
<trkpt lat="46.516391" lon="7.124586"><ele>727.0</ele><time>2026-06-01T06:09:05Z</time><extensions><power>328</power><gpxtpx:TrackPointExtension><gpxtpx:hr>192</gpxtpx:hr></gpxtpx:TrackPointExtension></extensions></trkpt>
<trkpt lat="46.516541" lon="7.124812"><ele>728.5</ele><time>2026-06-01T06:09:10Z</time><extensions><power>336</power><gpxtpx:TrackPointExtension><gpxtpx:hr>194</gpxtpx:hr></gpxtpx:TrackPointExtension></extensions></trkpt>
<trkpt lat="46.516692" lon="7.125038"><ele>730.1</ele><time>2026-06-01T06:09:15Z</time><extensions><power>343</power><gpxtpx:TrackPointExtension><gpxtpx:hr>195</gpxtpx:hr></gpxtpx:TrackPointExtension></extensions></trkpt>
<trkpt lat="46.516842" lon="7.125263"><ele>731.6</ele><time>2026-06-01T06:09:20Z</time><extensions><power>349</power><gpxtpx:TrackPointExtension><gpxtpx:hr>197</gpxtpx:hr></gpxtpx:TrackPointExtension></extensions></trkpt>
<trkpt lat="46.516992" lon="7.125489"><ele>733.1</ele><time>2026-06-01T06:09:25Z</time><extensions><power>354</power><gpxtpx:TrackPointExtension><gpxtpx:hr>198</gpxtpx:hr></gpxtpx:TrackPointExtension></extensions></trkpt>
<trkpt lat="46.517143" lon="7.125714"><ele>734.5</ele><time>2026-06-01T06:09:30Z</time><extensions><power>358</power><gpxtpx:TrackPointExtension><gpxtpx:hr>199</gpxtpx:hr></gpxtpx:TrackPointExtension></extensions></trkpt>
<trkpt lat="46.517293" lon="7.125940"><ele>736.0</ele><time>2026-06-01T06:09:35Z</time><extensions><power>361</power><gpxtpx:TrackPointExtension><gpxtpx:hr>200</gpxtpx:hr></gpxtpx:TrackPointExtension></extensions></trkpt>
<trkpt lat="46.517444" lon="7.126165"><ele>737.5</ele><time>2026-06-01T06:09:40Z</time><extensions><power>363</power><gpxtpx:TrackPointExtension><gpxtpx:hr>200</gpxtpx:hr></gpxtpx:TrackPointExtension></extensions></trkpt>
<trkpt lat="46.517594" lon="7.126391"><ele>738.9</ele><time>2026-06-01T06:09:45Z</time><extensions><power>364</power><gpxtpx:TrackPointExtension><gpxtpx:hr>201</gpxtpx:hr></gpxtpx:TrackPointExtension></extensions></trkpt>
<trkpt lat="46.517744" lon="7.126617"><ele>740.3</ele><time>2026-06-01T06:09:50Z</time><extensions><power>364</power><gpxtpx:TrackPointExtension><gpxtpx:hr>201</gpxtpx:hr></gpxtpx:TrackPointExtension></extensions></trkpt>
<trkpt lat="46.517895" lon="7.126842"><ele>741.7</ele><time>2026-06-01T06:09:55Z</time><extensions><power>363</power><gpxtpx:TrackPointExtension><gpxtpx:hr>200</gpxtpx:hr></gpxtpx:TrackPointExtension></extensions></trkpt>
<trkpt lat="46.518045" lon="7.127068"><ele>743.1</ele><time>2026-06-01T06:10:00Z</time><extensions><power>361</power><gpxtpx:TrackPointExtension><gpxtpx:hr>200</gpxtpx:hr></gpxtpx:TrackPointExtension></extensions></trkpt>
<trkpt lat="46.518195" lon="7.127293"><ele>744.5</ele><time>2026-06-01T06:10:05Z</time><extensions><power>358</power><gpxtpx:TrackPointExtension><gpxtpx:hr>199</gpxtpx:hr></gpxtpx:TrackPointExtension></extensions></trkpt>
<trkpt lat="46.518346" lon="7.127519"><ele>745.9</ele><time>2026-06-01T06:10:10Z</time><extensions><power>354</power><gpxtpx:TrackPointExtension><gpxtpx:hr>198</gpxtpx:hr></gpxtpx:TrackPointExtension></extensions></trkpt>
<trkpt lat="46.518496" lon="7.127744"><ele>747.2</ele><time>2026-06-01T06:10:15Z</time><extensions><power>349</power><gpxtpx:TrackPointExtension><gpxtpx:hr>197</gpxtpx:hr></gpxtpx:TrackPointExtension></extensions></trkpt>
<trkpt lat="46.518647" lon="7.127970"><ele>748.5</ele><time>2026-06-01T06:10:20Z</time><extensions><power>344</power><gpxtpx:TrackPointExtension><gpxtpx:hr>196</gpxtpx:hr></gpxtpx:TrackPointExtension></extensions></trkpt>
<trkpt lat="46.518797" lon="7.128195"><ele>749.9</ele><time>2026-06-01T06:10:25Z</time><extensions><power>339</power><gpxtpx:TrackPointExtension><gpxtpx:hr>194</gpxtpx:hr></gpxtpx:TrackPointExtension></extensions></trkpt>
<trkpt lat="46.518947" lon="7.128421"><ele>751.1</ele><time>2026-06-01T06:10:30Z</time><extensions><power>333</power><gpxtpx:TrackPointExtension><gpxtpx:hr>193</gpxtpx:hr></gpxtpx:TrackPointExtension></extensions></trkpt>
<trkpt lat="46.519098" lon="7.128647"><ele>752.4</ele><time>2026-06-01T06:10:35Z</time><extensions><power>326</power><gpxtpx:TrackPointExtension><gpxtpx:hr>191</gpxtpx:hr></gpxtpx:TrackPointExtension></extensions></trkpt>
<trkpt lat="46.519248" lon="7.128872"><ele>753.7</ele><time>2026-06-01T06:10:40Z</time><extensions><power>320</power><gpxtpx:TrackPointExtension><gpxtpx:hr>190</gpxtpx:hr></gpxtpx:TrackPointExtension></extensions></trkpt>
<trkpt lat="46.519398" lon="7.129098"><ele>755.0</ele><time>2026-06-01T06:10:45Z</time><extensions><power>313</power><gpxtpx:TrackPointExtension><gpxtpx:hr>188</gpxtpx:hr></gpxtpx:TrackPointExtension></extensions></trkpt>
<trkpt lat="46.519549" lon="7.129323"><ele>756.2</ele><time>2026-06-01T06:10:50Z</time><extensions><power>306</power><gpxtpx:TrackPointExtension><gpxtpx:hr>186</gpxtpx:hr></gpxtpx:TrackPointExtension></extensions></trkpt>
<trkpt lat="46.519699" lon="7.129549"><ele>757.4</ele><time>2026-06-01T06:10:55Z</time><extensions><power>299</power><gpxtpx:TrackPointExtension><gpxtpx:hr>184</gpxtpx:hr></gpxtpx:TrackPointExtension></extensions></trkpt>
<trkpt lat="46.519850" lon="7.129774"><ele>758.6</ele><time>2026-06-01T06:11:00Z</time><extensions><power>293</power><gpxtpx:TrackPointExtension><gpxtpx:hr>183</gpxtpx:hr></gpxtpx:TrackPointExtension></extensions></trkpt>
<trkpt lat="46.520000" lon="7.130000"><ele>759.8</ele><time>2026-06-01T06:11:05Z</time><extensions><power>286</power><gpxtpx:TrackPointExtension><gpxtpx:hr>181</gpxtpx:hr></gpxtpx:TrackPointExtension></extensions></trkpt>
<trkpt lat="46.520150" lon="7.130226"><ele>761.0</ele><time>2026-06-01T06:11:10Z</time><extensions><power>280</power><gpxtpx:TrackPointExtension><gpxtpx:hr>180</gpxtpx:hr></gpxtpx:TrackPointExtension></extensions></trkpt>
<trkpt lat="46.520301" lon="7.130451"><ele>762.1</ele><time>2026-06-01T06:11:15Z</time><extensions><power>274</power><gpxtpx:TrackPointExtension><gpxtpx:hr>178</gpxtpx:hr></gpxtpx:TrackPointExtension></extensions></trkpt>
<trkpt lat="46.520451" lon="7.130677"><ele>763.3</ele><time>2026-06-01T06:11:20Z</time><extensions><power>268</power><gpxtpx:TrackPointExtension><gpxtpx:hr>177</gpxtpx:hr></gpxtpx:TrackPointExtension></extensions></trkpt>
<trkpt lat="46.520602" lon="7.130902"><ele>764.4</ele><time>2026-06-01T06:11:25Z</time><extensions><power>262</power><gpxtpx:TrackPointExtension><gpxtpx:hr>175</gpxtpx:hr></gpxtpx:TrackPointExtension></extensions></trkpt>
<trkpt lat="46.520752" lon="7.131128"><ele>765.5</ele><time>2026-06-01T06:11:30Z</time><extensions><power>256</power><gpxtpx:TrackPointExtension><gpxtpx:hr>174</gpxtpx:hr></gpxtpx:TrackPointExtension></extensions></trkpt>
<trkpt lat="46.520902" lon="7.131353"><ele>766.6</ele><time>2026-06-01T06:11:35Z</time><extensions><power>251</power><gpxtpx:TrackPointExtension><gpxtpx:hr>172</gpxtpx:hr></gpxtpx:TrackPointExtension></extensions></trkpt>
<trkpt lat="46.521053" lon="7.131579"><ele>767.7</ele><time>2026-06-01T06:11:40Z</time><extensions><power>246</power><gpxtpx:TrackPointExtension><gpxtpx:hr>171</gpxtpx:hr></gpxtpx:TrackPointExtension></extensions></trkpt>
<trkpt lat="46.521203" lon="7.131805"><ele>768.7</ele><time>2026-06-01T06:11:45Z</time><extensions><power>240</power><gpxtpx:TrackPointExtension><gpxtpx:hr>170</gpxtpx:hr></gpxtpx:TrackPointExtension></extensions></trkpt>
<trkpt lat="46.521353" lon="7.132030"><ele>769.8</ele><time>2026-06-01T06:11:50Z</time><extensions><power>236</power><gpxtpx:TrackPointExtension><gpxtpx:hr>169</gpxtpx:hr></gpxtpx:TrackPointExtension></extensions></trkpt>
<trkpt lat="46.521504" lon="7.132256"><ele>770.8</ele><time>2026-06-01T06:11:55Z</time><extensions><power>231</power><gpxtpx:TrackPointExtension><gpxtpx:hr>167</gpxtpx:hr></gpxtpx:TrackPointExtension></extensions></trkpt>
<trkpt lat="46.521654" lon="7.132481"><ele>771.8</ele><time>2026-06-01T06:12:00Z</time><extensions><power>226</power><gpxtpx:TrackPointExtension><gpxtpx:hr>166</gpxtpx:hr></gpxtpx:TrackPointExtension></extensions></trkpt>
<trkpt lat="46.521805" lon="7.132707"><ele>772.8</ele><time>2026-06-01T06:12:05Z</time><extensions><power>222</power><gpxtpx:TrackPointExtension><gpxtpx:hr>165</gpxtpx:hr></gpxtpx:TrackPointExtension></extensions></trkpt>
<trkpt lat="46.521955" lon="7.132932"><ele>773.8</ele><time>2026-06-01T06:12:10Z</time><extensions><power>218</power><gpxtpx:TrackPointExtension><gpxtpx:hr>164</gpxtpx:hr></gpxtpx:TrackPointExtension></extensions></trkpt>
<trkpt lat="46.522105" lon="7.133158"><ele>774.7</ele><time>2026-06-01T06:12:15Z</time><extensions><power>214</power><gpxtpx:TrackPointExtension><gpxtpx:hr>163</gpxtpx:hr></gpxtpx:TrackPointExtension></extensions></trkpt>
<trkpt lat="46.522256" lon="7.133383"><ele>775.7</ele><time>2026-06-01T06:12:20Z</time><extensions><power>211</power><gpxtpx:TrackPointExtension><gpxtpx:hr>162</gpxtpx:hr></gpxtpx:TrackPointExtension></extensions></trkpt>
<trkpt lat="46.522406" lon="7.133609"><ele>776.6</ele><time>2026-06-01T06:12:25Z</time><extensions><power>207</power><gpxtpx:TrackPointExtension><gpxtpx:hr>161</gpxtpx:hr></gpxtpx:TrackPointExtension></extensions></trkpt>
<trkpt lat="46.522556" lon="7.133835"><ele>777.5</ele><time>2026-06-01T06:12:30Z</time><extensions><power>204</power><gpxtpx:TrackPointExtension><gpxtpx:hr>161</gpxtpx:hr></gpxtpx:TrackPointExtension></extensions></trkpt>
<trkpt lat="46.522707" lon="7.134060"><ele>778.4</ele><time>2026-06-01T06:12:35Z</time><extensions><power>202</power><gpxtpx:TrackPointExtension><gpxtpx:hr>160</gpxtpx:hr></gpxtpx:TrackPointExtension></extensions></trkpt>
<trkpt lat="46.522857" lon="7.134286"><ele>779.3</ele><time>2026-06-01T06:12:40Z</time><extensions><power>199</power><gpxtpx:TrackPointExtension><gpxtpx:hr>159</gpxtpx:hr></gpxtpx:TrackPointExtension></extensions></trkpt>
<trkpt lat="46.523008" lon="7.134511"><ele>780.1</ele><time>2026-06-01T06:12:45Z</time><extensions><power>197</power><gpxtpx:TrackPointExtension><gpxtpx:hr>159</gpxtpx:hr></gpxtpx:TrackPointExtension></extensions></trkpt>
<trkpt lat="46.523158" lon="7.134737"><ele>781.0</ele><time>2026-06-01T06:12:50Z</time><extensions><power>196</power><gpxtpx:TrackPointExtension><gpxtpx:hr>159</gpxtpx:hr></gpxtpx:TrackPointExtension></extensions></trkpt>
<trkpt lat="46.523308" lon="7.134962"><ele>781.8</ele><time>2026-06-01T06:12:55Z</time><extensions><power>194</power><gpxtpx:TrackPointExtension><gpxtpx:hr>158</gpxtpx:hr></gpxtpx:TrackPointExtension></extensions></trkpt>
<trkpt lat="46.523459" lon="7.135188"><ele>782.6</ele><time>2026-06-01T06:13:00Z</time><extensions><power>193</power><gpxtpx:TrackPointExtension><gpxtpx:hr>158</gpxtpx:hr></gpxtpx:TrackPointExtension></extensions></trkpt>
<trkpt lat="46.523609" lon="7.135414"><ele>783.4</ele><time>2026-06-01T06:13:05Z</time><extensions><power>192</power><gpxtpx:TrackPointExtension><gpxtpx:hr>158</gpxtpx:hr></gpxtpx:TrackPointExtension></extensions></trkpt>
<trkpt lat="46.523759" lon="7.135639"><ele>784.1</ele><time>2026-06-01T06:13:10Z</time><extensions><power>191</power><gpxtpx:TrackPointExtension><gpxtpx:hr>157</gpxtpx:hr></gpxtpx:TrackPointExtension></extensions></trkpt>
<trkpt lat="46.523910" lon="7.135865"><ele>784.9</ele><time>2026-06-01T06:13:15Z</time><extensions><power>191</power><gpxtpx:TrackPointExtension><gpxtpx:hr>157</gpxtpx:hr></gpxtpx:TrackPointExtension></extensions></trkpt>
<trkpt lat="46.524060" lon="7.136090"><ele>785.6</ele><time>2026-06-01T06:13:20Z</time><extensions><power>190</power><gpxtpx:TrackPointExtension><gpxtpx:hr>157</gpxtpx:hr></gpxtpx:TrackPointExtension></extensions></trkpt>
<trkpt lat="46.524211" lon="7.136316"><ele>786.3</ele><time>2026-06-01T06:13:25Z</time><extensions><power>190</power><gpxtpx:TrackPointExtension><gpxtpx:hr>157</gpxtpx:hr></gpxtpx:TrackPointExtension></extensions></trkpt>
<trkpt lat="46.524361" lon="7.136541"><ele>787.0</ele><time>2026-06-01T06:13:30Z</time><extensions><power>190</power><gpxtpx:TrackPointExtension><gpxtpx:hr>157</gpxtpx:hr></gpxtpx:TrackPointExtension></extensions></trkpt>
<trkpt lat="46.524511" lon="7.136767"><ele>787.7</ele><time>2026-06-01T06:13:35Z</time><extensions><power>190</power><gpxtpx:TrackPointExtension><gpxtpx:hr>157</gpxtpx:hr></gpxtpx:TrackPointExtension></extensions></trkpt>
<trkpt lat="46.524662" lon="7.136992"><ele>788.4</ele><time>2026-06-01T06:13:40Z</time><extensions><power>190</power><gpxtpx:TrackPointExtension><gpxtpx:hr>157</gpxtpx:hr></gpxtpx:TrackPointExtension></extensions></trkpt>
<trkpt lat="46.524812" lon="7.137218"><ele>789.0</ele><time>2026-06-01T06:13:45Z</time><extensions><power>190</power><gpxtpx:TrackPointExtension><gpxtpx:hr>157</gpxtpx:hr></gpxtpx:TrackPointExtension></extensions></trkpt>
<trkpt lat="46.524962" lon="7.137444"><ele>789.6</ele><time>2026-06-01T06:13:50Z</time><extensions><power>190</power><gpxtpx:TrackPointExtension><gpxtpx:hr>157</gpxtpx:hr></gpxtpx:TrackPointExtension></extensions></trkpt>
<trkpt lat="46.525113" lon="7.137669"><ele>790.2</ele><time>2026-06-01T06:13:55Z</time><extensions><power>190</power><gpxtpx:TrackPointExtension><gpxtpx:hr>157</gpxtpx:hr></gpxtpx:TrackPointExtension></extensions></trkpt>
<trkpt lat="46.525263" lon="7.137895"><ele>790.8</ele><time>2026-06-01T06:14:00Z</time><extensions><power>190</power><gpxtpx:TrackPointExtension><gpxtpx:hr>157</gpxtpx:hr></gpxtpx:TrackPointExtension></extensions></trkpt>
<trkpt lat="46.525414" lon="7.138120"><ele>791.4</ele><time>2026-06-01T06:14:05Z</time><extensions><power>190</power><gpxtpx:TrackPointExtension><gpxtpx:hr>157</gpxtpx:hr></gpxtpx:TrackPointExtension></extensions></trkpt>
<trkpt lat="46.525564" lon="7.138346"><ele>791.9</ele><time>2026-06-01T06:14:10Z</time><extensions><power>190</power><gpxtpx:TrackPointExtension><gpxtpx:hr>157</gpxtpx:hr></gpxtpx:TrackPointExtension></extensions></trkpt>
<trkpt lat="46.525714" lon="7.138571"><ele>792.5</ele><time>2026-06-01T06:14:15Z</time><extensions><power>190</power><gpxtpx:TrackPointExtension><gpxtpx:hr>157</gpxtpx:hr></gpxtpx:TrackPointExtension></extensions></trkpt>
<trkpt lat="46.525865" lon="7.138797"><ele>793.0</ele><time>2026-06-01T06:14:20Z</time><extensions><power>190</power><gpxtpx:TrackPointExtension><gpxtpx:hr>157</gpxtpx:hr></gpxtpx:TrackPointExtension></extensions></trkpt>
<trkpt lat="46.526015" lon="7.139023"><ele>793.5</ele><time>2026-06-01T06:14:25Z</time><extensions><power>190</power><gpxtpx:TrackPointExtension><gpxtpx:hr>157</gpxtpx:hr></gpxtpx:TrackPointExtension></extensions></trkpt>
<trkpt lat="46.526165" lon="7.139248"><ele>794.0</ele><time>2026-06-01T06:14:30Z</time><extensions><power>190</power><gpxtpx:TrackPointExtension><gpxtpx:hr>157</gpxtpx:hr></gpxtpx:TrackPointExtension></extensions></trkpt>
<trkpt lat="46.526316" lon="7.139474"><ele>794.4</ele><time>2026-06-01T06:14:35Z</time><extensions><power>190</power><gpxtpx:TrackPointExtension><gpxtpx:hr>157</gpxtpx:hr></gpxtpx:TrackPointExtension></extensions></trkpt>
<trkpt lat="46.526466" lon="7.139699"><ele>794.9</ele><time>2026-06-01T06:14:40Z</time><extensions><power>190</power><gpxtpx:TrackPointExtension><gpxtpx:hr>157</gpxtpx:hr></gpxtpx:TrackPointExtension></extensions></trkpt>
<trkpt lat="46.526617" lon="7.139925"><ele>795.3</ele><time>2026-06-01T06:14:45Z</time><extensions><power>190</power><gpxtpx:TrackPointExtension><gpxtpx:hr>157</gpxtpx:hr></gpxtpx:TrackPointExtension></extensions></trkpt>
<trkpt lat="46.526767" lon="7.140150"><ele>795.7</ele><time>2026-06-01T06:14:50Z</time><extensions><power>190</power><gpxtpx:TrackPointExtension><gpxtpx:hr>157</gpxtpx:hr></gpxtpx:TrackPointExtension></extensions></trkpt>
<trkpt lat="46.526917" lon="7.140376"><ele>796.1</ele><time>2026-06-01T06:14:55Z</time><extensions><power>190</power><gpxtpx:TrackPointExtension><gpxtpx:hr>157</gpxtpx:hr></gpxtpx:TrackPointExtension></extensions></trkpt>
<trkpt lat="46.527068" lon="7.140602"><ele>796.5</ele><time>2026-06-01T06:15:00Z</time><extensions><power>190</power><gpxtpx:TrackPointExtension><gpxtpx:hr>157</gpxtpx:hr></gpxtpx:TrackPointExtension></extensions></trkpt>
<trkpt lat="46.527218" lon="7.140827"><ele>796.8</ele><time>2026-06-01T06:15:05Z</time><extensions><power>190</power><gpxtpx:TrackPointExtension><gpxtpx:hr>157</gpxtpx:hr></gpxtpx:TrackPointExtension></extensions></trkpt>
<trkpt lat="46.527368" lon="7.141053"><ele>797.2</ele><time>2026-06-01T06:15:10Z</time><extensions><power>190</power><gpxtpx:TrackPointExtension><gpxtpx:hr>157</gpxtpx:hr></gpxtpx:TrackPointExtension></extensions></trkpt>
<trkpt lat="46.527519" lon="7.141278"><ele>797.5</ele><time>2026-06-01T06:15:15Z</time><extensions><power>190</power><gpxtpx:TrackPointExtension><gpxtpx:hr>157</gpxtpx:hr></gpxtpx:TrackPointExtension></extensions></trkpt>
<trkpt lat="46.527669" lon="7.141504"><ele>797.8</ele><time>2026-06-01T06:15:20Z</time><extensions><power>190</power><gpxtpx:TrackPointExtension><gpxtpx:hr>157</gpxtpx:hr></gpxtpx:TrackPointExtension></extensions></trkpt>
<trkpt lat="46.527820" lon="7.141729"><ele>798.0</ele><time>2026-06-01T06:15:25Z</time><extensions><power>190</power><gpxtpx:TrackPointExtension><gpxtpx:hr>157</gpxtpx:hr></gpxtpx:TrackPointExtension></extensions></trkpt>
<trkpt lat="46.527970" lon="7.141955"><ele>798.3</ele><time>2026-06-01T06:15:30Z</time><extensions><power>190</power><gpxtpx:TrackPointExtension><gpxtpx:hr>157</gpxtpx:hr></gpxtpx:TrackPointExtension></extensions></trkpt>
<trkpt lat="46.528120" lon="7.142180"><ele>798.5</ele><time>2026-06-01T06:15:35Z</time><extensions><power>190</power><gpxtpx:TrackPointExtension><gpxtpx:hr>157</gpxtpx:hr></gpxtpx:TrackPointExtension></extensions></trkpt>
<trkpt lat="46.528271" lon="7.142406"><ele>798.8</ele><time>2026-06-01T06:15:40Z</time><extensions><power>190</power><gpxtpx:TrackPointExtension><gpxtpx:hr>157</gpxtpx:hr></gpxtpx:TrackPointExtension></extensions></trkpt>
<trkpt lat="46.528421" lon="7.142632"><ele>799.0</ele><time>2026-06-01T06:15:45Z</time><extensions><power>190</power><gpxtpx:TrackPointExtension><gpxtpx:hr>157</gpxtpx:hr></gpxtpx:TrackPointExtension></extensions></trkpt>
<trkpt lat="46.528571" lon="7.142857"><ele>799.2</ele><time>2026-06-01T06:15:50Z</time><extensions><power>190</power><gpxtpx:TrackPointExtension><gpxtpx:hr>157</gpxtpx:hr></gpxtpx:TrackPointExtension></extensions></trkpt>
<trkpt lat="46.528722" lon="7.143083"><ele>799.3</ele><time>2026-06-01T06:15:55Z</time><extensions><power>190</power><gpxtpx:TrackPointExtension><gpxtpx:hr>157</gpxtpx:hr></gpxtpx:TrackPointExtension></extensions></trkpt>
<trkpt lat="46.528872" lon="7.143308"><ele>799.5</ele><time>2026-06-01T06:16:00Z</time><extensions><power>190</power><gpxtpx:TrackPointExtension><gpxtpx:hr>157</gpxtpx:hr></gpxtpx:TrackPointExtension></extensions></trkpt>
<trkpt lat="46.529023" lon="7.143534"><ele>799.6</ele><time>2026-06-01T06:16:05Z</time><extensions><power>190</power><gpxtpx:TrackPointExtension><gpxtpx:hr>157</gpxtpx:hr></gpxtpx:TrackPointExtension></extensions></trkpt>
<trkpt lat="46.529173" lon="7.143759"><ele>799.7</ele><time>2026-06-01T06:16:10Z</time><extensions><power>190</power><gpxtpx:TrackPointExtension><gpxtpx:hr>157</gpxtpx:hr></gpxtpx:TrackPointExtension></extensions></trkpt>
<trkpt lat="46.529323" lon="7.143985"><ele>799.8</ele><time>2026-06-01T06:16:15Z</time><extensions><power>190</power><gpxtpx:TrackPointExtension><gpxtpx:hr>157</gpxtpx:hr></gpxtpx:TrackPointExtension></extensions></trkpt>
<trkpt lat="46.529474" lon="7.144211"><ele>799.9</ele><time>2026-06-01T06:16:20Z</time><extensions><power>190</power><gpxtpx:TrackPointExtension><gpxtpx:hr>157</gpxtpx:hr></gpxtpx:TrackPointExtension></extensions></trkpt>
<trkpt lat="46.529624" lon="7.144436"><ele>799.9</ele><time>2026-06-01T06:16:25Z</time><extensions><power>190</power><gpxtpx:TrackPointExtension><gpxtpx:hr>157</gpxtpx:hr></gpxtpx:TrackPointExtension></extensions></trkpt>
<trkpt lat="46.529774" lon="7.144662"><ele>800.0</ele><time>2026-06-01T06:16:30Z</time><extensions><power>190</power><gpxtpx:TrackPointExtension><gpxtpx:hr>157</gpxtpx:hr></gpxtpx:TrackPointExtension></extensions></trkpt>
<trkpt lat="46.529925" lon="7.144887"><ele>800.0</ele><time>2026-06-01T06:16:35Z</time><extensions><power>190</power><gpxtpx:TrackPointExtension><gpxtpx:hr>157</gpxtpx:hr></gpxtpx:TrackPointExtension></extensions></trkpt>
<trkpt lat="46.530075" lon="7.145113"><ele>800.0</ele><time>2026-06-01T06:16:40Z</time><extensions><power>190</power><gpxtpx:TrackPointExtension><gpxtpx:hr>157</gpxtpx:hr></gpxtpx:TrackPointExtension></extensions></trkpt>
<trkpt lat="46.530226" lon="7.145338"><ele>800.0</ele><time>2026-06-01T06:16:45Z</time><extensions><power>190</power><gpxtpx:TrackPointExtension><gpxtpx:hr>157</gpxtpx:hr></gpxtpx:TrackPointExtension></extensions></trkpt>
<trkpt lat="46.530376" lon="7.145564"><ele>799.9</ele><time>2026-06-01T06:16:50Z</time><extensions><power>190</power><gpxtpx:TrackPointExtension><gpxtpx:hr>157</gpxtpx:hr></gpxtpx:TrackPointExtension></extensions></trkpt>
<trkpt lat="46.530526" lon="7.145789"><ele>799.9</ele><time>2026-06-01T06:16:55Z</time><extensions><power>190</power><gpxtpx:TrackPointExtension><gpxtpx:hr>157</gpxtpx:hr></gpxtpx:TrackPointExtension></extensions></trkpt>
<trkpt lat="46.530677" lon="7.146015"><ele>799.8</ele><time>2026-06-01T06:17:00Z</time><extensions><power>190</power><gpxtpx:TrackPointExtension><gpxtpx:hr>157</gpxtpx:hr></gpxtpx:TrackPointExtension></extensions></trkpt>
<trkpt lat="46.530827" lon="7.146241"><ele>799.7</ele><time>2026-06-01T06:17:05Z</time><extensions><power>190</power><gpxtpx:TrackPointExtension><gpxtpx:hr>157</gpxtpx:hr></gpxtpx:TrackPointExtension></extensions></trkpt>
<trkpt lat="46.530977" lon="7.146466"><ele>799.6</ele><time>2026-06-01T06:17:10Z</time><extensions><power>190</power><gpxtpx:TrackPointExtension><gpxtpx:hr>157</gpxtpx:hr></gpxtpx:TrackPointExtension></extensions></trkpt>
<trkpt lat="46.531128" lon="7.146692"><ele>799.5</ele><time>2026-06-01T06:17:15Z</time><extensions><power>190</power><gpxtpx:TrackPointExtension><gpxtpx:hr>157</gpxtpx:hr></gpxtpx:TrackPointExtension></extensions></trkpt>
<trkpt lat="46.531278" lon="7.146917"><ele>799.3</ele><time>2026-06-01T06:17:20Z</time><extensions><power>190</power><gpxtpx:TrackPointExtension><gpxtpx:hr>157</gpxtpx:hr></gpxtpx:TrackPointExtension></extensions></trkpt>
<trkpt lat="46.531429" lon="7.147143"><ele>799.2</ele><time>2026-06-01T06:17:25Z</time><extensions><power>190</power><gpxtpx:TrackPointExtension><gpxtpx:hr>157</gpxtpx:hr></gpxtpx:TrackPointExtension></extensions></trkpt>
<trkpt lat="46.531579" lon="7.147368"><ele>799.0</ele><time>2026-06-01T06:17:30Z</time><extensions><power>190</power><gpxtpx:TrackPointExtension><gpxtpx:hr>157</gpxtpx:hr></gpxtpx:TrackPointExtension></extensions></trkpt>
<trkpt lat="46.531729" lon="7.147594"><ele>798.8</ele><time>2026-06-01T06:17:35Z</time><extensions><power>190</power><gpxtpx:TrackPointExtension><gpxtpx:hr>157</gpxtpx:hr></gpxtpx:TrackPointExtension></extensions></trkpt>
<trkpt lat="46.531880" lon="7.147820"><ele>798.5</ele><time>2026-06-01T06:17:40Z</time><extensions><power>190</power><gpxtpx:TrackPointExtension><gpxtpx:hr>157</gpxtpx:hr></gpxtpx:TrackPointExtension></extensions></trkpt>
<trkpt lat="46.532030" lon="7.148045"><ele>798.3</ele><time>2026-06-01T06:17:45Z</time><extensions><power>190</power><gpxtpx:TrackPointExtension><gpxtpx:hr>157</gpxtpx:hr></gpxtpx:TrackPointExtension></extensions></trkpt>
<trkpt lat="46.532180" lon="7.148271"><ele>798.0</ele><time>2026-06-01T06:17:50Z</time><extensions><power>190</power><gpxtpx:TrackPointExtension><gpxtpx:hr>157</gpxtpx:hr></gpxtpx:TrackPointExtension></extensions></trkpt>
<trkpt lat="46.532331" lon="7.148496"><ele>797.8</ele><time>2026-06-01T06:17:55Z</time><extensions><power>190</power><gpxtpx:TrackPointExtension><gpxtpx:hr>157</gpxtpx:hr></gpxtpx:TrackPointExtension></extensions></trkpt>
<trkpt lat="46.532481" lon="7.148722"><ele>797.5</ele><time>2026-06-01T06:18:00Z</time><extensions><power>190</power><gpxtpx:TrackPointExtension><gpxtpx:hr>157</gpxtpx:hr></gpxtpx:TrackPointExtension></extensions></trkpt>
<trkpt lat="46.532632" lon="7.148947"><ele>797.2</ele><time>2026-06-01T06:18:05Z</time><extensions><power>190</power><gpxtpx:TrackPointExtension><gpxtpx:hr>157</gpxtpx:hr></gpxtpx:TrackPointExtension></extensions></trkpt>
<trkpt lat="46.532782" lon="7.149173"><ele>796.8</ele><time>2026-06-01T06:18:10Z</time><extensions><power>190</power><gpxtpx:TrackPointExtension><gpxtpx:hr>157</gpxtpx:hr></gpxtpx:TrackPointExtension></extensions></trkpt>
<trkpt lat="46.532932" lon="7.149398"><ele>796.5</ele><time>2026-06-01T06:18:15Z</time><extensions><power>190</power><gpxtpx:TrackPointExtension><gpxtpx:hr>157</gpxtpx:hr></gpxtpx:TrackPointExtension></extensions></trkpt>
<trkpt lat="46.533083" lon="7.149624"><ele>796.1</ele><time>2026-06-01T06:18:20Z</time><extensions><power>191</power><gpxtpx:TrackPointExtension><gpxtpx:hr>157</gpxtpx:hr></gpxtpx:TrackPointExtension></extensions></trkpt>
<trkpt lat="46.533233" lon="7.149850"><ele>795.7</ele><time>2026-06-01T06:18:25Z</time><extensions><power>192</power><gpxtpx:TrackPointExtension><gpxtpx:hr>158</gpxtpx:hr></gpxtpx:TrackPointExtension></extensions></trkpt>
<trkpt lat="46.533383" lon="7.150075"><ele>795.3</ele><time>2026-06-01T06:18:30Z</time><extensions><power>193</power><gpxtpx:TrackPointExtension><gpxtpx:hr>158</gpxtpx:hr></gpxtpx:TrackPointExtension></extensions></trkpt>
<trkpt lat="46.533534" lon="7.150301"><ele>794.9</ele><time>2026-06-01T06:18:35Z</time><extensions><power>195</power><gpxtpx:TrackPointExtension><gpxtpx:hr>158</gpxtpx:hr></gpxtpx:TrackPointExtension></extensions></trkpt>
<trkpt lat="46.533684" lon="7.150526"><ele>794.4</ele><time>2026-06-01T06:18:40Z</time><extensions><power>197</power><gpxtpx:TrackPointExtension><gpxtpx:hr>159</gpxtpx:hr></gpxtpx:TrackPointExtension></extensions></trkpt>
<trkpt lat="46.533835" lon="7.150752"><ele>794.0</ele><time>2026-06-01T06:18:45Z</time><extensions><power>200</power><gpxtpx:TrackPointExtension><gpxtpx:hr>160</gpxtpx:hr></gpxtpx:TrackPointExtension></extensions></trkpt>
<trkpt lat="46.533985" lon="7.150977"><ele>793.5</ele><time>2026-06-01T06:18:50Z</time><extensions><power>203</power><gpxtpx:TrackPointExtension><gpxtpx:hr>160</gpxtpx:hr></gpxtpx:TrackPointExtension></extensions></trkpt>
<trkpt lat="46.534135" lon="7.151203"><ele>793.0</ele><time>2026-06-01T06:18:55Z</time><extensions><power>207</power><gpxtpx:TrackPointExtension><gpxtpx:hr>161</gpxtpx:hr></gpxtpx:TrackPointExtension></extensions></trkpt>
<trkpt lat="46.534286" lon="7.151429"><ele>792.5</ele><time>2026-06-01T06:19:00Z</time><extensions><power>212</power><gpxtpx:TrackPointExtension><gpxtpx:hr>163</gpxtpx:hr></gpxtpx:TrackPointExtension></extensions></trkpt>
<trkpt lat="46.534436" lon="7.151654"><ele>791.9</ele><time>2026-06-01T06:19:05Z</time><extensions><power>217</power><gpxtpx:TrackPointExtension><gpxtpx:hr>164</gpxtpx:hr></gpxtpx:TrackPointExtension></extensions></trkpt>
<trkpt lat="46.534586" lon="7.151880"><ele>791.4</ele><time>2026-06-01T06:19:10Z</time><extensions><power>223</power><gpxtpx:TrackPointExtension><gpxtpx:hr>165</gpxtpx:hr></gpxtpx:TrackPointExtension></extensions></trkpt>
<trkpt lat="46.534737" lon="7.152105"><ele>790.8</ele><time>2026-06-01T06:19:15Z</time><extensions><power>229</power><gpxtpx:TrackPointExtension><gpxtpx:hr>167</gpxtpx:hr></gpxtpx:TrackPointExtension></extensions></trkpt>
<trkpt lat="46.534887" lon="7.152331"><ele>790.2</ele><time>2026-06-01T06:19:20Z</time><extensions><power>236</power><gpxtpx:TrackPointExtension><gpxtpx:hr>169</gpxtpx:hr></gpxtpx:TrackPointExtension></extensions></trkpt>
<trkpt lat="46.535038" lon="7.152556"><ele>789.6</ele><time>2026-06-01T06:19:25Z</time><extensions><power>243</power><gpxtpx:TrackPointExtension><gpxtpx:hr>170</gpxtpx:hr></gpxtpx:TrackPointExtension></extensions></trkpt>
<trkpt lat="46.535188" lon="7.152782"><ele>789.0</ele><time>2026-06-01T06:19:30Z</time><extensions><power>250</power><gpxtpx:TrackPointExtension><gpxtpx:hr>172</gpxtpx:hr></gpxtpx:TrackPointExtension></extensions></trkpt>
<trkpt lat="46.535338" lon="7.153008"><ele>788.4</ele><time>2026-06-01T06:19:35Z</time><extensions><power>257</power><gpxtpx:TrackPointExtension><gpxtpx:hr>174</gpxtpx:hr></gpxtpx:TrackPointExtension></extensions></trkpt>
<trkpt lat="46.535489" lon="7.153233"><ele>787.7</ele><time>2026-06-01T06:19:40Z</time><extensions><power>265</power><gpxtpx:TrackPointExtension><gpxtpx:hr>176</gpxtpx:hr></gpxtpx:TrackPointExtension></extensions></trkpt>
<trkpt lat="46.535639" lon="7.153459"><ele>787.0</ele><time>2026-06-01T06:19:45Z</time><extensions><power>272</power><gpxtpx:TrackPointExtension><gpxtpx:hr>178</gpxtpx:hr></gpxtpx:TrackPointExtension></extensions></trkpt>
<trkpt lat="46.535789" lon="7.153684"><ele>786.3</ele><time>2026-06-01T06:19:50Z</time><extensions><power>279</power><gpxtpx:TrackPointExtension><gpxtpx:hr>179</gpxtpx:hr></gpxtpx:TrackPointExtension></extensions></trkpt>
<trkpt lat="46.535940" lon="7.153910"><ele>785.6</ele><time>2026-06-01T06:19:55Z</time><extensions><power>285</power><gpxtpx:TrackPointExtension><gpxtpx:hr>181</gpxtpx:hr></gpxtpx:TrackPointExtension></extensions></trkpt>
<trkpt lat="46.536090" lon="7.154135"><ele>784.9</ele><time>2026-06-01T06:20:00Z</time><extensions><power>291</power><gpxtpx:TrackPointExtension><gpxtpx:hr>182</gpxtpx:hr></gpxtpx:TrackPointExtension></extensions></trkpt>
<trkpt lat="46.536241" lon="7.154361"><ele>784.1</ele><time>2026-06-01T06:20:05Z</time><extensions><power>296</power><gpxtpx:TrackPointExtension><gpxtpx:hr>184</gpxtpx:hr></gpxtpx:TrackPointExtension></extensions></trkpt>
<trkpt lat="46.536391" lon="7.154586"><ele>783.4</ele><time>2026-06-01T06:20:10Z</time><extensions><power>301</power><gpxtpx:TrackPointExtension><gpxtpx:hr>185</gpxtpx:hr></gpxtpx:TrackPointExtension></extensions></trkpt>
<trkpt lat="46.536541" lon="7.154812"><ele>782.6</ele><time>2026-06-01T06:20:15Z</time><extensions><power>305</power><gpxtpx:TrackPointExtension><gpxtpx:hr>186</gpxtpx:hr></gpxtpx:TrackPointExtension></extensions></trkpt>
<trkpt lat="46.536692" lon="7.155038"><ele>781.8</ele><time>2026-06-01T06:20:20Z</time><extensions><power>307</power><gpxtpx:TrackPointExtension><gpxtpx:hr>186</gpxtpx:hr></gpxtpx:TrackPointExtension></extensions></trkpt>
<trkpt lat="46.536842" lon="7.155263"><ele>781.0</ele><time>2026-06-01T06:20:25Z</time><extensions><power>309</power><gpxtpx:TrackPointExtension><gpxtpx:hr>187</gpxtpx:hr></gpxtpx:TrackPointExtension></extensions></trkpt>
<trkpt lat="46.536992" lon="7.155489"><ele>780.1</ele><time>2026-06-01T06:20:30Z</time><extensions><power>309</power><gpxtpx:TrackPointExtension><gpxtpx:hr>187</gpxtpx:hr></gpxtpx:TrackPointExtension></extensions></trkpt>
<trkpt lat="46.537143" lon="7.155714"><ele>779.3</ele><time>2026-06-01T06:20:35Z</time><extensions><power>309</power><gpxtpx:TrackPointExtension><gpxtpx:hr>187</gpxtpx:hr></gpxtpx:TrackPointExtension></extensions></trkpt>
<trkpt lat="46.537293" lon="7.155940"><ele>778.4</ele><time>2026-06-01T06:20:40Z</time><extensions><power>307</power><gpxtpx:TrackPointExtension><gpxtpx:hr>186</gpxtpx:hr></gpxtpx:TrackPointExtension></extensions></trkpt>
<trkpt lat="46.537444" lon="7.156165"><ele>777.5</ele><time>2026-06-01T06:20:45Z</time><extensions><power>305</power><gpxtpx:TrackPointExtension><gpxtpx:hr>186</gpxtpx:hr></gpxtpx:TrackPointExtension></extensions></trkpt>
<trkpt lat="46.537594" lon="7.156391"><ele>776.6</ele><time>2026-06-01T06:20:50Z</time><extensions><power>301</power><gpxtpx:TrackPointExtension><gpxtpx:hr>185</gpxtpx:hr></gpxtpx:TrackPointExtension></extensions></trkpt>
<trkpt lat="46.537744" lon="7.156617"><ele>775.7</ele><time>2026-06-01T06:20:55Z</time><extensions><power>297</power><gpxtpx:TrackPointExtension><gpxtpx:hr>184</gpxtpx:hr></gpxtpx:TrackPointExtension></extensions></trkpt>
<trkpt lat="46.537895" lon="7.156842"><ele>774.7</ele><time>2026-06-01T06:21:00Z</time><extensions><power>292</power><gpxtpx:TrackPointExtension><gpxtpx:hr>183</gpxtpx:hr></gpxtpx:TrackPointExtension></extensions></trkpt>
<trkpt lat="46.538045" lon="7.157068"><ele>773.8</ele><time>2026-06-01T06:21:05Z</time><extensions><power>286</power><gpxtpx:TrackPointExtension><gpxtpx:hr>181</gpxtpx:hr></gpxtpx:TrackPointExtension></extensions></trkpt>
<trkpt lat="46.538195" lon="7.157293"><ele>772.8</ele><time>2026-06-01T06:21:10Z</time><extensions><power>280</power><gpxtpx:TrackPointExtension><gpxtpx:hr>180</gpxtpx:hr></gpxtpx:TrackPointExtension></extensions></trkpt>
<trkpt lat="46.538346" lon="7.157519"><ele>771.8</ele><time>2026-06-01T06:21:15Z</time><extensions><power>273</power><gpxtpx:TrackPointExtension><gpxtpx:hr>178</gpxtpx:hr></gpxtpx:TrackPointExtension></extensions></trkpt>
<trkpt lat="46.538496" lon="7.157744"><ele>770.8</ele><time>2026-06-01T06:21:20Z</time><extensions><power>266</power><gpxtpx:TrackPointExtension><gpxtpx:hr>176</gpxtpx:hr></gpxtpx:TrackPointExtension></extensions></trkpt>
<trkpt lat="46.538647" lon="7.157970"><ele>769.8</ele><time>2026-06-01T06:21:25Z</time><extensions><power>260</power><gpxtpx:TrackPointExtension><gpxtpx:hr>175</gpxtpx:hr></gpxtpx:TrackPointExtension></extensions></trkpt>
<trkpt lat="46.538797" lon="7.158195"><ele>768.7</ele><time>2026-06-01T06:21:30Z</time><extensions><power>253</power><gpxtpx:TrackPointExtension><gpxtpx:hr>173</gpxtpx:hr></gpxtpx:TrackPointExtension></extensions></trkpt>
<trkpt lat="46.538947" lon="7.158421"><ele>767.7</ele><time>2026-06-01T06:21:35Z</time><extensions><power>247</power><gpxtpx:TrackPointExtension><gpxtpx:hr>171</gpxtpx:hr></gpxtpx:TrackPointExtension></extensions></trkpt>
<trkpt lat="46.539098" lon="7.158647"><ele>766.6</ele><time>2026-06-01T06:21:40Z</time><extensions><power>241</power><gpxtpx:TrackPointExtension><gpxtpx:hr>170</gpxtpx:hr></gpxtpx:TrackPointExtension></extensions></trkpt>
<trkpt lat="46.539248" lon="7.158872"><ele>765.5</ele><time>2026-06-01T06:21:45Z</time><extensions><power>236</power><gpxtpx:TrackPointExtension><gpxtpx:hr>169</gpxtpx:hr></gpxtpx:TrackPointExtension></extensions></trkpt>
<trkpt lat="46.539398" lon="7.159098"><ele>764.4</ele><time>2026-06-01T06:21:50Z</time><extensions><power>231</power><gpxtpx:TrackPointExtension><gpxtpx:hr>167</gpxtpx:hr></gpxtpx:TrackPointExtension></extensions></trkpt>
<trkpt lat="46.539549" lon="7.159323"><ele>763.3</ele><time>2026-06-01T06:21:55Z</time><extensions><power>228</power><gpxtpx:TrackPointExtension><gpxtpx:hr>167</gpxtpx:hr></gpxtpx:TrackPointExtension></extensions></trkpt>
<trkpt lat="46.539699" lon="7.159549"><ele>762.1</ele><time>2026-06-01T06:22:00Z</time><extensions><power>225</power><gpxtpx:TrackPointExtension><gpxtpx:hr>166</gpxtpx:hr></gpxtpx:TrackPointExtension></extensions></trkpt>
<trkpt lat="46.539850" lon="7.159774"><ele>761.0</ele><time>2026-06-01T06:22:05Z</time><extensions><power>223</power><gpxtpx:TrackPointExtension><gpxtpx:hr>165</gpxtpx:hr></gpxtpx:TrackPointExtension></extensions></trkpt>
<trkpt lat="46.540000" lon="7.160000"><ele>759.8</ele><time>2026-06-01T06:22:10Z</time><extensions><power>222</power><gpxtpx:TrackPointExtension><gpxtpx:hr>165</gpxtpx:hr></gpxtpx:TrackPointExtension></extensions></trkpt>
<trkpt lat="46.540150" lon="7.160226"><ele>758.6</ele><time>2026-06-01T06:22:15Z</time><extensions><power>222</power><gpxtpx:TrackPointExtension><gpxtpx:hr>165</gpxtpx:hr></gpxtpx:TrackPointExtension></extensions></trkpt>
<trkpt lat="46.540301" lon="7.160451"><ele>757.4</ele><time>2026-06-01T06:22:20Z</time><extensions><power>222</power><gpxtpx:TrackPointExtension><gpxtpx:hr>165</gpxtpx:hr></gpxtpx:TrackPointExtension></extensions></trkpt>
<trkpt lat="46.540451" lon="7.160677"><ele>756.2</ele><time>2026-06-01T06:22:25Z</time><extensions><power>224</power><gpxtpx:TrackPointExtension><gpxtpx:hr>166</gpxtpx:hr></gpxtpx:TrackPointExtension></extensions></trkpt>
<trkpt lat="46.540602" lon="7.160902"><ele>755.0</ele><time>2026-06-01T06:22:30Z</time><extensions><power>226</power><gpxtpx:TrackPointExtension><gpxtpx:hr>166</gpxtpx:hr></gpxtpx:TrackPointExtension></extensions></trkpt>
<trkpt lat="46.540752" lon="7.161128"><ele>753.7</ele><time>2026-06-01T06:22:35Z</time><extensions><power>229</power><gpxtpx:TrackPointExtension><gpxtpx:hr>167</gpxtpx:hr></gpxtpx:TrackPointExtension></extensions></trkpt>
<trkpt lat="46.540902" lon="7.161353"><ele>752.4</ele><time>2026-06-01T06:22:40Z</time><extensions><power>233</power><gpxtpx:TrackPointExtension><gpxtpx:hr>168</gpxtpx:hr></gpxtpx:TrackPointExtension></extensions></trkpt>
<trkpt lat="46.541053" lon="7.161579"><ele>751.1</ele><time>2026-06-01T06:22:45Z</time><extensions><power>237</power><gpxtpx:TrackPointExtension><gpxtpx:hr>169</gpxtpx:hr></gpxtpx:TrackPointExtension></extensions></trkpt>
<trkpt lat="46.541203" lon="7.161805"><ele>749.9</ele><time>2026-06-01T06:22:50Z</time><extensions><power>241</power><gpxtpx:TrackPointExtension><gpxtpx:hr>170</gpxtpx:hr></gpxtpx:TrackPointExtension></extensions></trkpt>
<trkpt lat="46.541353" lon="7.162030"><ele>748.5</ele><time>2026-06-01T06:22:55Z</time><extensions><power>245</power><gpxtpx:TrackPointExtension><gpxtpx:hr>171</gpxtpx:hr></gpxtpx:TrackPointExtension></extensions></trkpt>
<trkpt lat="46.541504" lon="7.162256"><ele>747.2</ele><time>2026-06-01T06:23:00Z</time><extensions><power>249</power><gpxtpx:TrackPointExtension><gpxtpx:hr>172</gpxtpx:hr></gpxtpx:TrackPointExtension></extensions></trkpt>
<trkpt lat="46.541654" lon="7.162481"><ele>745.9</ele><time>2026-06-01T06:23:05Z</time><extensions><power>254</power><gpxtpx:TrackPointExtension><gpxtpx:hr>173</gpxtpx:hr></gpxtpx:TrackPointExtension></extensions></trkpt>
<trkpt lat="46.541805" lon="7.162707"><ele>744.5</ele><time>2026-06-01T06:23:10Z</time><extensions><power>258</power><gpxtpx:TrackPointExtension><gpxtpx:hr>174</gpxtpx:hr></gpxtpx:TrackPointExtension></extensions></trkpt>
<trkpt lat="46.541955" lon="7.162932"><ele>743.1</ele><time>2026-06-01T06:23:15Z</time><extensions><power>262</power><gpxtpx:TrackPointExtension><gpxtpx:hr>175</gpxtpx:hr></gpxtpx:TrackPointExtension></extensions></trkpt>
<trkpt lat="46.542105" lon="7.163158"><ele>741.7</ele><time>2026-06-01T06:23:20Z</time><extensions><power>266</power><gpxtpx:TrackPointExtension><gpxtpx:hr>176</gpxtpx:hr></gpxtpx:TrackPointExtension></extensions></trkpt>
<trkpt lat="46.542256" lon="7.163383"><ele>740.3</ele><time>2026-06-01T06:23:25Z</time><extensions><power>269</power><gpxtpx:TrackPointExtension><gpxtpx:hr>177</gpxtpx:hr></gpxtpx:TrackPointExtension></extensions></trkpt>
<trkpt lat="46.542406" lon="7.163609"><ele>738.9</ele><time>2026-06-01T06:23:30Z</time><extensions><power>272</power><gpxtpx:TrackPointExtension><gpxtpx:hr>178</gpxtpx:hr></gpxtpx:TrackPointExtension></extensions></trkpt>
<trkpt lat="46.542556" lon="7.163835"><ele>737.5</ele><time>2026-06-01T06:23:35Z</time><extensions><power>275</power><gpxtpx:TrackPointExtension><gpxtpx:hr>178</gpxtpx:hr></gpxtpx:TrackPointExtension></extensions></trkpt>
<trkpt lat="46.542707" lon="7.164060"><ele>736.0</ele><time>2026-06-01T06:23:40Z</time><extensions><power>277</power><gpxtpx:TrackPointExtension><gpxtpx:hr>179</gpxtpx:hr></gpxtpx:TrackPointExtension></extensions></trkpt>
<trkpt lat="46.542857" lon="7.164286"><ele>734.5</ele><time>2026-06-01T06:23:45Z</time><extensions><power>278</power><gpxtpx:TrackPointExtension><gpxtpx:hr>179</gpxtpx:hr></gpxtpx:TrackPointExtension></extensions></trkpt>
<trkpt lat="46.543008" lon="7.164511"><ele>733.1</ele><time>2026-06-01T06:23:50Z</time><extensions><power>279</power><gpxtpx:TrackPointExtension><gpxtpx:hr>179</gpxtpx:hr></gpxtpx:TrackPointExtension></extensions></trkpt>
<trkpt lat="46.543158" lon="7.164737"><ele>731.6</ele><time>2026-06-01T06:23:55Z</time><extensions><power>279</power><gpxtpx:TrackPointExtension><gpxtpx:hr>179</gpxtpx:hr></gpxtpx:TrackPointExtension></extensions></trkpt>
<trkpt lat="46.543308" lon="7.164962"><ele>730.1</ele><time>2026-06-01T06:24:00Z</time><extensions><power>279</power><gpxtpx:TrackPointExtension><gpxtpx:hr>179</gpxtpx:hr></gpxtpx:TrackPointExtension></extensions></trkpt>
<trkpt lat="46.543459" lon="7.165188"><ele>728.5</ele><time>2026-06-01T06:24:05Z</time><extensions><power>279</power><gpxtpx:TrackPointExtension><gpxtpx:hr>179</gpxtpx:hr></gpxtpx:TrackPointExtension></extensions></trkpt>
<trkpt lat="46.543609" lon="7.165414"><ele>727.0</ele><time>2026-06-01T06:24:10Z</time><extensions><power>277</power><gpxtpx:TrackPointExtension><gpxtpx:hr>179</gpxtpx:hr></gpxtpx:TrackPointExtension></extensions></trkpt>
<trkpt lat="46.543759" lon="7.165639"><ele>725.5</ele><time>2026-06-01T06:24:15Z</time><extensions><power>276</power><gpxtpx:TrackPointExtension><gpxtpx:hr>179</gpxtpx:hr></gpxtpx:TrackPointExtension></extensions></trkpt>
<trkpt lat="46.543910" lon="7.165865"><ele>723.9</ele><time>2026-06-01T06:24:20Z</time><extensions><power>273</power><gpxtpx:TrackPointExtension><gpxtpx:hr>178</gpxtpx:hr></gpxtpx:TrackPointExtension></extensions></trkpt>
<trkpt lat="46.544060" lon="7.166090"><ele>722.3</ele><time>2026-06-01T06:24:25Z</time><extensions><power>271</power><gpxtpx:TrackPointExtension><gpxtpx:hr>177</gpxtpx:hr></gpxtpx:TrackPointExtension></extensions></trkpt>
<trkpt lat="46.544211" lon="7.166316"><ele>720.7</ele><time>2026-06-01T06:24:30Z</time><extensions><power>268</power><gpxtpx:TrackPointExtension><gpxtpx:hr>177</gpxtpx:hr></gpxtpx:TrackPointExtension></extensions></trkpt>
<trkpt lat="46.544361" lon="7.166541"><ele>719.1</ele><time>2026-06-01T06:24:35Z</time><extensions><power>264</power><gpxtpx:TrackPointExtension><gpxtpx:hr>176</gpxtpx:hr></gpxtpx:TrackPointExtension></extensions></trkpt>
<trkpt lat="46.544511" lon="7.166767"><ele>717.5</ele><time>2026-06-01T06:24:40Z</time><extensions><power>260</power><gpxtpx:TrackPointExtension><gpxtpx:hr>175</gpxtpx:hr></gpxtpx:TrackPointExtension></extensions></trkpt>
<trkpt lat="46.544662" lon="7.166992"><ele>715.9</ele><time>2026-06-01T06:24:45Z</time><extensions><power>256</power><gpxtpx:TrackPointExtension><gpxtpx:hr>174</gpxtpx:hr></gpxtpx:TrackPointExtension></extensions></trkpt>
<trkpt lat="46.544812" lon="7.167218"><ele>714.2</ele><time>2026-06-01T06:24:50Z</time><extensions><power>252</power><gpxtpx:TrackPointExtension><gpxtpx:hr>173</gpxtpx:hr></gpxtpx:TrackPointExtension></extensions></trkpt>
<trkpt lat="46.544962" lon="7.167444"><ele>712.5</ele><time>2026-06-01T06:24:55Z</time><extensions><power>247</power><gpxtpx:TrackPointExtension><gpxtpx:hr>171</gpxtpx:hr></gpxtpx:TrackPointExtension></extensions></trkpt>
<trkpt lat="46.545113" lon="7.167669"><ele>710.9</ele><time>2026-06-01T06:25:00Z</time><extensions><power>243</power><gpxtpx:TrackPointExtension><gpxtpx:hr>170</gpxtpx:hr></gpxtpx:TrackPointExtension></extensions></trkpt>
<trkpt lat="46.545263" lon="7.167895"><ele>709.2</ele><time>2026-06-01T06:25:05Z</time><extensions><power>238</power><gpxtpx:TrackPointExtension><gpxtpx:hr>169</gpxtpx:hr></gpxtpx:TrackPointExtension></extensions></trkpt>
<trkpt lat="46.545414" lon="7.168120"><ele>707.5</ele><time>2026-06-01T06:25:10Z</time><extensions><power>234</power><gpxtpx:TrackPointExtension><gpxtpx:hr>168</gpxtpx:hr></gpxtpx:TrackPointExtension></extensions></trkpt>
<trkpt lat="46.545564" lon="7.168346"><ele>705.8</ele><time>2026-06-01T06:25:15Z</time><extensions><power>229</power><gpxtpx:TrackPointExtension><gpxtpx:hr>167</gpxtpx:hr></gpxtpx:TrackPointExtension></extensions></trkpt>
<trkpt lat="46.545714" lon="7.168571"><ele>704.1</ele><time>2026-06-01T06:25:20Z</time><extensions><power>225</power><gpxtpx:TrackPointExtension><gpxtpx:hr>166</gpxtpx:hr></gpxtpx:TrackPointExtension></extensions></trkpt>
<trkpt lat="46.545865" lon="7.168797"><ele>702.3</ele><time>2026-06-01T06:25:25Z</time><extensions><power>221</power><gpxtpx:TrackPointExtension><gpxtpx:hr>165</gpxtpx:hr></gpxtpx:TrackPointExtension></extensions></trkpt>
<trkpt lat="46.546015" lon="7.169023"><ele>700.6</ele><time>2026-06-01T06:25:30Z</time><extensions><power>217</power><gpxtpx:TrackPointExtension><gpxtpx:hr>164</gpxtpx:hr></gpxtpx:TrackPointExtension></extensions></trkpt>
<trkpt lat="46.546165" lon="7.169248"><ele>698.8</ele><time>2026-06-01T06:25:35Z</time><extensions><power>213</power><gpxtpx:TrackPointExtension><gpxtpx:hr>163</gpxtpx:hr></gpxtpx:TrackPointExtension></extensions></trkpt>
<trkpt lat="46.546316" lon="7.169474"><ele>697.0</ele><time>2026-06-01T06:25:40Z</time><extensions><power>209</power><gpxtpx:TrackPointExtension><gpxtpx:hr>162</gpxtpx:hr></gpxtpx:TrackPointExtension></extensions></trkpt>
<trkpt lat="46.546466" lon="7.169699"><ele>695.2</ele><time>2026-06-01T06:25:45Z</time><extensions><power>206</power><gpxtpx:TrackPointExtension><gpxtpx:hr>161</gpxtpx:hr></gpxtpx:TrackPointExtension></extensions></trkpt>
<trkpt lat="46.546617" lon="7.169925"><ele>693.4</ele><time>2026-06-01T06:25:50Z</time><extensions><power>203</power><gpxtpx:TrackPointExtension><gpxtpx:hr>160</gpxtpx:hr></gpxtpx:TrackPointExtension></extensions></trkpt>
<trkpt lat="46.546767" lon="7.170150"><ele>691.6</ele><time>2026-06-01T06:25:55Z</time><extensions><power>201</power><gpxtpx:TrackPointExtension><gpxtpx:hr>160</gpxtpx:hr></gpxtpx:TrackPointExtension></extensions></trkpt>
<trkpt lat="46.546917" lon="7.170376"><ele>689.8</ele><time>2026-06-01T06:26:00Z</time><extensions><power>199</power><gpxtpx:TrackPointExtension><gpxtpx:hr>159</gpxtpx:hr></gpxtpx:TrackPointExtension></extensions></trkpt>
<trkpt lat="46.547068" lon="7.170602"><ele>688.0</ele><time>2026-06-01T06:26:05Z</time><extensions><power>197</power><gpxtpx:TrackPointExtension><gpxtpx:hr>159</gpxtpx:hr></gpxtpx:TrackPointExtension></extensions></trkpt>
<trkpt lat="46.547218" lon="7.170827"><ele>686.1</ele><time>2026-06-01T06:26:10Z</time><extensions><power>195</power><gpxtpx:TrackPointExtension><gpxtpx:hr>158</gpxtpx:hr></gpxtpx:TrackPointExtension></extensions></trkpt>
<trkpt lat="46.547368" lon="7.171053"><ele>684.3</ele><time>2026-06-01T06:26:15Z</time><extensions><power>194</power><gpxtpx:TrackPointExtension><gpxtpx:hr>158</gpxtpx:hr></gpxtpx:TrackPointExtension></extensions></trkpt>
<trkpt lat="46.547519" lon="7.171278"><ele>682.4</ele><time>2026-06-01T06:26:20Z</time><extensions><power>192</power><gpxtpx:TrackPointExtension><gpxtpx:hr>158</gpxtpx:hr></gpxtpx:TrackPointExtension></extensions></trkpt>
<trkpt lat="46.547669" lon="7.171504"><ele>680.5</ele><time>2026-06-01T06:26:25Z</time><extensions><power>192</power><gpxtpx:TrackPointExtension><gpxtpx:hr>158</gpxtpx:hr></gpxtpx:TrackPointExtension></extensions></trkpt>
<trkpt lat="46.547820" lon="7.171729"><ele>678.6</ele><time>2026-06-01T06:26:30Z</time><extensions><power>191</power><gpxtpx:TrackPointExtension><gpxtpx:hr>157</gpxtpx:hr></gpxtpx:TrackPointExtension></extensions></trkpt>
<trkpt lat="46.547970" lon="7.171955"><ele>676.7</ele><time>2026-06-01T06:26:35Z</time><extensions><power>190</power><gpxtpx:TrackPointExtension><gpxtpx:hr>157</gpxtpx:hr></gpxtpx:TrackPointExtension></extensions></trkpt>
<trkpt lat="46.548120" lon="7.172180"><ele>674.8</ele><time>2026-06-01T06:26:40Z</time><extensions><power>190</power><gpxtpx:TrackPointExtension><gpxtpx:hr>157</gpxtpx:hr></gpxtpx:TrackPointExtension></extensions></trkpt>
<trkpt lat="46.548271" lon="7.172406"><ele>672.9</ele><time>2026-06-01T06:26:45Z</time><extensions><power>190</power><gpxtpx:TrackPointExtension><gpxtpx:hr>157</gpxtpx:hr></gpxtpx:TrackPointExtension></extensions></trkpt>
<trkpt lat="46.548421" lon="7.172632"><ele>670.9</ele><time>2026-06-01T06:26:50Z</time><extensions><power>190</power><gpxtpx:TrackPointExtension><gpxtpx:hr>157</gpxtpx:hr></gpxtpx:TrackPointExtension></extensions></trkpt>
<trkpt lat="46.548571" lon="7.172857"><ele>669.0</ele><time>2026-06-01T06:26:55Z</time><extensions><power>190</power><gpxtpx:TrackPointExtension><gpxtpx:hr>157</gpxtpx:hr></gpxtpx:TrackPointExtension></extensions></trkpt>
<trkpt lat="46.548722" lon="7.173083"><ele>667.0</ele><time>2026-06-01T06:27:00Z</time><extensions><power>190</power><gpxtpx:TrackPointExtension><gpxtpx:hr>157</gpxtpx:hr></gpxtpx:TrackPointExtension></extensions></trkpt>
<trkpt lat="46.548872" lon="7.173308"><ele>665.1</ele><time>2026-06-01T06:27:05Z</time><extensions><power>190</power><gpxtpx:TrackPointExtension><gpxtpx:hr>157</gpxtpx:hr></gpxtpx:TrackPointExtension></extensions></trkpt>
<trkpt lat="46.549023" lon="7.173534"><ele>663.1</ele><time>2026-06-01T06:27:10Z</time><extensions><power>190</power><gpxtpx:TrackPointExtension><gpxtpx:hr>157</gpxtpx:hr></gpxtpx:TrackPointExtension></extensions></trkpt>
<trkpt lat="46.549173" lon="7.173759"><ele>661.1</ele><time>2026-06-01T06:27:15Z</time><extensions><power>190</power><gpxtpx:TrackPointExtension><gpxtpx:hr>157</gpxtpx:hr></gpxtpx:TrackPointExtension></extensions></trkpt>
<trkpt lat="46.549323" lon="7.173985"><ele>659.1</ele><time>2026-06-01T06:27:20Z</time><extensions><power>190</power><gpxtpx:TrackPointExtension><gpxtpx:hr>157</gpxtpx:hr></gpxtpx:TrackPointExtension></extensions></trkpt>
<trkpt lat="46.549474" lon="7.174211"><ele>657.1</ele><time>2026-06-01T06:27:25Z</time><extensions><power>190</power><gpxtpx:TrackPointExtension><gpxtpx:hr>157</gpxtpx:hr></gpxtpx:TrackPointExtension></extensions></trkpt>
<trkpt lat="46.549624" lon="7.174436"><ele>655.1</ele><time>2026-06-01T06:27:30Z</time><extensions><power>190</power><gpxtpx:TrackPointExtension><gpxtpx:hr>157</gpxtpx:hr></gpxtpx:TrackPointExtension></extensions></trkpt>
<trkpt lat="46.549774" lon="7.174662"><ele>653.1</ele><time>2026-06-01T06:27:35Z</time><extensions><power>190</power><gpxtpx:TrackPointExtension><gpxtpx:hr>157</gpxtpx:hr></gpxtpx:TrackPointExtension></extensions></trkpt>
<trkpt lat="46.549925" lon="7.174887"><ele>651.0</ele><time>2026-06-01T06:27:40Z</time><extensions><power>190</power><gpxtpx:TrackPointExtension><gpxtpx:hr>157</gpxtpx:hr></gpxtpx:TrackPointExtension></extensions></trkpt>
<trkpt lat="46.550075" lon="7.175113"><ele>649.0</ele><time>2026-06-01T06:27:45Z</time><extensions><power>190</power><gpxtpx:TrackPointExtension><gpxtpx:hr>157</gpxtpx:hr></gpxtpx:TrackPointExtension></extensions></trkpt>
<trkpt lat="46.550226" lon="7.175338"><ele>646.9</ele><time>2026-06-01T06:27:50Z</time><extensions><power>190</power><gpxtpx:TrackPointExtension><gpxtpx:hr>157</gpxtpx:hr></gpxtpx:TrackPointExtension></extensions></trkpt>
<trkpt lat="46.550376" lon="7.175564"><ele>644.9</ele><time>2026-06-01T06:27:55Z</time><extensions><power>190</power><gpxtpx:TrackPointExtension><gpxtpx:hr>157</gpxtpx:hr></gpxtpx:TrackPointExtension></extensions></trkpt>
<trkpt lat="46.550526" lon="7.175789"><ele>642.8</ele><time>2026-06-01T06:28:00Z</time><extensions><power>190</power><gpxtpx:TrackPointExtension><gpxtpx:hr>157</gpxtpx:hr></gpxtpx:TrackPointExtension></extensions></trkpt>
<trkpt lat="46.550677" lon="7.176015"><ele>640.7</ele><time>2026-06-01T06:28:05Z</time><extensions><power>190</power><gpxtpx:TrackPointExtension><gpxtpx:hr>157</gpxtpx:hr></gpxtpx:TrackPointExtension></extensions></trkpt>
<trkpt lat="46.550827" lon="7.176241"><ele>638.6</ele><time>2026-06-01T06:28:10Z</time><extensions><power>190</power><gpxtpx:TrackPointExtension><gpxtpx:hr>157</gpxtpx:hr></gpxtpx:TrackPointExtension></extensions></trkpt>
<trkpt lat="46.550977" lon="7.176466"><ele>636.5</ele><time>2026-06-01T06:28:15Z</time><extensions><power>190</power><gpxtpx:TrackPointExtension><gpxtpx:hr>157</gpxtpx:hr></gpxtpx:TrackPointExtension></extensions></trkpt>
<trkpt lat="46.551128" lon="7.176692"><ele>634.4</ele><time>2026-06-01T06:28:20Z</time><extensions><power>190</power><gpxtpx:TrackPointExtension><gpxtpx:hr>157</gpxtpx:hr></gpxtpx:TrackPointExtension></extensions></trkpt>
<trkpt lat="46.551278" lon="7.176917"><ele>632.3</ele><time>2026-06-01T06:28:25Z</time><extensions><power>190</power><gpxtpx:TrackPointExtension><gpxtpx:hr>157</gpxtpx:hr></gpxtpx:TrackPointExtension></extensions></trkpt>
<trkpt lat="46.551429" lon="7.177143"><ele>630.2</ele><time>2026-06-01T06:28:30Z</time><extensions><power>190</power><gpxtpx:TrackPointExtension><gpxtpx:hr>157</gpxtpx:hr></gpxtpx:TrackPointExtension></extensions></trkpt>
<trkpt lat="46.551579" lon="7.177368"><ele>628.0</ele><time>2026-06-01T06:28:35Z</time><extensions><power>190</power><gpxtpx:TrackPointExtension><gpxtpx:hr>157</gpxtpx:hr></gpxtpx:TrackPointExtension></extensions></trkpt>
<trkpt lat="46.551729" lon="7.177594"><ele>625.9</ele><time>2026-06-01T06:28:40Z</time><extensions><power>190</power><gpxtpx:TrackPointExtension><gpxtpx:hr>157</gpxtpx:hr></gpxtpx:TrackPointExtension></extensions></trkpt>
<trkpt lat="46.551880" lon="7.177820"><ele>623.7</ele><time>2026-06-01T06:28:45Z</time><extensions><power>190</power><gpxtpx:TrackPointExtension><gpxtpx:hr>157</gpxtpx:hr></gpxtpx:TrackPointExtension></extensions></trkpt>
<trkpt lat="46.552030" lon="7.178045"><ele>621.6</ele><time>2026-06-01T06:28:50Z</time><extensions><power>190</power><gpxtpx:TrackPointExtension><gpxtpx:hr>157</gpxtpx:hr></gpxtpx:TrackPointExtension></extensions></trkpt>
<trkpt lat="46.552180" lon="7.178271"><ele>619.4</ele><time>2026-06-01T06:28:55Z</time><extensions><power>190</power><gpxtpx:TrackPointExtension><gpxtpx:hr>157</gpxtpx:hr></gpxtpx:TrackPointExtension></extensions></trkpt>
<trkpt lat="46.552331" lon="7.178496"><ele>617.3</ele><time>2026-06-01T06:29:00Z</time><extensions><power>190</power><gpxtpx:TrackPointExtension><gpxtpx:hr>157</gpxtpx:hr></gpxtpx:TrackPointExtension></extensions></trkpt>
<trkpt lat="46.552481" lon="7.178722"><ele>615.1</ele><time>2026-06-01T06:29:05Z</time><extensions><power>190</power><gpxtpx:TrackPointExtension><gpxtpx:hr>157</gpxtpx:hr></gpxtpx:TrackPointExtension></extensions></trkpt>
<trkpt lat="46.552632" lon="7.178947"><ele>612.9</ele><time>2026-06-01T06:29:10Z</time><extensions><power>190</power><gpxtpx:TrackPointExtension><gpxtpx:hr>157</gpxtpx:hr></gpxtpx:TrackPointExtension></extensions></trkpt>
<trkpt lat="46.552782" lon="7.179173"><ele>610.7</ele><time>2026-06-01T06:29:15Z</time><extensions><power>190</power><gpxtpx:TrackPointExtension><gpxtpx:hr>157</gpxtpx:hr></gpxtpx:TrackPointExtension></extensions></trkpt>
<trkpt lat="46.552932" lon="7.179398"><ele>608.5</ele><time>2026-06-01T06:29:20Z</time><extensions><power>190</power><gpxtpx:TrackPointExtension><gpxtpx:hr>157</gpxtpx:hr></gpxtpx:TrackPointExtension></extensions></trkpt>
<trkpt lat="46.553083" lon="7.179624"><ele>606.3</ele><time>2026-06-01T06:29:25Z</time><extensions><power>191</power><gpxtpx:TrackPointExtension><gpxtpx:hr>157</gpxtpx:hr></gpxtpx:TrackPointExtension></extensions></trkpt>
<trkpt lat="46.553233" lon="7.179850"><ele>604.1</ele><time>2026-06-01T06:29:30Z</time><extensions><power>192</power><gpxtpx:TrackPointExtension><gpxtpx:hr>158</gpxtpx:hr></gpxtpx:TrackPointExtension></extensions></trkpt>
<trkpt lat="46.553383" lon="7.180075"><ele>601.9</ele><time>2026-06-01T06:29:35Z</time><extensions><power>193</power><gpxtpx:TrackPointExtension><gpxtpx:hr>158</gpxtpx:hr></gpxtpx:TrackPointExtension></extensions></trkpt>
<trkpt lat="46.553534" lon="7.180301"><ele>599.6</ele><time>2026-06-01T06:29:40Z</time><extensions><power>195</power><gpxtpx:TrackPointExtension><gpxtpx:hr>158</gpxtpx:hr></gpxtpx:TrackPointExtension></extensions></trkpt>
<trkpt lat="46.553684" lon="7.180526"><ele>597.4</ele><time>2026-06-01T06:29:45Z</time><extensions><power>197</power><gpxtpx:TrackPointExtension><gpxtpx:hr>159</gpxtpx:hr></gpxtpx:TrackPointExtension></extensions></trkpt>
<trkpt lat="46.553835" lon="7.180752"><ele>595.2</ele><time>2026-06-01T06:29:50Z</time><extensions><power>200</power><gpxtpx:TrackPointExtension><gpxtpx:hr>160</gpxtpx:hr></gpxtpx:TrackPointExtension></extensions></trkpt>
<trkpt lat="46.553985" lon="7.180977"><ele>592.9</ele><time>2026-06-01T06:29:55Z</time><extensions><power>203</power><gpxtpx:TrackPointExtension><gpxtpx:hr>160</gpxtpx:hr></gpxtpx:TrackPointExtension></extensions></trkpt>
<trkpt lat="46.554135" lon="7.181203"><ele>590.7</ele><time>2026-06-01T06:30:00Z</time><extensions><power>207</power><gpxtpx:TrackPointExtension><gpxtpx:hr>161</gpxtpx:hr></gpxtpx:TrackPointExtension></extensions></trkpt>
<trkpt lat="46.554286" lon="7.181429"><ele>588.4</ele><time>2026-06-01T06:30:05Z</time><extensions><power>212</power><gpxtpx:TrackPointExtension><gpxtpx:hr>163</gpxtpx:hr></gpxtpx:TrackPointExtension></extensions></trkpt>
<trkpt lat="46.554436" lon="7.181654"><ele>586.2</ele><time>2026-06-01T06:30:10Z</time><extensions><power>217</power><gpxtpx:TrackPointExtension><gpxtpx:hr>164</gpxtpx:hr></gpxtpx:TrackPointExtension></extensions></trkpt>
<trkpt lat="46.554586" lon="7.181880"><ele>583.9</ele><time>2026-06-01T06:30:15Z</time><extensions><power>223</power><gpxtpx:TrackPointExtension><gpxtpx:hr>165</gpxtpx:hr></gpxtpx:TrackPointExtension></extensions></trkpt>
<trkpt lat="46.554737" lon="7.182105"><ele>581.6</ele><time>2026-06-01T06:30:20Z</time><extensions><power>229</power><gpxtpx:TrackPointExtension><gpxtpx:hr>167</gpxtpx:hr></gpxtpx:TrackPointExtension></extensions></trkpt>
<trkpt lat="46.554887" lon="7.182331"><ele>579.4</ele><time>2026-06-01T06:30:25Z</time><extensions><power>236</power><gpxtpx:TrackPointExtension><gpxtpx:hr>169</gpxtpx:hr></gpxtpx:TrackPointExtension></extensions></trkpt>
<trkpt lat="46.555038" lon="7.182556"><ele>577.1</ele><time>2026-06-01T06:30:30Z</time><extensions><power>243</power><gpxtpx:TrackPointExtension><gpxtpx:hr>170</gpxtpx:hr></gpxtpx:TrackPointExtension></extensions></trkpt>
<trkpt lat="46.555188" lon="7.182782"><ele>574.8</ele><time>2026-06-01T06:30:35Z</time><extensions><power>250</power><gpxtpx:TrackPointExtension><gpxtpx:hr>172</gpxtpx:hr></gpxtpx:TrackPointExtension></extensions></trkpt>
<trkpt lat="46.555338" lon="7.183008"><ele>572.5</ele><time>2026-06-01T06:30:40Z</time><extensions><power>257</power><gpxtpx:TrackPointExtension><gpxtpx:hr>174</gpxtpx:hr></gpxtpx:TrackPointExtension></extensions></trkpt>
<trkpt lat="46.555489" lon="7.183233"><ele>570.2</ele><time>2026-06-01T06:30:45Z</time><extensions><power>265</power><gpxtpx:TrackPointExtension><gpxtpx:hr>176</gpxtpx:hr></gpxtpx:TrackPointExtension></extensions></trkpt>
<trkpt lat="46.555639" lon="7.183459"><ele>567.9</ele><time>2026-06-01T06:30:50Z</time><extensions><power>272</power><gpxtpx:TrackPointExtension><gpxtpx:hr>178</gpxtpx:hr></gpxtpx:TrackPointExtension></extensions></trkpt>
<trkpt lat="46.555789" lon="7.183684"><ele>565.6</ele><time>2026-06-01T06:30:55Z</time><extensions><power>279</power><gpxtpx:TrackPointExtension><gpxtpx:hr>179</gpxtpx:hr></gpxtpx:TrackPointExtension></extensions></trkpt>
<trkpt lat="46.555940" lon="7.183910"><ele>563.3</ele><time>2026-06-01T06:31:00Z</time><extensions><power>285</power><gpxtpx:TrackPointExtension><gpxtpx:hr>181</gpxtpx:hr></gpxtpx:TrackPointExtension></extensions></trkpt>
<trkpt lat="46.556090" lon="7.184135"><ele>561.0</ele><time>2026-06-01T06:31:05Z</time><extensions><power>291</power><gpxtpx:TrackPointExtension><gpxtpx:hr>182</gpxtpx:hr></gpxtpx:TrackPointExtension></extensions></trkpt>
<trkpt lat="46.556241" lon="7.184361"><ele>558.7</ele><time>2026-06-01T06:31:10Z</time><extensions><power>296</power><gpxtpx:TrackPointExtension><gpxtpx:hr>184</gpxtpx:hr></gpxtpx:TrackPointExtension></extensions></trkpt>
<trkpt lat="46.556391" lon="7.184586"><ele>556.4</ele><time>2026-06-01T06:31:15Z</time><extensions><power>301</power><gpxtpx:TrackPointExtension><gpxtpx:hr>185</gpxtpx:hr></gpxtpx:TrackPointExtension></extensions></trkpt>
<trkpt lat="46.556541" lon="7.184812"><ele>554.0</ele><time>2026-06-01T06:31:20Z</time><extensions><power>305</power><gpxtpx:TrackPointExtension><gpxtpx:hr>186</gpxtpx:hr></gpxtpx:TrackPointExtension></extensions></trkpt>
<trkpt lat="46.556692" lon="7.185038"><ele>551.7</ele><time>2026-06-01T06:31:25Z</time><extensions><power>307</power><gpxtpx:TrackPointExtension><gpxtpx:hr>186</gpxtpx:hr></gpxtpx:TrackPointExtension></extensions></trkpt>
<trkpt lat="46.556842" lon="7.185263"><ele>549.4</ele><time>2026-06-01T06:31:30Z</time><extensions><power>309</power><gpxtpx:TrackPointExtension><gpxtpx:hr>187</gpxtpx:hr></gpxtpx:TrackPointExtension></extensions></trkpt>
<trkpt lat="46.556992" lon="7.185489"><ele>547.0</ele><time>2026-06-01T06:31:35Z</time><extensions><power>309</power><gpxtpx:TrackPointExtension><gpxtpx:hr>187</gpxtpx:hr></gpxtpx:TrackPointExtension></extensions></trkpt>
<trkpt lat="46.557143" lon="7.185714"><ele>544.7</ele><time>2026-06-01T06:31:40Z</time><extensions><power>309</power><gpxtpx:TrackPointExtension><gpxtpx:hr>187</gpxtpx:hr></gpxtpx:TrackPointExtension></extensions></trkpt>
<trkpt lat="46.557293" lon="7.185940"><ele>542.4</ele><time>2026-06-01T06:31:45Z</time><extensions><power>307</power><gpxtpx:TrackPointExtension><gpxtpx:hr>186</gpxtpx:hr></gpxtpx:TrackPointExtension></extensions></trkpt>
<trkpt lat="46.557444" lon="7.186165"><ele>540.0</ele><time>2026-06-01T06:31:50Z</time><extensions><power>305</power><gpxtpx:TrackPointExtension><gpxtpx:hr>186</gpxtpx:hr></gpxtpx:TrackPointExtension></extensions></trkpt>
<trkpt lat="46.557594" lon="7.186391"><ele>537.7</ele><time>2026-06-01T06:31:55Z</time><extensions><power>301</power><gpxtpx:TrackPointExtension><gpxtpx:hr>185</gpxtpx:hr></gpxtpx:TrackPointExtension></extensions></trkpt>
<trkpt lat="46.557744" lon="7.186617"><ele>535.3</ele><time>2026-06-01T06:32:00Z</time><extensions><power>297</power><gpxtpx:TrackPointExtension><gpxtpx:hr>184</gpxtpx:hr></gpxtpx:TrackPointExtension></extensions></trkpt>
<trkpt lat="46.557895" lon="7.186842"><ele>533.0</ele><time>2026-06-01T06:32:05Z</time><extensions><power>292</power><gpxtpx:TrackPointExtension><gpxtpx:hr>183</gpxtpx:hr></gpxtpx:TrackPointExtension></extensions></trkpt>
<trkpt lat="46.558045" lon="7.187068"><ele>530.7</ele><time>2026-06-01T06:32:10Z</time><extensions><power>286</power><gpxtpx:TrackPointExtension><gpxtpx:hr>181</gpxtpx:hr></gpxtpx:TrackPointExtension></extensions></trkpt>
<trkpt lat="46.558195" lon="7.187293"><ele>528.3</ele><time>2026-06-01T06:32:15Z</time><extensions><power>279</power><gpxtpx:TrackPointExtension><gpxtpx:hr>179</gpxtpx:hr></gpxtpx:TrackPointExtension></extensions></trkpt>
<trkpt lat="46.558346" lon="7.187519"><ele>526.0</ele><time>2026-06-01T06:32:20Z</time><extensions><power>272</power><gpxtpx:TrackPointExtension><gpxtpx:hr>178</gpxtpx:hr></gpxtpx:TrackPointExtension></extensions></trkpt>
<trkpt lat="46.558496" lon="7.187744"><ele>523.6</ele><time>2026-06-01T06:32:25Z</time><extensions><power>265</power><gpxtpx:TrackPointExtension><gpxtpx:hr>176</gpxtpx:hr></gpxtpx:TrackPointExtension></extensions></trkpt>
<trkpt lat="46.558647" lon="7.187970"><ele>521.2</ele><time>2026-06-01T06:32:30Z</time><extensions><power>258</power><gpxtpx:TrackPointExtension><gpxtpx:hr>174</gpxtpx:hr></gpxtpx:TrackPointExtension></extensions></trkpt>
<trkpt lat="46.558797" lon="7.188195"><ele>518.9</ele><time>2026-06-01T06:32:35Z</time><extensions><power>251</power><gpxtpx:TrackPointExtension><gpxtpx:hr>172</gpxtpx:hr></gpxtpx:TrackPointExtension></extensions></trkpt>
<trkpt lat="46.558947" lon="7.188421"><ele>516.5</ele><time>2026-06-01T06:32:40Z</time><extensions><power>243</power><gpxtpx:TrackPointExtension><gpxtpx:hr>170</gpxtpx:hr></gpxtpx:TrackPointExtension></extensions></trkpt>
<trkpt lat="46.559098" lon="7.188647"><ele>514.2</ele><time>2026-06-01T06:32:45Z</time><extensions><power>236</power><gpxtpx:TrackPointExtension><gpxtpx:hr>169</gpxtpx:hr></gpxtpx:TrackPointExtension></extensions></trkpt>
<trkpt lat="46.559248" lon="7.188872"><ele>511.8</ele><time>2026-06-01T06:32:50Z</time><extensions><power>230</power><gpxtpx:TrackPointExtension><gpxtpx:hr>167</gpxtpx:hr></gpxtpx:TrackPointExtension></extensions></trkpt>
<trkpt lat="46.559398" lon="7.189098"><ele>509.4</ele><time>2026-06-01T06:32:55Z</time><extensions><power>223</power><gpxtpx:TrackPointExtension><gpxtpx:hr>165</gpxtpx:hr></gpxtpx:TrackPointExtension></extensions></trkpt>
<trkpt lat="46.559549" lon="7.189323"><ele>507.1</ele><time>2026-06-01T06:33:00Z</time><extensions><power>218</power><gpxtpx:TrackPointExtension><gpxtpx:hr>164</gpxtpx:hr></gpxtpx:TrackPointExtension></extensions></trkpt>
<trkpt lat="46.559699" lon="7.189549"><ele>504.7</ele><time>2026-06-01T06:33:05Z</time><extensions><power>212</power><gpxtpx:TrackPointExtension><gpxtpx:hr>163</gpxtpx:hr></gpxtpx:TrackPointExtension></extensions></trkpt>
<trkpt lat="46.559850" lon="7.189774"><ele>502.4</ele><time>2026-06-01T06:33:10Z</time><extensions><power>208</power><gpxtpx:TrackPointExtension><gpxtpx:hr>162</gpxtpx:hr></gpxtpx:TrackPointExtension></extensions></trkpt>
<trkpt lat="46.560000" lon="7.190000"><ele>500.0</ele><time>2026-06-01T06:33:15Z</time><extensions><power>204</power><gpxtpx:TrackPointExtension><gpxtpx:hr>161</gpxtpx:hr></gpxtpx:TrackPointExtension></extensions></trkpt>
</trkseg></trk></gpx>