<?xml version="1.0" encoding="UTF-8"?>
<gpx version="1.1" creator="banc-gravure" xmlns="http://www.topografix.com/GPX/1/1">
<trk><name>montagne</name><trkseg>
<trkpt lat="46.500000" lon="7.100000"><ele>480.0</ele><time>2026-06-01T06:00:00Z</time></trkpt>
<trkpt lat="46.500100" lon="7.100400"><ele>480.0</ele><time>2026-06-01T06:00:08Z</time></trkpt>
<trkpt lat="46.500200" lon="7.100801"><ele>480.1</ele><time>2026-06-01T06:00:16Z</time></trkpt>
<trkpt lat="46.500300" lon="7.101201"><ele>480.3</ele><time>2026-06-01T06:00:24Z</time></trkpt>
<trkpt lat="46.500400" lon="7.101600"><ele>480.5</ele><time>2026-06-01T06:00:32Z</time></trkpt>
<trkpt lat="46.500501" lon="7.101999"><ele>480.8</ele><time>2026-06-01T06:00:40Z</time></trkpt>
<trkpt lat="46.500601" lon="7.102397"><ele>481.1</ele><time>2026-06-01T06:00:48Z</time></trkpt>
<trkpt lat="46.500701" lon="7.102795"><ele>481.5</ele><time>2026-06-01T06:00:56Z</time></trkpt>
<trkpt lat="46.500801" lon="7.103191"><ele>481.9</ele><time>2026-06-01T06:01:04Z</time></trkpt>
<trkpt lat="46.500901" lon="7.103586"><ele>482.4</ele><time>2026-06-01T06:01:12Z</time></trkpt>
<trkpt lat="46.501001" lon="7.103980"><ele>483.0</ele><time>2026-06-01T06:01:20Z</time></trkpt>
<trkpt lat="46.501101" lon="7.104373"><ele>483.7</ele><time>2026-06-01T06:01:28Z</time></trkpt>
<trkpt lat="46.501201" lon="7.104763"><ele>484.4</ele><time>2026-06-01T06:01:36Z</time></trkpt>
<trkpt lat="46.501301" lon="7.105152"><ele>485.1</ele><time>2026-06-01T06:01:44Z</time></trkpt>
<trkpt lat="46.501402" lon="7.105540"><ele>485.9</ele><time>2026-06-01T06:01:52Z</time></trkpt>
<trkpt lat="46.501502" lon="7.105925"><ele>486.8</ele><time>2026-06-01T06:02:00Z</time></trkpt>
<trkpt lat="46.501602" lon="7.106308"><ele>487.7</ele><time>2026-06-01T06:02:08Z</time></trkpt>
<trkpt lat="46.501702" lon="7.106689"><ele>488.7</ele><time>2026-06-01T06:02:16Z</time></trkpt>
<trkpt lat="46.501802" lon="7.107067"><ele>489.8</ele><time>2026-06-01T06:02:24Z</time></trkpt>
<trkpt lat="46.501902" lon="7.107443"><ele>490.9</ele><time>2026-06-01T06:02:32Z</time></trkpt>
<trkpt lat="46.502002" lon="7.107816"><ele>492.0</ele><time>2026-06-01T06:02:40Z</time></trkpt>
<trkpt lat="46.502102" lon="7.108186"><ele>493.3</ele><time>2026-06-01T06:02:48Z</time></trkpt>
<trkpt lat="46.502202" lon="7.108553"><ele>494.5</ele><time>2026-06-01T06:02:56Z</time></trkpt>
<trkpt lat="46.502303" lon="7.108918"><ele>495.9</ele><time>2026-06-01T06:03:04Z</time></trkpt>
<trkpt lat="46.502403" lon="7.109279"><ele>497.3</ele><time>2026-06-01T06:03:12Z</time></trkpt>
<trkpt lat="46.502503" lon="7.109637"><ele>498.7</ele><time>2026-06-01T06:03:20Z</time></trkpt>
<trkpt lat="46.502603" lon="7.109991"><ele>500.2</ele><time>2026-06-01T06:03:28Z</time></trkpt>
<trkpt lat="46.502703" lon="7.110342"><ele>501.8</ele><time>2026-06-01T06:03:36Z</time></trkpt>
<trkpt lat="46.502803" lon="7.110689"><ele>503.4</ele><time>2026-06-01T06:03:44Z</time></trkpt>
<trkpt lat="46.502903" lon="7.111032"><ele>505.1</ele><time>2026-06-01T06:03:52Z</time></trkpt>
<trkpt lat="46.503003" lon="7.111371"><ele>506.9</ele><time>2026-06-01T06:04:00Z</time></trkpt>
<trkpt lat="46.503103" lon="7.111707"><ele>508.7</ele><time>2026-06-01T06:04:08Z</time></trkpt>
<trkpt lat="46.503204" lon="7.112038"><ele>510.5</ele><time>2026-06-01T06:04:16Z</time></trkpt>
<trkpt lat="46.503304" lon="7.112365"><ele>512.4</ele><time>2026-06-01T06:04:24Z</time></trkpt>
<trkpt lat="46.503404" lon="7.112688"><ele>514.4</ele><time>2026-06-01T06:04:32Z</time></trkpt>
<trkpt lat="46.503504" lon="7.113006"><ele>516.4</ele><time>2026-06-01T06:04:40Z</time></trkpt>
<trkpt lat="46.503604" lon="7.113320"><ele>518.4</ele><time>2026-06-01T06:04:48Z</time></trkpt>
<trkpt lat="46.503704" lon="7.113629"><ele>520.5</ele><time>2026-06-01T06:04:56Z</time></trkpt>
<trkpt lat="46.503804" lon="7.113933"><ele>522.7</ele><time>2026-06-01T06:05:04Z</time></trkpt>
<trkpt lat="46.503904" lon="7.114233"><ele>524.9</ele><time>2026-06-01T06:05:12Z</time></trkpt>
<trkpt lat="46.504004" lon="7.114528"><ele>527.2</ele><time>2026-06-01T06:05:20Z</time></trkpt>
<trkpt lat="46.504105" lon="7.114818"><ele>529.5</ele><time>2026-06-01T06:05:28Z</time></trkpt>
<trkpt lat="46.504205" lon="7.115102"><ele>531.9</ele><time>2026-06-01T06:05:36Z</time></trkpt>
<trkpt lat="46.504305" lon="7.115382"><ele>534.3</ele><time>2026-06-01T06:05:44Z</time></trkpt>
<trkpt lat="46.504405" lon="7.115656"><ele>536.8</ele><time>2026-06-01T06:05:52Z</time></trkpt>
<trkpt lat="46.504505" lon="7.115925"><ele>539.3</ele><time>2026-06-01T06:06:00Z</time></trkpt>
<trkpt lat="46.504605" lon="7.116189"><ele>541.9</ele><time>2026-06-01T06:06:08Z</time></trkpt>
<trkpt lat="46.504705" lon="7.116448"><ele>544.5</ele><time>2026-06-01T06:06:16Z</time></trkpt>
<trkpt lat="46.504805" lon="7.116700"><ele>547.2</ele><time>2026-06-01T06:06:24Z</time></trkpt>
<trkpt lat="46.504905" lon="7.116948"><ele>549.9</ele><time>2026-06-01T06:06:32Z</time></trkpt>
<trkpt lat="46.505006" lon="7.117190"><ele>552.7</ele><time>2026-06-01T06:06:40Z</time></trkpt>
<trkpt lat="46.505106" lon="7.117426"><ele>555.5</ele><time>2026-06-01T06:06:48Z</time></trkpt>
<trkpt lat="46.505206" lon="7.117656"><ele>558.3</ele><time>2026-06-01T06:06:56Z</time></trkpt>
<trkpt lat="46.505306" lon="7.117881"><ele>561.3</ele><time>2026-06-01T06:07:04Z</time></trkpt>
<trkpt lat="46.505406" lon="7.118100"><ele>564.2</ele><time>2026-06-01T06:07:12Z</time></trkpt>
<trkpt lat="46.505506" lon="7.118313"><ele>567.2</ele><time>2026-06-01T06:07:20Z</time></trkpt>
<trkpt lat="46.505606" lon="7.118521"><ele>570.2</ele><time>2026-06-01T06:07:28Z</time></trkpt>
<trkpt lat="46.505706" lon="7.118722"><ele>573.3</ele><time>2026-06-01T06:07:36Z</time></trkpt>
<trkpt lat="46.505806" lon="7.118918"><ele>576.4</ele><time>2026-06-01T06:07:44Z</time></trkpt>
<trkpt lat="46.505907" lon="7.119107"><ele>579.6</ele><time>2026-06-01T06:07:52Z</time></trkpt>
<trkpt lat="46.506007" lon="7.119291"><ele>582.8</ele><time>2026-06-01T06:08:00Z</time></trkpt>
<trkpt lat="46.506107" lon="7.119469"><ele>586.0</ele><time>2026-06-01T06:08:08Z</time></trkpt>
<trkpt lat="46.506207" lon="7.119641"><ele>589.3</ele><time>2026-06-01T06:08:16Z</time></trkpt>
<trkpt lat="46.506307" lon="7.119807"><ele>592.6</ele><time>2026-06-01T06:08:24Z</time></trkpt>
<trkpt lat="46.506407" lon="7.119967"><ele>596.0</ele><time>2026-06-01T06:08:32Z</time></trkpt>
<trkpt lat="46.506507" lon="7.120120"><ele>599.4</ele><time>2026-06-01T06:08:40Z</time></trkpt>
<trkpt lat="46.506607" lon="7.120268"><ele>602.8</ele><time>2026-06-01T06:08:48Z</time></trkpt>
<trkpt lat="46.506707" lon="7.120410"><ele>606.3</ele><time>2026-06-01T06:08:56Z</time></trkpt>
<trkpt lat="46.506808" lon="7.120546"><ele>609.8</ele><time>2026-06-01T06:09:04Z</time></trkpt>
<trkpt lat="46.506908" lon="7.120676"><ele>613.4</ele><time>2026-06-01T06:09:12Z</time></trkpt>
<trkpt lat="46.507008" lon="7.120800"><ele>616.9</ele><time>2026-06-01T06:09:20Z</time></trkpt>
<trkpt lat="46.507108" lon="7.120918"><ele>620.5</ele><time>2026-06-01T06:09:28Z</time></trkpt>
<trkpt lat="46.507208" lon="7.121030"><ele>624.2</ele><time>2026-06-01T06:09:36Z</time></trkpt>
<trkpt lat="46.507308" lon="7.121137"><ele>627.9</ele><time>2026-06-01T06:09:44Z</time></trkpt>
<trkpt lat="46.507408" lon="7.121237"><ele>631.6</ele><time>2026-06-01T06:09:52Z</time></trkpt>
<trkpt lat="46.507508" lon="7.121332"><ele>635.3</ele><time>2026-06-01T06:10:00Z</time></trkpt>
<trkpt lat="46.507608" lon="7.121421"><ele>639.1</ele><time>2026-06-01T06:10:08Z</time></trkpt>
<trkpt lat="46.507709" lon="7.121504"><ele>642.9</ele><time>2026-06-01T06:10:16Z</time></trkpt>
<trkpt lat="46.507809" lon="7.121581"><ele>646.7</ele><time>2026-06-01T06:10:24Z</time></trkpt>
<trkpt lat="46.507909" lon="7.121653"><ele>650.6</ele><time>2026-06-01T06:10:32Z</time></trkpt>
<trkpt lat="46.508009" lon="7.121719"><ele>654.5</ele><time>2026-06-01T06:10:40Z</time></trkpt>
<trkpt lat="46.508109" lon="7.121780"><ele>658.4</ele><time>2026-06-01T06:10:48Z</time></trkpt>
<trkpt lat="46.508209" lon="7.121835"><ele>662.3</ele><time>2026-06-01T06:10:56Z</time></trkpt>
<trkpt lat="46.508309" lon="7.121884"><ele>666.3</ele><time>2026-06-01T06:11:04Z</time></trkpt>
<trkpt lat="46.508409" lon="7.121929"><ele>670.2</ele><time>2026-06-01T06:11:12Z</time></trkpt>
<trkpt lat="46.508509" lon="7.121968"><ele>674.3</ele><time>2026-06-01T06:11:20Z</time></trkpt>
<trkpt lat="46.508610" lon="7.122002"><ele>678.3</ele><time>2026-06-01T06:11:28Z</time></trkpt>
<trkpt lat="46.508710" lon="7.122030"><ele>682.3</ele><time>2026-06-01T06:11:36Z</time></trkpt>
<trkpt lat="46.508810" lon="7.122054"><ele>686.4</ele><time>2026-06-01T06:11:44Z</time></trkpt>
<trkpt lat="46.508910" lon="7.122072"><ele>690.5</ele><time>2026-06-01T06:11:52Z</time></trkpt>
<trkpt lat="46.509010" lon="7.122086"><ele>694.6</ele><time>2026-06-01T06:12:00Z</time></trkpt>
<trkpt lat="46.509110" lon="7.122095"><ele>698.7</ele><time>2026-06-01T06:12:08Z</time></trkpt>
<trkpt lat="46.509210" lon="7.122099"><ele>702.9</ele><time>2026-06-01T06:12:16Z</time></trkpt>
<trkpt lat="46.509310" lon="7.122098"><ele>707.1</ele><time>2026-06-01T06:12:24Z</time></trkpt>
<trkpt lat="46.509410" lon="7.122093"><ele>711.2</ele><time>2026-06-01T06:12:32Z</time></trkpt>
<trkpt lat="46.509511" lon="7.122084"><ele>715.4</ele><time>2026-06-01T06:12:40Z</time></trkpt>
<trkpt lat="46.509611" lon="7.122070"><ele>719.7</ele><time>2026-06-01T06:12:48Z</time></trkpt>
<trkpt lat="46.509711" lon="7.122052"><ele>723.9</ele><time>2026-06-01T06:12:56Z</time></trkpt>
<trkpt lat="46.509811" lon="7.122029"><ele>728.1</ele><time>2026-06-01T06:13:04Z</time></trkpt>
<trkpt lat="46.509911" lon="7.122003"><ele>732.4</ele><time>2026-06-01T06:13:12Z</time></trkpt>
<trkpt lat="46.510011" lon="7.121972"><ele>736.6</ele><time>2026-06-01T06:13:20Z</time></trkpt>
<trkpt lat="46.510111" lon="7.121938"><ele>740.9</ele><time>2026-06-01T06:13:28Z</time></trkpt>
<trkpt lat="46.510211" lon="7.121900"><ele>745.2</ele><time>2026-06-01T06:13:36Z</time></trkpt>
<trkpt lat="46.510311" lon="7.121859"><ele>749.5</ele><time>2026-06-01T06:13:44Z</time></trkpt>
<trkpt lat="46.510412" lon="7.121814"><ele>753.8</ele><time>2026-06-01T06:13:52Z</time></trkpt>
<trkpt lat="46.510512" lon="7.121765"><ele>758.1</ele><time>2026-06-01T06:14:00Z</time></trkpt>
<trkpt lat="46.510612" lon="7.121714"><ele>762.4</ele><time>2026-06-01T06:14:08Z</time></trkpt>
<trkpt lat="46.510712" lon="7.121659"><ele>766.7</ele><time>2026-06-01T06:14:16Z</time></trkpt>
<trkpt lat="46.510812" lon="7.121601"><ele>771.1</ele><time>2026-06-01T06:14:24Z</time></trkpt>
<trkpt lat="46.510912" lon="7.121541"><ele>775.4</ele><time>2026-06-01T06:14:32Z</time></trkpt>
<trkpt lat="46.511012" lon="7.121477"><ele>779.7</ele><time>2026-06-01T06:14:40Z</time></trkpt>
<trkpt lat="46.511112" lon="7.121411"><ele>784.0</ele><time>2026-06-01T06:14:48Z</time></trkpt>
<trkpt lat="46.511212" lon="7.121343"><ele>788.4</ele><time>2026-06-01T06:14:56Z</time></trkpt>
<trkpt lat="46.511313" lon="7.121272"><ele>792.7</ele><time>2026-06-01T06:15:04Z</time></trkpt>
<trkpt lat="46.511413" lon="7.121199"><ele>797.0</ele><time>2026-06-01T06:15:12Z</time></trkpt>
<trkpt lat="46.511513" lon="7.121124"><ele>801.4</ele><time>2026-06-01T06:15:20Z</time></trkpt>
<trkpt lat="46.511613" lon="7.121047"><ele>805.7</ele><time>2026-06-01T06:15:28Z</time></trkpt>
<trkpt lat="46.511713" lon="7.120969"><ele>810.0</ele><time>2026-06-01T06:15:36Z</time></trkpt>
<trkpt lat="46.511813" lon="7.120888"><ele>814.3</ele><time>2026-06-01T06:15:44Z</time></trkpt>
<trkpt lat="46.511913" lon="7.120806"><ele>818.7</ele><time>2026-06-01T06:15:52Z</time></trkpt>
<trkpt lat="46.512013" lon="7.120723"><ele>823.0</ele><time>2026-06-01T06:16:00Z</time></trkpt>
<trkpt lat="46.512113" lon="7.120639"><ele>827.3</ele><time>2026-06-01T06:16:08Z</time></trkpt>
<trkpt lat="46.512214" lon="7.120553"><ele>831.6</ele><time>2026-06-01T06:16:16Z</time></trkpt>
<trkpt lat="46.512314" lon="7.120467"><ele>835.9</ele><time>2026-06-01T06:16:24Z</time></trkpt>
<trkpt lat="46.512414" lon="7.120379"><ele>840.2</ele><time>2026-06-01T06:16:32Z</time></trkpt>
<trkpt lat="46.512514" lon="7.120292"><ele>844.4</ele><time>2026-06-01T06:16:40Z</time></trkpt>
<trkpt lat="46.512614" lon="7.120203"><ele>848.7</ele><time>2026-06-01T06:16:48Z</time></trkpt>
<trkpt lat="46.512714" lon="7.120114"><ele>852.9</ele><time>2026-06-01T06:16:56Z</time></trkpt>
<trkpt lat="46.512814" lon="7.120025"><ele>857.2</ele><time>2026-06-01T06:17:04Z</time></trkpt>
<trkpt lat="46.512914" lon="7.119937"><ele>861.4</ele><time>2026-06-01T06:17:12Z</time></trkpt>
<trkpt lat="46.513014" lon="7.119848"><ele>865.6</ele><time>2026-06-01T06:17:20Z</time></trkpt>
<trkpt lat="46.513115" lon="7.119759"><ele>869.8</ele><time>2026-06-01T06:17:28Z</time></trkpt>
<trkpt lat="46.513215" lon="7.119671"><ele>874.0</ele><time>2026-06-01T06:17:36Z</time></trkpt>
<trkpt lat="46.513315" lon="7.119583"><ele>878.1</ele><time>2026-06-01T06:17:44Z</time></trkpt>
<trkpt lat="46.513415" lon="7.119496"><ele>882.3</ele><time>2026-06-01T06:17:52Z</time></trkpt>
<trkpt lat="46.513515" lon="7.119410"><ele>886.4</ele><time>2026-06-01T06:18:00Z</time></trkpt>
<trkpt lat="46.513615" lon="7.119324"><ele>890.5</ele><time>2026-06-01T06:18:08Z</time></trkpt>
<trkpt lat="46.513715" lon="7.119240"><ele>894.6</ele><time>2026-06-01T06:18:16Z</time></trkpt>
<trkpt lat="46.513815" lon="7.119157"><ele>898.7</ele><time>2026-06-01T06:18:24Z</time></trkpt>
<trkpt lat="46.513915" lon="7.119076"><ele>902.7</ele><time>2026-06-01T06:18:32Z</time></trkpt>
<trkpt lat="46.514016" lon="7.118996"><ele>906.8</ele><time>2026-06-01T06:18:40Z</time></trkpt>
<trkpt lat="46.514116" lon="7.118918"><ele>910.8</ele><time>2026-06-01T06:18:48Z</time></trkpt>
<trkpt lat="46.514216" lon="7.118841"><ele>914.7</ele><time>2026-06-01T06:18:56Z</time></trkpt>
<trkpt lat="46.514316" lon="7.118767"><ele>918.7</ele><time>2026-06-01T06:19:04Z</time></trkpt>
<trkpt lat="46.514416" lon="7.118694"><ele>922.6</ele><time>2026-06-01T06:19:12Z</time></trkpt>
<trkpt lat="46.514516" lon="7.118624"><ele>926.5</ele><time>2026-06-01T06:19:20Z</time></trkpt>
<trkpt lat="46.514616" lon="7.118556"><ele>930.4</ele><time>2026-06-01T06:19:28Z</time></trkpt>
<trkpt lat="46.514716" lon="7.118491"><ele>934.3</ele><time>2026-06-01T06:19:36Z</time></trkpt>
<trkpt lat="46.514816" lon="7.118428"><ele>938.1</ele><time>2026-06-01T06:19:44Z</time></trkpt>
<trkpt lat="46.514917" lon="7.118368"><ele>941.9</ele><time>2026-06-01T06:19:52Z</time></trkpt>
<trkpt lat="46.515017" lon="7.118311"><ele>945.7</ele><time>2026-06-01T06:20:00Z</time></trkpt>
<trkpt lat="46.515117" lon="7.118257"><ele>949.5</ele><time>2026-06-01T06:20:08Z</time></trkpt>
<trkpt lat="46.515217" lon="7.118206"><ele>953.2</ele><time>2026-06-01T06:20:16Z</time></trkpt>
<trkpt lat="46.515317" lon="7.118159"><ele>956.9</ele><time>2026-06-01T06:20:24Z</time></trkpt>
<trkpt lat="46.515417" lon="7.118115"><ele>960.5</ele><time>2026-06-01T06:20:32Z</time></trkpt>
<trkpt lat="46.515517" lon="7.118074"><ele>964.1</ele><time>2026-06-01T06:20:40Z</time></trkpt>
<trkpt lat="46.515617" lon="7.118037"><ele>967.7</ele><time>2026-06-01T06:20:48Z</time></trkpt>
<trkpt lat="46.515717" lon="7.118004"><ele>971.3</ele><time>2026-06-01T06:20:56Z</time></trkpt>
<trkpt lat="46.515818" lon="7.117974"><ele>974.8</ele><time>2026-06-01T06:21:04Z</time></trkpt>
<trkpt lat="46.515918" lon="7.117949"><ele>978.3</ele><time>2026-06-01T06:21:12Z</time></trkpt>
<trkpt lat="46.516018" lon="7.117927"><ele>981.8</ele><time>2026-06-01T06:21:20Z</time></trkpt>
<trkpt lat="46.516118" lon="7.117910"><ele>985.2</ele><time>2026-06-01T06:21:28Z</time></trkpt>
<trkpt lat="46.516218" lon="7.117897"><ele>988.6</ele><time>2026-06-01T06:21:36Z</time></trkpt>
<trkpt lat="46.516318" lon="7.117889"><ele>992.0</ele><time>2026-06-01T06:21:44Z</time></trkpt>
<trkpt lat="46.516418" lon="7.117885"><ele>995.3</ele><time>2026-06-01T06:21:52Z</time></trkpt>
<trkpt lat="46.516518" lon="7.117885"><ele>998.6</ele><time>2026-06-01T06:22:00Z</time></trkpt>
<trkpt lat="46.516618" lon="7.117891"><ele>1001.9</ele><time>2026-06-01T06:22:08Z</time></trkpt>
<trkpt lat="46.516719" lon="7.117901"><ele>1005.1</ele><time>2026-06-01T06:22:16Z</time></trkpt>
<trkpt lat="46.516819" lon="7.117916"><ele>1008.3</ele><time>2026-06-01T06:22:24Z</time></trkpt>
<trkpt lat="46.516919" lon="7.117935"><ele>1011.4</ele><time>2026-06-01T06:22:32Z</time></trkpt>
<trkpt lat="46.517019" lon="7.117960"><ele>1014.5</ele><time>2026-06-01T06:22:40Z</time></trkpt>
<trkpt lat="46.517119" lon="7.117990"><ele>1017.6</ele><time>2026-06-01T06:22:48Z</time></trkpt>
<trkpt lat="46.517219" lon="7.118025"><ele>1020.6</ele><time>2026-06-01T06:22:56Z</time></trkpt>
<trkpt lat="46.517319" lon="7.118066"><ele>1023.6</ele><time>2026-06-01T06:23:04Z</time></trkpt>
<trkpt lat="46.517419" lon="7.118111"><ele>1026.5</ele><time>2026-06-01T06:23:12Z</time></trkpt>
<trkpt lat="46.517519" lon="7.118162"><ele>1029.4</ele><time>2026-06-01T06:23:20Z</time></trkpt>
<trkpt lat="46.517620" lon="7.118219"><ele>1032.3</ele><time>2026-06-01T06:23:28Z</time></trkpt>
<trkpt lat="46.517720" lon="7.118281"><ele>1035.1</ele><time>2026-06-01T06:23:36Z</time></trkpt>
<trkpt lat="46.517820" lon="7.118348"><ele>1037.9</ele><time>2026-06-01T06:23:44Z</time></trkpt>
<trkpt lat="46.517920" lon="7.118421"><ele>1040.6</ele><time>2026-06-01T06:23:52Z</time></trkpt>
<trkpt lat="46.518020" lon="7.118500"><ele>1043.3</ele><time>2026-06-01T06:24:00Z</time></trkpt>
<trkpt lat="46.518120" lon="7.118585"><ele>1046.0</ele><time>2026-06-01T06:24:08Z</time></trkpt>
<trkpt lat="46.518220" lon="7.118675"><ele>1048.6</ele><time>2026-06-01T06:24:16Z</time></trkpt>
<trkpt lat="46.518320" lon="7.118771"><ele>1051.1</ele><time>2026-06-01T06:24:24Z</time></trkpt>
<trkpt lat="46.518420" lon="7.118873"><ele>1053.7</ele><time>2026-06-01T06:24:32Z</time></trkpt>
<trkpt lat="46.518521" lon="7.118981"><ele>1056.1</ele><time>2026-06-01T06:24:40Z</time></trkpt>
<trkpt lat="46.518621" lon="7.119094"><ele>1058.5</ele><time>2026-06-01T06:24:48Z</time></trkpt>
<trkpt lat="46.518721" lon="7.119214"><ele>1060.9</ele><time>2026-06-01T06:24:56Z</time></trkpt>
<trkpt lat="46.518821" lon="7.119339"><ele>1063.3</ele><time>2026-06-01T06:25:04Z</time></trkpt>
<trkpt lat="46.518921" lon="7.119471"><ele>1065.6</ele><time>2026-06-01T06:25:12Z</time></trkpt>
<trkpt lat="46.519021" lon="7.119608"><ele>1067.8</ele><time>2026-06-01T06:25:20Z</time></trkpt>
<trkpt lat="46.519121" lon="7.119751"><ele>1070.0</ele><time>2026-06-01T06:25:28Z</time></trkpt>
<trkpt lat="46.519221" lon="7.119901"><ele>1072.1</ele><time>2026-06-01T06:25:36Z</time></trkpt>
<trkpt lat="46.519321" lon="7.120056"><ele>1074.2</ele><time>2026-06-01T06:25:44Z</time></trkpt>
<trkpt lat="46.519422" lon="7.120218"><ele>1076.3</ele><time>2026-06-01T06:25:52Z</time></trkpt>
<trkpt lat="46.519522" lon="7.120385"><ele>1078.3</ele><time>2026-06-01T06:26:00Z</time></trkpt>
<trkpt lat="46.519622" lon="7.120558"><ele>1080.3</ele><time>2026-06-01T06:26:08Z</time></trkpt>
<trkpt lat="46.519722" lon="7.120737"><ele>1082.2</ele><time>2026-06-01T06:26:16Z</time></trkpt>
<trkpt lat="46.519822" lon="7.120923"><ele>1084.0</ele><time>2026-06-01T06:26:24Z</time></trkpt>
<trkpt lat="46.519922" lon="7.121114"><ele>1085.8</ele><time>2026-06-01T06:26:32Z</time></trkpt>
<trkpt lat="46.520022" lon="7.121311"><ele>1087.6</ele><time>2026-06-01T06:26:40Z</time></trkpt>
<trkpt lat="46.520122" lon="7.121514"><ele>1089.3</ele><time>2026-06-01T06:26:48Z</time></trkpt>
<trkpt lat="46.520222" lon="7.121723"><ele>1091.0</ele><time>2026-06-01T06:26:56Z</time></trkpt>
<trkpt lat="46.520323" lon="7.121937"><ele>1092.6</ele><time>2026-06-01T06:27:04Z</time></trkpt>
<trkpt lat="46.520423" lon="7.122158"><ele>1094.2</ele><time>2026-06-01T06:27:12Z</time></trkpt>
<trkpt lat="46.520523" lon="7.122384"><ele>1095.7</ele><time>2026-06-01T06:27:20Z</time></trkpt>
<trkpt lat="46.520623" lon="7.122616"><ele>1097.2</ele><time>2026-06-01T06:27:28Z</time></trkpt>
<trkpt lat="46.520723" lon="7.122853"><ele>1098.6</ele><time>2026-06-01T06:27:36Z</time></trkpt>
<trkpt lat="46.520823" lon="7.123096"><ele>1099.9</ele><time>2026-06-01T06:27:44Z</time></trkpt>
<trkpt lat="46.520923" lon="7.123345"><ele>1101.3</ele><time>2026-06-01T06:27:52Z</time></trkpt>
<trkpt lat="46.521023" lon="7.123599"><ele>1102.5</ele><time>2026-06-01T06:28:00Z</time></trkpt>
<trkpt lat="46.521123" lon="7.123859"><ele>1103.7</ele><time>2026-06-01T06:28:08Z</time></trkpt>
<trkpt lat="46.521224" lon="7.124124"><ele>1104.9</ele><time>2026-06-01T06:28:16Z</time></trkpt>
<trkpt lat="46.521324" lon="7.124395"><ele>1106.0</ele><time>2026-06-01T06:28:24Z</time></trkpt>
<trkpt lat="46.521424" lon="7.124670"><ele>1107.1</ele><time>2026-06-01T06:28:32Z</time></trkpt>
<trkpt lat="46.521524" lon="7.124951"><ele>1108.1</ele><time>2026-06-01T06:28:40Z</time></trkpt>
<trkpt lat="46.521624" lon="7.125237"><ele>1109.1</ele><time>2026-06-01T06:28:48Z</time></trkpt>
<trkpt lat="46.521724" lon="7.125528"><ele>1110.0</ele><time>2026-06-01T06:28:56Z</time></trkpt>
<trkpt lat="46.521824" lon="7.125824"><ele>1110.8</ele><time>2026-06-01T06:29:04Z</time></trkpt>
<trkpt lat="46.521924" lon="7.126125"><ele>1111.7</ele><time>2026-06-01T06:29:12Z</time></trkpt>
<trkpt lat="46.522024" lon="7.126431"><ele>1112.4</ele><time>2026-06-01T06:29:20Z</time></trkpt>
<trkpt lat="46.522125" lon="7.126741"><ele>1113.1</ele><time>2026-06-01T06:29:28Z</time></trkpt>
<trkpt lat="46.522225" lon="7.127056"><ele>1113.8</ele><time>2026-06-01T06:29:36Z</time></trkpt>
<trkpt lat="46.522325" lon="7.127375"><ele>1114.4</ele><time>2026-06-01T06:29:44Z</time></trkpt>
<trkpt lat="46.522425" lon="7.127699"><ele>1115.0</ele><time>2026-06-01T06:29:52Z</time></trkpt>
<trkpt lat="46.522525" lon="7.128027"><ele>1115.5</ele><time>2026-06-01T06:30:00Z</time></trkpt>
<trkpt lat="46.522625" lon="7.128359"><ele>1115.9</ele><time>2026-06-01T06:30:08Z</time></trkpt>
<trkpt lat="46.522725" lon="7.128696"><ele>1116.3</ele><time>2026-06-01T06:30:16Z</time></trkpt>
<trkpt lat="46.522825" lon="7.129036"><ele>1116.7</ele><time>2026-06-01T06:30:24Z</time></trkpt>
<trkpt lat="46.522925" lon="7.129380"><ele>1117.0</ele><time>2026-06-01T06:30:32Z</time></trkpt>
<trkpt lat="46.523026" lon="7.129728"><ele>1117.3</ele><time>2026-06-01T06:30:40Z</time></trkpt>
<trkpt lat="46.523126" lon="7.130080"><ele>1117.5</ele><time>2026-06-01T06:30:48Z</time></trkpt>
<trkpt lat="46.523226" lon="7.130435"><ele>1117.6</ele><time>2026-06-01T06:30:56Z</time></trkpt>
<trkpt lat="46.523326" lon="7.130794"><ele>1117.7</ele><time>2026-06-01T06:31:04Z</time></trkpt>
<trkpt lat="46.523426" lon="7.131156"><ele>1117.8</ele><time>2026-06-01T06:31:12Z</time></trkpt>
<trkpt lat="46.523526" lon="7.131521"><ele>1117.8</ele><time>2026-06-01T06:31:20Z</time></trkpt>
<trkpt lat="46.523626" lon="7.131889"><ele>1117.7</ele><time>2026-06-01T06:31:28Z</time></trkpt>
<trkpt lat="46.523726" lon="7.132260"><ele>1117.7</ele><time>2026-06-01T06:31:36Z</time></trkpt>
<trkpt lat="46.523826" lon="7.132633"><ele>1117.5</ele><time>2026-06-01T06:31:44Z</time></trkpt>
<trkpt lat="46.523927" lon="7.133010"><ele>1117.3</ele><time>2026-06-01T06:31:52Z</time></trkpt>
<trkpt lat="46.524027" lon="7.133389"><ele>1117.1</ele><time>2026-06-01T06:32:00Z</time></trkpt>
<trkpt lat="46.524127" lon="7.133770"><ele>1116.8</ele><time>2026-06-01T06:32:08Z</time></trkpt>
<trkpt lat="46.524227" lon="7.134154"><ele>1116.5</ele><time>2026-06-01T06:32:16Z</time></trkpt>
<trkpt lat="46.524327" lon="7.134539"><ele>1116.1</ele><time>2026-06-01T06:32:24Z</time></trkpt>
<trkpt lat="46.524427" lon="7.134927"><ele>1115.7</ele><time>2026-06-01T06:32:32Z</time></trkpt>
<trkpt lat="46.524527" lon="7.135317"><ele>1115.2</ele><time>2026-06-01T06:32:40Z</time></trkpt>
<trkpt lat="46.524627" lon="7.135708"><ele>1114.7</ele><time>2026-06-01T06:32:48Z</time></trkpt>
<trkpt lat="46.524727" lon="7.136101"><ele>1114.1</ele><time>2026-06-01T06:32:56Z</time></trkpt>
<trkpt lat="46.524828" lon="7.136495"><ele>1113.5</ele><time>2026-06-01T06:33:04Z</time></trkpt>
<trkpt lat="46.524928" lon="7.136890"><ele>1112.8</ele><time>2026-06-01T06:33:12Z</time></trkpt>
<trkpt lat="46.525028" lon="7.137287"><ele>1112.1</ele><time>2026-06-01T06:33:20Z</time></trkpt>
<trkpt lat="46.525128" lon="7.137684"><ele>1111.4</ele><time>2026-06-01T06:33:28Z</time></trkpt>
<trkpt lat="46.525228" lon="7.138083"><ele>1110.6</ele><time>2026-06-01T06:33:36Z</time></trkpt>
<trkpt lat="46.525328" lon="7.138482"><ele>1109.7</ele><time>2026-06-01T06:33:44Z</time></trkpt>
<trkpt lat="46.525428" lon="7.138882"><ele>1108.9</ele><time>2026-06-01T06:33:52Z</time></trkpt>
<trkpt lat="46.525528" lon="7.139282"><ele>1107.9</ele><time>2026-06-01T06:34:00Z</time></trkpt>
<trkpt lat="46.525628" lon="7.139682"><ele>1106.9</ele><time>2026-06-01T06:34:08Z</time></trkpt>
<trkpt lat="46.525729" lon="7.140082"><ele>1105.9</ele><time>2026-06-01T06:34:16Z</time></trkpt>
<trkpt lat="46.525829" lon="7.140483"><ele>1104.9</ele><time>2026-06-01T06:34:24Z</time></trkpt>
<trkpt lat="46.525929" lon="7.140883"><ele>1103.8</ele><time>2026-06-01T06:34:32Z</time></trkpt>
<trkpt lat="46.526029" lon="7.141283"><ele>1102.6</ele><time>2026-06-01T06:34:40Z</time></trkpt>
<trkpt lat="46.526129" lon="7.141682"><ele>1101.4</ele><time>2026-06-01T06:34:48Z</time></trkpt>
<trkpt lat="46.526229" lon="7.142081"><ele>1100.2</ele><time>2026-06-01T06:34:56Z</time></trkpt>
<trkpt lat="46.526329" lon="7.142479"><ele>1099.0</ele><time>2026-06-01T06:35:04Z</time></trkpt>
<trkpt lat="46.526429" lon="7.142876"><ele>1097.6</ele><time>2026-06-01T06:35:12Z</time></trkpt>
<trkpt lat="46.526529" lon="7.143272"><ele>1096.3</ele><time>2026-06-01T06:35:20Z</time></trkpt>
<trkpt lat="46.526630" lon="7.143667"><ele>1094.9</ele><time>2026-06-01T06:35:28Z</time></trkpt>
<trkpt lat="46.526730" lon="7.144061"><ele>1093.5</ele><time>2026-06-01T06:35:36Z</time></trkpt>
<trkpt lat="46.526830" lon="7.144453"><ele>1092.0</ele><time>2026-06-01T06:35:44Z</time></trkpt>
<trkpt lat="46.526930" lon="7.144843"><ele>1090.5</ele><time>2026-06-01T06:35:52Z</time></trkpt>
<trkpt lat="46.527030" lon="7.145232"><ele>1089.0</ele><time>2026-06-01T06:36:00Z</time></trkpt>
<trkpt lat="46.527130" lon="7.145619"><ele>1087.4</ele><time>2026-06-01T06:36:08Z</time></trkpt>
<trkpt lat="46.527230" lon="7.146003"><ele>1085.8</ele><time>2026-06-01T06:36:16Z</time></trkpt>
<trkpt lat="46.527330" lon="7.146386"><ele>1084.2</ele><time>2026-06-01T06:36:24Z</time></trkpt>
<trkpt lat="46.527430" lon="7.146766"><ele>1082.5</ele><time>2026-06-01T06:36:32Z</time></trkpt>
<trkpt lat="46.527531" lon="7.147144"><ele>1080.8</ele><time>2026-06-01T06:36:40Z</time></trkpt>
<trkpt lat="46.527631" lon="7.147519"><ele>1079.0</ele><time>2026-06-01T06:36:48Z</time></trkpt>
<trkpt lat="46.527731" lon="7.147891"><ele>1077.2</ele><time>2026-06-01T06:36:56Z</time></trkpt>
<trkpt lat="46.527831" lon="7.148261"><ele>1075.4</ele><time>2026-06-01T06:37:04Z</time></trkpt>
<trkpt lat="46.527931" lon="7.148627"><ele>1073.5</ele><time>2026-06-01T06:37:12Z</time></trkpt>
<trkpt lat="46.528031" lon="7.148991"><ele>1071.7</ele><time>2026-06-01T06:37:20Z</time></trkpt>
<trkpt lat="46.528131" lon="7.149351"><ele>1069.7</ele><time>2026-06-01T06:37:28Z</time></trkpt>
<trkpt lat="46.528231" lon="7.149708"><ele>1067.8</ele><time>2026-06-01T06:37:36Z</time></trkpt>
<trkpt lat="46.528331" lon="7.150061"><ele>1065.8</ele><time>2026-06-01T06:37:44Z</time></trkpt>
<trkpt lat="46.528432" lon="7.150411"><ele>1063.8</ele><time>2026-06-01T06:37:52Z</time></trkpt>
<trkpt lat="46.528532" lon="7.150758"><ele>1061.8</ele><time>2026-06-01T06:38:00Z</time></trkpt>
<trkpt lat="46.528632" lon="7.151100"><ele>1059.7</ele><time>2026-06-01T06:38:08Z</time></trkpt>
<trkpt lat="46.528732" lon="7.151438"><ele>1057.6</ele><time>2026-06-01T06:38:16Z</time></trkpt>
<trkpt lat="46.528832" lon="7.151773"><ele>1055.5</ele><time>2026-06-01T06:38:24Z</time></trkpt>
<trkpt lat="46.528932" lon="7.152103"><ele>1053.4</ele><time>2026-06-01T06:38:32Z</time></trkpt>
<trkpt lat="46.529032" lon="7.152429"><ele>1051.2</ele><time>2026-06-01T06:38:40Z</time></trkpt>
<trkpt lat="46.529132" lon="7.152750"><ele>1049.0</ele><time>2026-06-01T06:38:48Z</time></trkpt>
<trkpt lat="46.529232" lon="7.153068"><ele>1046.8</ele><time>2026-06-01T06:38:56Z</time></trkpt>
<trkpt lat="46.529333" lon="7.153380"><ele>1044.5</ele><time>2026-06-01T06:39:04Z</time></trkpt>
<trkpt lat="46.529433" lon="7.153688"><ele>1042.3</ele><time>2026-06-01T06:39:12Z</time></trkpt>
<trkpt lat="46.529533" lon="7.153992"><ele>1040.0</ele><time>2026-06-01T06:39:20Z</time></trkpt>
<trkpt lat="46.529633" lon="7.154290"><ele>1037.7</ele><time>2026-06-01T06:39:28Z</time></trkpt>
<trkpt lat="46.529733" lon="7.154584"><ele>1035.3</ele><time>2026-06-01T06:39:36Z</time></trkpt>
<trkpt lat="46.529833" lon="7.154872"><ele>1033.0</ele><time>2026-06-01T06:39:44Z</time></trkpt>
<trkpt lat="46.529933" lon="7.155156"><ele>1030.6</ele><time>2026-06-01T06:39:52Z</time></trkpt>
<trkpt lat="46.530033" lon="7.155434"><ele>1028.2</ele><time>2026-06-01T06:40:00Z</time></trkpt>
<trkpt lat="46.530133" lon="7.155707"><ele>1025.8</ele><time>2026-06-01T06:40:08Z</time></trkpt>
<trkpt lat="46.530234" lon="7.155975"><ele>1023.4</ele><time>2026-06-01T06:40:16Z</time></trkpt>
<trkpt lat="46.530334" lon="7.156237"><ele>1020.9</ele><time>2026-06-01T06:40:24Z</time></trkpt>
<trkpt lat="46.530434" lon="7.156494"><ele>1018.5</ele><time>2026-06-01T06:40:32Z</time></trkpt>
<trkpt lat="46.530534" lon="7.156746"><ele>1016.0</ele><time>2026-06-01T06:40:40Z</time></trkpt>
<trkpt lat="46.530634" lon="7.156992"><ele>1013.5</ele><time>2026-06-01T06:40:48Z</time></trkpt>
<trkpt lat="46.530734" lon="7.157232"><ele>1011.0</ele><time>2026-06-01T06:40:56Z</time></trkpt>
<trkpt lat="46.530834" lon="7.157467"><ele>1008.5</ele><time>2026-06-01T06:41:04Z</time></trkpt>
<trkpt lat="46.530934" lon="7.157696"><ele>1005.9</ele><time>2026-06-01T06:41:12Z</time></trkpt>
<trkpt lat="46.531034" lon="7.157919"><ele>1003.4</ele><time>2026-06-01T06:41:20Z</time></trkpt>
<trkpt lat="46.531135" lon="7.158137"><ele>1000.8</ele><time>2026-06-01T06:41:28Z</time></trkpt>
<trkpt lat="46.531235" lon="7.158349"><ele>998.2</ele><time>2026-06-01T06:41:36Z</time></trkpt>
<trkpt lat="46.531335" lon="7.158555"><ele>995.7</ele><time>2026-06-01T06:41:44Z</time></trkpt>
<trkpt lat="46.531435" lon="7.158755"><ele>993.1</ele><time>2026-06-01T06:41:52Z</time></trkpt>
<trkpt lat="46.531535" lon="7.158949"><ele>990.5</ele><time>2026-06-01T06:42:00Z</time></trkpt>
<trkpt lat="46.531635" lon="7.159137"><ele>987.9</ele><time>2026-06-01T06:42:08Z</time></trkpt>
<trkpt lat="46.531735" lon="7.159319"><ele>985.3</ele><time>2026-06-01T06:42:16Z</time></trkpt>
<trkpt lat="46.531835" lon="7.159496"><ele>982.7</ele><time>2026-06-01T06:42:24Z</time></trkpt>
<trkpt lat="46.531935" lon="7.159666"><ele>980.0</ele><time>2026-06-01T06:42:32Z</time></trkpt>
<trkpt lat="46.532036" lon="7.159830"><ele>977.4</ele><time>2026-06-01T06:42:40Z</time></trkpt>
<trkpt lat="46.532136" lon="7.159989"><ele>974.8</ele><time>2026-06-01T06:42:48Z</time></trkpt>
<trkpt lat="46.532236" lon="7.160141"><ele>972.1</ele><time>2026-06-01T06:42:56Z</time></trkpt>
<trkpt lat="46.532336" lon="7.160288"><ele>969.5</ele><time>2026-06-01T06:43:04Z</time></trkpt>
<trkpt lat="46.532436" lon="7.160428"><ele>966.9</ele><time>2026-06-01T06:43:12Z</time></trkpt>
<trkpt lat="46.532536" lon="7.160563"><ele>964.2</ele><time>2026-06-01T06:43:20Z</time></trkpt>
<trkpt lat="46.532636" lon="7.160691"><ele>961.6</ele><time>2026-06-01T06:43:28Z</time></trkpt>
<trkpt lat="46.532736" lon="7.160814"><ele>958.9</ele><time>2026-06-01T06:43:36Z</time></trkpt>
<trkpt lat="46.532836" lon="7.160930"><ele>956.3</ele><time>2026-06-01T06:43:44Z</time></trkpt>
<trkpt lat="46.532937" lon="7.161041"><ele>953.7</ele><time>2026-06-01T06:43:52Z</time></trkpt>
<trkpt lat="46.533037" lon="7.161146"><ele>951.0</ele><time>2026-06-01T06:44:00Z</time></trkpt>
<trkpt lat="46.533137" lon="7.161245"><ele>948.4</ele><time>2026-06-01T06:44:08Z</time></trkpt>
<trkpt lat="46.533237" lon="7.161338"><ele>945.8</ele><time>2026-06-01T06:44:16Z</time></trkpt>
<trkpt lat="46.533337" lon="7.161425"><ele>943.2</ele><time>2026-06-01T06:44:24Z</time></trkpt>
<trkpt lat="46.533437" lon="7.161507"><ele>940.6</ele><time>2026-06-01T06:44:32Z</time></trkpt>
<trkpt lat="46.533537" lon="7.161583"><ele>938.0</ele><time>2026-06-01T06:44:40Z</time></trkpt>
<trkpt lat="46.533637" lon="7.161654"><ele>935.4</ele><time>2026-06-01T06:44:48Z</time></trkpt>
<trkpt lat="46.533737" lon="7.161718"><ele>932.8</ele><time>2026-06-01T06:44:56Z</time></trkpt>
<trkpt lat="46.533838" lon="7.161778"><ele>930.2</ele><time>2026-06-01T06:45:04Z</time></trkpt>
<trkpt lat="46.533938" lon="7.161831"><ele>927.6</ele><time>2026-06-01T06:45:12Z</time></trkpt>
<trkpt lat="46.534038" lon="7.161880"><ele>925.1</ele><time>2026-06-01T06:45:20Z</time></trkpt>
<trkpt lat="46.534138" lon="7.161923"><ele>922.5</ele><time>2026-06-01T06:45:28Z</time></trkpt>
<trkpt lat="46.534238" lon="7.161961"><ele>920.0</ele><time>2026-06-01T06:45:36Z</time></trkpt>
<trkpt lat="46.534338" lon="7.161993"><ele>917.4</ele><time>2026-06-01T06:45:44Z</time></trkpt>
<trkpt lat="46.534438" lon="7.162020"><ele>914.9</ele><time>2026-06-01T06:45:52Z</time></trkpt>
<trkpt lat="46.534538" lon="7.162043"><ele>912.4</ele><time>2026-06-01T06:46:00Z</time></trkpt>
<trkpt lat="46.534638" lon="7.162060"><ele>909.9</ele><time>2026-06-01T06:46:08Z</time></trkpt>
<trkpt lat="46.534739" lon="7.162073"><ele>907.5</ele><time>2026-06-01T06:46:16Z</time></trkpt>
<trkpt lat="46.534839" lon="7.162080"><ele>905.0</ele><time>2026-06-01T06:46:24Z</time></trkpt>
<trkpt lat="46.534939" lon="7.162083"><ele>902.6</ele><time>2026-06-01T06:46:32Z</time></trkpt>
<trkpt lat="46.535039" lon="7.162082"><ele>900.2</ele><time>2026-06-01T06:46:40Z</time></trkpt>
<trkpt lat="46.535139" lon="7.162075"><ele>897.8</ele><time>2026-06-01T06:46:48Z</time></trkpt>
<trkpt lat="46.535239" lon="7.162065"><ele>895.4</ele><time>2026-06-01T06:46:56Z</time></trkpt>
<trkpt lat="46.535339" lon="7.162050"><ele>893.1</ele><time>2026-06-01T06:47:04Z</time></trkpt>
<trkpt lat="46.535439" lon="7.162030"><ele>890.7</ele><time>2026-06-01T06:47:12Z</time></trkpt>
<trkpt lat="46.535539" lon="7.162007"><ele>888.4</ele><time>2026-06-01T06:47:20Z</time></trkpt>
<trkpt lat="46.535640" lon="7.161979"><ele>886.1</ele><time>2026-06-01T06:47:28Z</time></trkpt>
<trkpt lat="46.535740" lon="7.161948"><ele>883.8</ele><time>2026-06-01T06:47:36Z</time></trkpt>
<trkpt lat="46.535840" lon="7.161913"><ele>881.6</ele><time>2026-06-01T06:47:44Z</time></trkpt>
<trkpt lat="46.535940" lon="7.161874"><ele>879.4</ele><time>2026-06-01T06:47:52Z</time></trkpt>
<trkpt lat="46.536040" lon="7.161832"><ele>877.2</ele><time>2026-06-01T06:48:00Z</time></trkpt>
<trkpt lat="46.536140" lon="7.161786"><ele>875.0</ele><time>2026-06-01T06:48:08Z</time></trkpt>
<trkpt lat="46.536240" lon="7.161737"><ele>872.9</ele><time>2026-06-01T06:48:16Z</time></trkpt>
<trkpt lat="46.536340" lon="7.161684"><ele>870.7</ele><time>2026-06-01T06:48:24Z</time></trkpt>
<trkpt lat="46.536440" lon="7.161629"><ele>868.7</ele><time>2026-06-01T06:48:32Z</time></trkpt>
<trkpt lat="46.536541" lon="7.161570"><ele>866.6</ele><time>2026-06-01T06:48:40Z</time></trkpt>
<trkpt lat="46.536641" lon="7.161509"><ele>864.6</ele><time>2026-06-01T06:48:48Z</time></trkpt>
<trkpt lat="46.536741" lon="7.161445"><ele>862.6</ele><time>2026-06-01T06:48:56Z</time></trkpt>
<trkpt lat="46.536841" lon="7.161379"><ele>860.6</ele><time>2026-06-01T06:49:04Z</time></trkpt>
<trkpt lat="46.536941" lon="7.161310"><ele>858.6</ele><time>2026-06-01T06:49:12Z</time></trkpt>
<trkpt lat="46.537041" lon="7.161238"><ele>856.7</ele><time>2026-06-01T06:49:20Z</time></trkpt>
<trkpt lat="46.537141" lon="7.161165"><ele>854.9</ele><time>2026-06-01T06:49:28Z</time></trkpt>
<trkpt lat="46.537241" lon="7.161089"><ele>853.0</ele><time>2026-06-01T06:49:36Z</time></trkpt>
<trkpt lat="46.537341" lon="7.161012"><ele>851.2</ele><time>2026-06-01T06:49:44Z</time></trkpt>
<trkpt lat="46.537442" lon="7.160933"><ele>849.4</ele><time>2026-06-01T06:49:52Z</time></trkpt>
<trkpt lat="46.537542" lon="7.160852"><ele>847.7</ele><time>2026-06-01T06:50:00Z</time></trkpt>
<trkpt lat="46.537642" lon="7.160770"><ele>846.0</ele><time>2026-06-01T06:50:08Z</time></trkpt>
<trkpt lat="46.537742" lon="7.160686"><ele>844.3</ele><time>2026-06-01T06:50:16Z</time></trkpt>
<trkpt lat="46.537842" lon="7.160602"><ele>842.7</ele><time>2026-06-01T06:50:24Z</time></trkpt>
<trkpt lat="46.537942" lon="7.160516"><ele>841.1</ele><time>2026-06-01T06:50:32Z</time></trkpt>
<trkpt lat="46.538042" lon="7.160429"><ele>839.5</ele><time>2026-06-01T06:50:40Z</time></trkpt>
<trkpt lat="46.538142" lon="7.160342"><ele>838.0</ele><time>2026-06-01T06:50:48Z</time></trkpt>
<trkpt lat="46.538242" lon="7.160254"><ele>836.5</ele><time>2026-06-01T06:50:56Z</time></trkpt>
<trkpt lat="46.538343" lon="7.160165"><ele>835.1</ele><time>2026-06-01T06:51:04Z</time></trkpt>
<trkpt lat="46.538443" lon="7.160076"><ele>833.7</ele><time>2026-06-01T06:51:12Z</time></trkpt>
<trkpt lat="46.538543" lon="7.159987"><ele>832.3</ele><time>2026-06-01T06:51:20Z</time></trkpt>
<trkpt lat="46.538643" lon="7.159899"><ele>831.0</ele><time>2026-06-01T06:51:28Z</time></trkpt>
<trkpt lat="46.538743" lon="7.159810"><ele>829.7</ele><time>2026-06-01T06:51:36Z</time></trkpt>
<trkpt lat="46.538843" lon="7.159721"><ele>828.5</ele><time>2026-06-01T06:51:44Z</time></trkpt>
<trkpt lat="46.538943" lon="7.159633"><ele>827.3</ele><time>2026-06-01T06:51:52Z</time></trkpt>
<trkpt lat="46.539043" lon="7.159545"><ele>826.1</ele><time>2026-06-01T06:52:00Z</time></trkpt>
<trkpt lat="46.539143" lon="7.159458"><ele>825.0</ele><time>2026-06-01T06:52:08Z</time></trkpt>
<trkpt lat="46.539244" lon="7.159372"><ele>824.0</ele><time>2026-06-01T06:52:16Z</time></trkpt>
<trkpt lat="46.539344" lon="7.159287"><ele>823.0</ele><time>2026-06-01T06:52:24Z</time></trkpt>
<trkpt lat="46.539444" lon="7.159204"><ele>822.0</ele><time>2026-06-01T06:52:32Z</time></trkpt>
<trkpt lat="46.539544" lon="7.159121"><ele>821.1</ele><time>2026-06-01T06:52:40Z</time></trkpt>
<trkpt lat="46.539644" lon="7.159040"><ele>820.2</ele><time>2026-06-01T06:52:48Z</time></trkpt>
<trkpt lat="46.539744" lon="7.158960"><ele>819.3</ele><time>2026-06-01T06:52:56Z</time></trkpt>
<trkpt lat="46.539844" lon="7.158882"><ele>818.5</ele><time>2026-06-01T06:53:04Z</time></trkpt>
<trkpt lat="46.539944" lon="7.158806"><ele>817.8</ele><time>2026-06-01T06:53:12Z</time></trkpt>
<trkpt lat="46.540044" lon="7.158732"><ele>817.1</ele><time>2026-06-01T06:53:20Z</time></trkpt>
<trkpt lat="46.540145" lon="7.158661"><ele>816.5</ele><time>2026-06-01T06:53:28Z</time></trkpt>
<trkpt lat="46.540245" lon="7.158591"><ele>815.9</ele><time>2026-06-01T06:53:36Z</time></trkpt>
<trkpt lat="46.540345" lon="7.158524"><ele>815.3</ele><time>2026-06-01T06:53:44Z</time></trkpt>
<trkpt lat="46.540445" lon="7.158459"><ele>814.8</ele><time>2026-06-01T06:53:52Z</time></trkpt>
<trkpt lat="46.540545" lon="7.158397"><ele>814.4</ele><time>2026-06-01T06:54:00Z</time></trkpt>
<trkpt lat="46.540645" lon="7.158338"><ele>813.9</ele><time>2026-06-01T06:54:08Z</time></trkpt>
<trkpt lat="46.540745" lon="7.158282"><ele>813.6</ele><time>2026-06-01T06:54:16Z</time></trkpt>
<trkpt lat="46.540845" lon="7.158228"><ele>813.3</ele><time>2026-06-01T06:54:24Z</time></trkpt>
<trkpt lat="46.540945" lon="7.158178"><ele>813.0</ele><time>2026-06-01T06:54:32Z</time></trkpt>
<trkpt lat="46.541046" lon="7.158132"><ele>812.8</ele><time>2026-06-01T06:54:40Z</time></trkpt>
<trkpt lat="46.541146" lon="7.158088"><ele>812.7</ele><time>2026-06-01T06:54:48Z</time></trkpt>
<trkpt lat="46.541246" lon="7.158048"><ele>812.6</ele><time>2026-06-01T06:54:56Z</time></trkpt>
<trkpt lat="46.541346" lon="7.158012"><ele>812.6</ele><time>2026-06-01T06:55:04Z</time></trkpt>
<trkpt lat="46.541446" lon="7.157980"><ele>812.6</ele><time>2026-06-01T06:55:12Z</time></trkpt>
<trkpt lat="46.541546" lon="7.157952"><ele>812.6</ele><time>2026-06-01T06:55:20Z</time></trkpt>
<trkpt lat="46.541646" lon="7.157927"><ele>812.7</ele><time>2026-06-01T06:55:28Z</time></trkpt>
<trkpt lat="46.541746" lon="7.157907"><ele>812.9</ele><time>2026-06-01T06:55:36Z</time></trkpt>
<trkpt lat="46.541846" lon="7.157891"><ele>813.1</ele><time>2026-06-01T06:55:44Z</time></trkpt>
<trkpt lat="46.541947" lon="7.157879"><ele>813.4</ele><time>2026-06-01T06:55:52Z</time></trkpt>
<trkpt lat="46.542047" lon="7.157871"><ele>813.7</ele><time>2026-06-01T06:56:00Z</time></trkpt>
<trkpt lat="46.542147" lon="7.157869"><ele>814.1</ele><time>2026-06-01T06:56:08Z</time></trkpt>
<trkpt lat="46.542247" lon="7.157870"><ele>814.5</ele><time>2026-06-01T06:56:16Z</time></trkpt>
<trkpt lat="46.542347" lon="7.157877"><ele>815.0</ele><time>2026-06-01T06:56:24Z</time></trkpt>
<trkpt lat="46.542447" lon="7.157888"><ele>815.5</ele><time>2026-06-01T06:56:32Z</time></trkpt>
<trkpt lat="46.542547" lon="7.157904"><ele>816.1</ele><time>2026-06-01T06:56:40Z</time></trkpt>
<trkpt lat="46.542647" lon="7.157925"><ele>816.8</ele><time>2026-06-01T06:56:48Z</time></trkpt>
<trkpt lat="46.542747" lon="7.157951"><ele>817.5</ele><time>2026-06-01T06:56:56Z</time></trkpt>
<trkpt lat="46.542848" lon="7.157982"><ele>818.2</ele><time>2026-06-01T06:57:04Z</time></trkpt>
<trkpt lat="46.542948" lon="7.158019"><ele>819.1</ele><time>2026-06-01T06:57:12Z</time></trkpt>
<trkpt lat="46.543048" lon="7.158060"><ele>819.9</ele><time>2026-06-01T06:57:20Z</time></trkpt>
<trkpt lat="46.543148" lon="7.158107"><ele>820.8</ele><time>2026-06-01T06:57:28Z</time></trkpt>
<trkpt lat="46.543248" lon="7.158160"><ele>821.8</ele><time>2026-06-01T06:57:36Z</time></trkpt>
<trkpt lat="46.543348" lon="7.158217"><ele>822.9</ele><time>2026-06-01T06:57:44Z</time></trkpt>
<trkpt lat="46.543448" lon="7.158281"><ele>823.9</ele><time>2026-06-01T06:57:52Z</time></trkpt>
<trkpt lat="46.543548" lon="7.158350"><ele>825.1</ele><time>2026-06-01T06:58:00Z</time></trkpt>
<trkpt lat="46.543648" lon="7.158424"><ele>826.3</ele><time>2026-06-01T06:58:08Z</time></trkpt>
<trkpt lat="46.543749" lon="7.158504"><ele>827.5</ele><time>2026-06-01T06:58:16Z</time></trkpt>
<trkpt lat="46.543849" lon="7.158590"><ele>828.8</ele><time>2026-06-01T06:58:24Z</time></trkpt>
<trkpt lat="46.543949" lon="7.158682"><ele>830.2</ele><time>2026-06-01T06:58:32Z</time></trkpt>
<trkpt lat="46.544049" lon="7.158779"><ele>831.6</ele><time>2026-06-01T06:58:40Z</time></trkpt>
<trkpt lat="46.544149" lon="7.158883"><ele>833.1</ele><time>2026-06-01T06:58:48Z</time></trkpt>
<trkpt lat="46.544249" lon="7.158992"><ele>834.6</ele><time>2026-06-01T06:58:56Z</time></trkpt>
<trkpt lat="46.544349" lon="7.159107"><ele>836.2</ele><time>2026-06-01T06:59:04Z</time></trkpt>
<trkpt lat="46.544449" lon="7.159228"><ele>837.8</ele><time>2026-06-01T06:59:12Z</time></trkpt>
<trkpt lat="46.544549" lon="7.159355"><ele>839.5</ele><time>2026-06-01T06:59:20Z</time></trkpt>
<trkpt lat="46.544650" lon="7.159488"><ele>841.3</ele><time>2026-06-01T06:59:28Z</time></trkpt>
<trkpt lat="46.544750" lon="7.159627"><ele>843.1</ele><time>2026-06-01T06:59:36Z</time></trkpt>
<trkpt lat="46.544850" lon="7.159772"><ele>844.9</ele><time>2026-06-01T06:59:44Z</time></trkpt>
<trkpt lat="46.544950" lon="7.159922"><ele>846.9</ele><time>2026-06-01T06:59:52Z</time></trkpt>
<trkpt lat="46.545050" lon="7.160079"><ele>848.8</ele><time>2026-06-01T06:00:00Z</time></trkpt>
<trkpt lat="46.545150" lon="7.160242"><ele>850.8</ele><time>2026-06-01T06:00:08Z</time></trkpt>
<trkpt lat="46.545250" lon="7.160411"><ele>852.9</ele><time>2026-06-01T06:00:16Z</time></trkpt>
<trkpt lat="46.545350" lon="7.160586"><ele>855.0</ele><time>2026-06-01T06:00:24Z</time></trkpt>
<trkpt lat="46.545451" lon="7.160766"><ele>857.2</ele><time>2026-06-01T06:00:32Z</time></trkpt>
<trkpt lat="46.545551" lon="7.160953"><ele>859.4</ele><time>2026-06-01T06:00:40Z</time></trkpt>
<trkpt lat="46.545651" lon="7.161146"><ele>861.7</ele><time>2026-06-01T06:00:48Z</time></trkpt>
<trkpt lat="46.545751" lon="7.161344"><ele>864.1</ele><time>2026-06-01T06:00:56Z</time></trkpt>
<trkpt lat="46.545851" lon="7.161548"><ele>866.5</ele><time>2026-06-01T06:01:04Z</time></trkpt>
<trkpt lat="46.545951" lon="7.161759"><ele>868.9</ele><time>2026-06-01T06:01:12Z</time></trkpt>
<trkpt lat="46.546051" lon="7.161975"><ele>871.4</ele><time>2026-06-01T06:01:20Z</time></trkpt>
<trkpt lat="46.546151" lon="7.162197"><ele>874.0</ele><time>2026-06-01T06:01:28Z</time></trkpt>
<trkpt lat="46.546251" lon="7.162424"><ele>876.6</ele><time>2026-06-01T06:01:36Z</time></trkpt>
<trkpt lat="46.546352" lon="7.162658"><ele>879.2</ele><time>2026-06-01T06:01:44Z</time></trkpt>
<trkpt lat="46.546452" lon="7.162897"><ele>881.9</ele><time>2026-06-01T06:01:52Z</time></trkpt>
<trkpt lat="46.546552" lon="7.163141"><ele>884.7</ele><time>2026-06-01T06:02:00Z</time></trkpt>
<trkpt lat="46.546652" lon="7.163391"><ele>887.5</ele><time>2026-06-01T06:02:08Z</time></trkpt>
<trkpt lat="46.546752" lon="7.163647"><ele>890.3</ele><time>2026-06-01T06:02:16Z</time></trkpt>
<trkpt lat="46.546852" lon="7.163908"><ele>893.2</ele><time>2026-06-01T06:02:24Z</time></trkpt>
<trkpt lat="46.546952" lon="7.164174"><ele>896.2</ele><time>2026-06-01T06:02:32Z</time></trkpt>
<trkpt lat="46.547052" lon="7.164446"><ele>899.2</ele><time>2026-06-01T06:02:40Z</time></trkpt>
<trkpt lat="46.547152" lon="7.164723"><ele>902.2</ele><time>2026-06-01T06:02:48Z</time></trkpt>
<trkpt lat="46.547253" lon="7.165005"><ele>905.3</ele><time>2026-06-01T06:02:56Z</time></trkpt>
<trkpt lat="46.547353" lon="7.165292"><ele>908.5</ele><time>2026-06-01T06:03:04Z</time></trkpt>
<trkpt lat="46.547453" lon="7.165585"><ele>911.6</ele><time>2026-06-01T06:03:12Z</time></trkpt>
<trkpt lat="46.547553" lon="7.165882"><ele>914.9</ele><time>2026-06-01T06:03:20Z</time></trkpt>
<trkpt lat="46.547653" lon="7.166184"><ele>918.2</ele><time>2026-06-01T06:03:28Z</time></trkpt>
<trkpt lat="46.547753" lon="7.166490"><ele>921.5</ele><time>2026-06-01T06:03:36Z</time></trkpt>
<trkpt lat="46.547853" lon="7.166802"><ele>924.9</ele><time>2026-06-01T06:03:44Z</time></trkpt>
<trkpt lat="46.547953" lon="7.167118"><ele>928.3</ele><time>2026-06-01T06:03:52Z</time></trkpt>
<trkpt lat="46.548053" lon="7.167438"><ele>931.8</ele><time>2026-06-01T06:04:00Z</time></trkpt>
<trkpt lat="46.548154" lon="7.167763"><ele>935.3</ele><time>2026-06-01T06:04:08Z</time></trkpt>
<trkpt lat="46.548254" lon="7.168092"><ele>938.8</ele><time>2026-06-01T06:04:16Z</time></trkpt>
<trkpt lat="46.548354" lon="7.168426"><ele>942.4</ele><time>2026-06-01T06:04:24Z</time></trkpt>
<trkpt lat="46.548454" lon="7.168763"><ele>946.1</ele><time>2026-06-01T06:04:32Z</time></trkpt>
<trkpt lat="46.548554" lon="7.169104"><ele>949.8</ele><time>2026-06-01T06:04:40Z</time></trkpt>
<trkpt lat="46.548654" lon="7.169450"><ele>953.5</ele><time>2026-06-01T06:04:48Z</time></trkpt>
<trkpt lat="46.548754" lon="7.169798"><ele>957.2</ele><time>2026-06-01T06:04:56Z</time></trkpt>
<trkpt lat="46.548854" lon="7.170151"><ele>961.1</ele><time>2026-06-01T06:05:04Z</time></trkpt>
<trkpt lat="46.548954" lon="7.170507"><ele>964.9</ele><time>2026-06-01T06:05:12Z</time></trkpt>
<trkpt lat="46.549055" lon="7.170866"><ele>968.8</ele><time>2026-06-01T06:05:20Z</time></trkpt>
<trkpt lat="46.549155" lon="7.171229"><ele>972.7</ele><time>2026-06-01T06:05:28Z</time></trkpt>
<trkpt lat="46.549255" lon="7.171595"><ele>976.7</ele><time>2026-06-01T06:05:36Z</time></trkpt>
<trkpt lat="46.549355" lon="7.171964"><ele>980.7</ele><time>2026-06-01T06:05:44Z</time></trkpt>
<trkpt lat="46.549455" lon="7.172335"><ele>984.7</ele><time>2026-06-01T06:05:52Z</time></trkpt>
<trkpt lat="46.549555" lon="7.172710"><ele>988.8</ele><time>2026-06-01T06:06:00Z</time></trkpt>
<trkpt lat="46.549655" lon="7.173087"><ele>992.9</ele><time>2026-06-01T06:06:08Z</time></trkpt>
<trkpt lat="46.549755" lon="7.173466"><ele>997.0</ele><time>2026-06-01T06:06:16Z</time></trkpt>
<trkpt lat="46.549855" lon="7.173848"><ele>1001.2</ele><time>2026-06-01T06:06:24Z</time></trkpt>
<trkpt lat="46.549956" lon="7.174232"><ele>1005.4</ele><time>2026-06-01T06:06:32Z</time></trkpt>
<trkpt lat="46.550056" lon="7.174619"><ele>1009.7</ele><time>2026-06-01T06:06:40Z</time></trkpt>
<trkpt lat="46.550156" lon="7.175007"><ele>1013.9</ele><time>2026-06-01T06:06:48Z</time></trkpt>
<trkpt lat="46.550256" lon="7.175397"><ele>1018.2</ele><time>2026-06-01T06:06:56Z</time></trkpt>
<trkpt lat="46.550356" lon="7.175788"><ele>1022.6</ele><time>2026-06-01T06:07:04Z</time></trkpt>
<trkpt lat="46.550456" lon="7.176181"><ele>1027.0</ele><time>2026-06-01T06:07:12Z</time></trkpt>
<trkpt lat="46.550556" lon="7.176576"><ele>1031.4</ele><time>2026-06-01T06:07:20Z</time></trkpt>
<trkpt lat="46.550656" lon="7.176972"><ele>1035.8</ele><time>2026-06-01T06:07:28Z</time></trkpt>
<trkpt lat="46.550756" lon="7.177369"><ele>1040.2</ele><time>2026-06-01T06:07:36Z</time></trkpt>
<trkpt lat="46.550857" lon="7.177766"><ele>1044.7</ele><time>2026-06-01T06:07:44Z</time></trkpt>
<trkpt lat="46.550957" lon="7.178165"><ele>1049.2</ele><time>2026-06-01T06:07:52Z</time></trkpt>
<trkpt lat="46.551057" lon="7.178564"><ele>1053.8</ele><time>2026-06-01T06:08:00Z</time></trkpt>
<trkpt lat="46.551157" lon="7.178964"><ele>1058.3</ele><time>2026-06-01T06:08:08Z</time></trkpt>
<trkpt lat="46.551257" lon="7.179364"><ele>1062.9</ele><time>2026-06-01T06:08:16Z</time></trkpt>
<trkpt lat="46.551357" lon="7.179765"><ele>1067.5</ele><time>2026-06-01T06:08:24Z</time></trkpt>
<trkpt lat="46.551457" lon="7.180165"><ele>1072.2</ele><time>2026-06-01T06:08:32Z</time></trkpt>
<trkpt lat="46.551557" lon="7.180565"><ele>1076.8</ele><time>2026-06-01T06:08:40Z</time></trkpt>
<trkpt lat="46.551657" lon="7.180966"><ele>1081.5</ele><time>2026-06-01T06:08:48Z</time></trkpt>
<trkpt lat="46.551758" lon="7.181365"><ele>1086.2</ele><time>2026-06-01T06:08:56Z</time></trkpt>
<trkpt lat="46.551858" lon="7.181765"><ele>1090.9</ele><time>2026-06-01T06:09:04Z</time></trkpt>
<trkpt lat="46.551958" lon="7.182163"><ele>1095.7</ele><time>2026-06-01T06:09:12Z</time></trkpt>
<trkpt lat="46.552058" lon="7.182561"><ele>1100.4</ele><time>2026-06-01T06:09:20Z</time></trkpt>
<trkpt lat="46.552158" lon="7.182958"><ele>1105.2</ele><time>2026-06-01T06:09:28Z</time></trkpt>
<trkpt lat="46.552258" lon="7.183354"><ele>1110.0</ele><time>2026-06-01T06:09:36Z</time></trkpt>
<trkpt lat="46.552358" lon="7.183748"><ele>1114.8</ele><time>2026-06-01T06:09:44Z</time></trkpt>
<trkpt lat="46.552458" lon="7.184141"><ele>1119.6</ele><time>2026-06-01T06:09:52Z</time></trkpt>
<trkpt lat="46.552558" lon="7.184533"><ele>1124.5</ele><time>2026-06-01T06:10:00Z</time></trkpt>
<trkpt lat="46.552659" lon="7.184923"><ele>1129.3</ele><time>2026-06-01T06:10:08Z</time></trkpt>
<trkpt lat="46.552759" lon="7.185311"><ele>1134.2</ele><time>2026-06-01T06:10:16Z</time></trkpt>
<trkpt lat="46.552859" lon="7.185697"><ele>1139.1</ele><time>2026-06-01T06:10:24Z</time></trkpt>
<trkpt lat="46.552959" lon="7.186081"><ele>1144.0</ele><time>2026-06-01T06:10:32Z</time></trkpt>
<trkpt lat="46.553059" lon="7.186463"><ele>1148.9</ele><time>2026-06-01T06:10:40Z</time></trkpt>
<trkpt lat="46.553159" lon="7.186843"><ele>1153.8</ele><time>2026-06-01T06:10:48Z</time></trkpt>
<trkpt lat="46.553259" lon="7.187220"><ele>1158.7</ele><time>2026-06-01T06:10:56Z</time></trkpt>
<trkpt lat="46.553359" lon="7.187595"><ele>1163.6</ele><time>2026-06-01T06:11:04Z</time></trkpt>
<trkpt lat="46.553459" lon="7.187966"><ele>1168.5</ele><time>2026-06-01T06:11:12Z</time></trkpt>
<trkpt lat="46.553560" lon="7.188335"><ele>1173.5</ele><time>2026-06-01T06:11:20Z</time></trkpt>
<trkpt lat="46.553660" lon="7.188701"><ele>1178.4</ele><time>2026-06-01T06:11:28Z</time></trkpt>
<trkpt lat="46.553760" lon="7.189064"><ele>1183.4</ele><time>2026-06-01T06:11:36Z</time></trkpt>
<trkpt lat="46.553860" lon="7.189423"><ele>1188.3</ele><time>2026-06-01T06:11:44Z</time></trkpt>
<trkpt lat="46.553960" lon="7.189779"><ele>1193.3</ele><time>2026-06-01T06:11:52Z</time></trkpt>
<trkpt lat="46.554060" lon="7.190132"><ele>1198.2</ele><time>2026-06-01T06:12:00Z</time></trkpt>
<trkpt lat="46.554160" lon="7.190481"><ele>1203.2</ele><time>2026-06-01T06:12:08Z</time></trkpt>
<trkpt lat="46.554260" lon="7.190826"><ele>1208.1</ele><time>2026-06-01T06:12:16Z</time></trkpt>
<trkpt lat="46.554360" lon="7.191167"><ele>1213.1</ele><time>2026-06-01T06:12:24Z</time></trkpt>
<trkpt lat="46.554461" lon="7.191505"><ele>1218.0</ele><time>2026-06-01T06:12:32Z</time></trkpt>
<trkpt lat="46.554561" lon="7.191838"><ele>1223.0</ele><time>2026-06-01T06:12:40Z</time></trkpt>
<trkpt lat="46.554661" lon="7.192167"><ele>1227.9</ele><time>2026-06-01T06:12:48Z</time></trkpt>
<trkpt lat="46.554761" lon="7.192492"><ele>1232.9</ele><time>2026-06-01T06:12:56Z</time></trkpt>
<trkpt lat="46.554861" lon="7.192813"><ele>1237.8</ele><time>2026-06-01T06:13:04Z</time></trkpt>
<trkpt lat="46.554961" lon="7.193129"><ele>1242.7</ele><time>2026-06-01T06:13:12Z</time></trkpt>
<trkpt lat="46.555061" lon="7.193440"><ele>1247.6</ele><time>2026-06-01T06:13:20Z</time></trkpt>
<trkpt lat="46.555161" lon="7.193747"><ele>1252.5</ele><time>2026-06-01T06:13:28Z</time></trkpt>
<trkpt lat="46.555261" lon="7.194049"><ele>1257.5</ele><time>2026-06-01T06:13:36Z</time></trkpt>
<trkpt lat="46.555362" lon="7.194347"><ele>1262.3</ele><time>2026-06-01T06:13:44Z</time></trkpt>
<trkpt lat="46.555462" lon="7.194639"><ele>1267.2</ele><time>2026-06-01T06:13:52Z</time></trkpt>
<trkpt lat="46.555562" lon="7.194926"><ele>1272.1</ele><time>2026-06-01T06:14:00Z</time></trkpt>
<trkpt lat="46.555662" lon="7.195208"><ele>1277.0</ele><time>2026-06-01T06:14:08Z</time></trkpt>
<trkpt lat="46.555762" lon="7.195485"><ele>1281.8</ele><time>2026-06-01T06:14:16Z</time></trkpt>
<trkpt lat="46.555862" lon="7.195757"><ele>1286.6</ele><time>2026-06-01T06:14:24Z</time></trkpt>
<trkpt lat="46.555962" lon="7.196024"><ele>1291.5</ele><time>2026-06-01T06:14:32Z</time></trkpt>
<trkpt lat="46.556062" lon="7.196285"><ele>1296.3</ele><time>2026-06-01T06:14:40Z</time></trkpt>
<trkpt lat="46.556162" lon="7.196541"><ele>1301.0</ele><time>2026-06-01T06:14:48Z</time></trkpt>
<trkpt lat="46.556263" lon="7.196791"><ele>1305.8</ele><time>2026-06-01T06:14:56Z</time></trkpt>
<trkpt lat="46.556363" lon="7.197035"><ele>1310.5</ele><time>2026-06-01T06:15:04Z</time></trkpt>
<trkpt lat="46.556463" lon="7.197274"><ele>1315.3</ele><time>2026-06-01T06:15:12Z</time></trkpt>
<trkpt lat="46.556563" lon="7.197508"><ele>1320.0</ele><time>2026-06-01T06:15:20Z</time></trkpt>
<trkpt lat="46.556663" lon="7.197736"><ele>1324.7</ele><time>2026-06-01T06:15:28Z</time></trkpt>
<trkpt lat="46.556763" lon="7.197957"><ele>1329.3</ele><time>2026-06-01T06:15:36Z</time></trkpt>
<trkpt lat="46.556863" lon="7.198174"><ele>1334.0</ele><time>2026-06-01T06:15:44Z</time></trkpt>
<trkpt lat="46.556963" lon="7.198384"><ele>1338.6</ele><time>2026-06-01T06:15:52Z</time></trkpt>
<trkpt lat="46.557063" lon="7.198588"><ele>1343.2</ele><time>2026-06-01T06:16:00Z</time></trkpt>
<trkpt lat="46.557164" lon="7.198787"><ele>1347.7</ele><time>2026-06-01T06:16:08Z</time></trkpt>
<trkpt lat="46.557264" lon="7.198980"><ele>1352.3</ele><time>2026-06-01T06:16:16Z</time></trkpt>
<trkpt lat="46.557364" lon="7.199167"><ele>1356.8</ele><time>2026-06-01T06:16:24Z</time></trkpt>
<trkpt lat="46.557464" lon="7.199347"><ele>1361.3</ele><time>2026-06-01T06:16:32Z</time></trkpt>
<trkpt lat="46.557564" lon="7.199522"><ele>1365.7</ele><time>2026-06-01T06:16:40Z</time></trkpt>
<trkpt lat="46.557664" lon="7.199691"><ele>1370.1</ele><time>2026-06-01T06:16:48Z</time></trkpt>
<trkpt lat="46.557764" lon="7.199854"><ele>1374.5</ele><time>2026-06-01T06:16:56Z</time></trkpt>
<trkpt lat="46.557864" lon="7.200011"><ele>1378.9</ele><time>2026-06-01T06:17:04Z</time></trkpt>
<trkpt lat="46.557964" lon="7.200162"><ele>1383.2</ele><time>2026-06-01T06:17:12Z</time></trkpt>
<trkpt lat="46.558065" lon="7.200307"><ele>1387.5</ele><time>2026-06-01T06:17:20Z</time></trkpt>
<trkpt lat="46.558165" lon="7.200446"><ele>1391.8</ele><time>2026-06-01T06:17:28Z</time></trkpt>
<trkpt lat="46.558265" lon="7.200579"><ele>1396.0</ele><time>2026-06-01T06:17:36Z</time></trkpt>
<trkpt lat="46.558365" lon="7.200706"><ele>1400.2</ele><time>2026-06-01T06:17:44Z</time></trkpt>
<trkpt lat="46.558465" lon="7.200827"><ele>1404.4</ele><time>2026-06-01T06:17:52Z</time></trkpt>
<trkpt lat="46.558565" lon="7.200942"><ele>1408.5</ele><time>2026-06-01T06:18:00Z</time></trkpt>
<trkpt lat="46.558665" lon="7.201051"><ele>1412.5</ele><time>2026-06-01T06:18:08Z</time></trkpt>
<trkpt lat="46.558765" lon="7.201155"><ele>1416.6</ele><time>2026-06-01T06:18:16Z</time></trkpt>
<trkpt lat="46.558865" lon="7.201252"><ele>1420.6</ele><time>2026-06-01T06:18:24Z</time></trkpt>
<trkpt lat="46.558966" lon="7.201344"><ele>1424.5</ele><time>2026-06-01T06:18:32Z</time></trkpt>
<trkpt lat="46.559066" lon="7.201430"><ele>1428.5</ele><time>2026-06-01T06:18:40Z</time></trkpt>
<trkpt lat="46.559166" lon="7.201510"><ele>1432.3</ele><time>2026-06-01T06:18:48Z</time></trkpt>
<trkpt lat="46.559266" lon="7.201585"><ele>1436.2</ele><time>2026-06-01T06:18:56Z</time></trkpt>
<trkpt lat="46.559366" lon="7.201654"><ele>1439.9</ele><time>2026-06-01T06:19:04Z</time></trkpt>
<trkpt lat="46.559466" lon="7.201717"><ele>1443.7</ele><time>2026-06-01T06:19:12Z</time></trkpt>
<trkpt lat="46.559566" lon="7.201775"><ele>1447.4</ele><time>2026-06-01T06:19:20Z</time></trkpt>
<trkpt lat="46.559666" lon="7.201828"><ele>1451.0</ele><time>2026-06-01T06:19:28Z</time></trkpt>
<trkpt lat="46.559766" lon="7.201875"><ele>1454.6</ele><time>2026-06-01T06:19:36Z</time></trkpt>
<trkpt lat="46.559867" lon="7.201916"><ele>1458.2</ele><time>2026-06-01T06:19:44Z</time></trkpt>
<trkpt lat="46.559967" lon="7.201953"><ele>1461.7</ele><time>2026-06-01T06:19:52Z</time></trkpt>
<trkpt lat="46.560067" lon="7.201984"><ele>1465.2</ele><time>2026-06-01T06:20:00Z</time></trkpt>
<trkpt lat="46.560167" lon="7.202010"><ele>1468.6</ele><time>2026-06-01T06:20:08Z</time></trkpt>
<trkpt lat="46.560267" lon="7.202031"><ele>1471.9</ele><time>2026-06-01T06:20:16Z</time></trkpt>
<trkpt lat="46.560367" lon="7.202048"><ele>1475.2</ele><time>2026-06-01T06:20:24Z</time></trkpt>
<trkpt lat="46.560467" lon="7.202059"><ele>1478.5</ele><time>2026-06-01T06:20:32Z</time></trkpt>
<trkpt lat="46.560567" lon="7.202065"><ele>1481.7</ele><time>2026-06-01T06:20:40Z</time></trkpt>
<trkpt lat="46.560667" lon="7.202067"><ele>1484.9</ele><time>2026-06-01T06:20:48Z</time></trkpt>
<trkpt lat="46.560768" lon="7.202064"><ele>1488.0</ele><time>2026-06-01T06:20:56Z</time></trkpt>
<trkpt lat="46.560868" lon="7.202057"><ele>1491.0</ele><time>2026-06-01T06:21:04Z</time></trkpt>
<trkpt lat="46.560968" lon="7.202045"><ele>1494.0</ele><time>2026-06-01T06:21:12Z</time></trkpt>
<trkpt lat="46.561068" lon="7.202029"><ele>1496.9</ele><time>2026-06-01T06:21:20Z</time></trkpt>
<trkpt lat="46.561168" lon="7.202009"><ele>1499.8</ele><time>2026-06-01T06:21:28Z</time></trkpt>
<trkpt lat="46.561268" lon="7.201984"><ele>1502.6</ele><time>2026-06-01T06:21:36Z</time></trkpt>
<trkpt lat="46.561368" lon="7.201956"><ele>1505.4</ele><time>2026-06-01T06:21:44Z</time></trkpt>
<trkpt lat="46.561468" lon="7.201924"><ele>1508.1</ele><time>2026-06-01T06:21:52Z</time></trkpt>
<trkpt lat="46.561568" lon="7.201888"><ele>1510.7</ele><time>2026-06-01T06:22:00Z</time></trkpt>
<trkpt lat="46.561669" lon="7.201848"><ele>1513.3</ele><time>2026-06-01T06:22:08Z</time></trkpt>
<trkpt lat="46.561769" lon="7.201805"><ele>1515.8</ele><time>2026-06-01T06:22:16Z</time></trkpt>
<trkpt lat="46.561869" lon="7.201758"><ele>1518.3</ele><time>2026-06-01T06:22:24Z</time></trkpt>
<trkpt lat="46.561969" lon="7.201708"><ele>1520.7</ele><time>2026-06-01T06:22:32Z</time></trkpt>
<trkpt lat="46.562069" lon="7.201655"><ele>1523.1</ele><time>2026-06-01T06:22:40Z</time></trkpt>
<trkpt lat="46.562169" lon="7.201599"><ele>1525.3</ele><time>2026-06-01T06:22:48Z</time></trkpt>
<trkpt lat="46.562269" lon="7.201539"><ele>1527.6</ele><time>2026-06-01T06:22:56Z</time></trkpt>
<trkpt lat="46.562369" lon="7.201478"><ele>1529.7</ele><time>2026-06-01T06:23:04Z</time></trkpt>
<trkpt lat="46.562469" lon="7.201413"><ele>1531.8</ele><time>2026-06-01T06:23:12Z</time></trkpt>
<trkpt lat="46.562570" lon="7.201346"><ele>1533.8</ele><time>2026-06-01T06:23:20Z</time></trkpt>
<trkpt lat="46.562670" lon="7.201276"><ele>1535.8</ele><time>2026-06-01T06:23:28Z</time></trkpt>
<trkpt lat="46.562770" lon="7.201204"><ele>1537.7</ele><time>2026-06-01T06:23:36Z</time></trkpt>
<trkpt lat="46.562870" lon="7.201130"><ele>1539.5</ele><time>2026-06-01T06:23:44Z</time></trkpt>
<trkpt lat="46.562970" lon="7.201054"><ele>1541.3</ele><time>2026-06-01T06:23:52Z</time></trkpt>
<trkpt lat="46.563070" lon="7.200977"><ele>1543.0</ele><time>2026-06-01T06:24:00Z</time></trkpt>
<trkpt lat="46.563170" lon="7.200897"><ele>1544.6</ele><time>2026-06-01T06:24:08Z</time></trkpt>
<trkpt lat="46.563270" lon="7.200816"><ele>1546.2</ele><time>2026-06-01T06:24:16Z</time></trkpt>
<trkpt lat="46.563370" lon="7.200733"><ele>1547.7</ele><time>2026-06-01T06:24:24Z</time></trkpt>
<trkpt lat="46.563471" lon="7.200649"><ele>1549.1</ele><time>2026-06-01T06:24:32Z</time></trkpt>
<trkpt lat="46.563571" lon="7.200564"><ele>1550.5</ele><time>2026-06-01T06:24:40Z</time></trkpt>
<trkpt lat="46.563671" lon="7.200478"><ele>1551.8</ele><time>2026-06-01T06:24:48Z</time></trkpt>
<trkpt lat="46.563771" lon="7.200392"><ele>1553.0</ele><time>2026-06-01T06:24:56Z</time></trkpt>
<trkpt lat="46.563871" lon="7.200304"><ele>1554.2</ele><time>2026-06-01T06:25:04Z</time></trkpt>
<trkpt lat="46.563971" lon="7.200216"><ele>1555.3</ele><time>2026-06-01T06:25:12Z</time></trkpt>
<trkpt lat="46.564071" lon="7.200127"><ele>1556.3</ele><time>2026-06-01T06:25:20Z</time></trkpt>
<trkpt lat="46.564171" lon="7.200038"><ele>1557.2</ele><time>2026-06-01T06:25:28Z</time></trkpt>
<trkpt lat="46.564271" lon="7.199949"><ele>1558.1</ele><time>2026-06-01T06:25:36Z</time></trkpt>
<trkpt lat="46.564372" lon="7.199861"><ele>1558.9</ele><time>2026-06-01T06:25:44Z</time></trkpt>
<trkpt lat="46.564472" lon="7.199772"><ele>1559.7</ele><time>2026-06-01T06:25:52Z</time></trkpt>
<trkpt lat="46.564572" lon="7.199683"><ele>1560.3</ele><time>2026-06-01T06:26:00Z</time></trkpt>
<trkpt lat="46.564672" lon="7.199595"><ele>1560.9</ele><time>2026-06-01T06:26:08Z</time></trkpt>
<trkpt lat="46.564772" lon="7.199508"><ele>1561.4</ele><time>2026-06-01T06:26:16Z</time></trkpt>
<trkpt lat="46.564872" lon="7.199421"><ele>1561.9</ele><time>2026-06-01T06:26:24Z</time></trkpt>
<trkpt lat="46.564972" lon="7.199335"><ele>1562.2</ele><time>2026-06-01T06:26:32Z</time></trkpt>
<trkpt lat="46.565072" lon="7.199251"><ele>1562.5</ele><time>2026-06-01T06:26:40Z</time></trkpt>
<trkpt lat="46.565172" lon="7.199167"><ele>1562.8</ele><time>2026-06-01T06:26:48Z</time></trkpt>
<trkpt lat="46.565273" lon="7.199085"><ele>1562.9</ele><time>2026-06-01T06:26:56Z</time></trkpt>
<trkpt lat="46.565373" lon="7.199004"><ele>1563.0</ele><time>2026-06-01T06:27:04Z</time></trkpt>
<trkpt lat="46.565473" lon="7.198925"><ele>1563.0</ele><time>2026-06-01T06:27:12Z</time></trkpt>
<trkpt lat="46.565573" lon="7.198847"><ele>1563.0</ele><time>2026-06-01T06:27:20Z</time></trkpt>
<trkpt lat="46.565673" lon="7.198772"><ele>1562.8</ele><time>2026-06-01T06:27:28Z</time></trkpt>
<trkpt lat="46.565773" lon="7.198698"><ele>1562.6</ele><time>2026-06-01T06:27:36Z</time></trkpt>
<trkpt lat="46.565873" lon="7.198627"><ele>1562.3</ele><time>2026-06-01T06:27:44Z</time></trkpt>
<trkpt lat="46.565973" lon="7.198558"><ele>1562.0</ele><time>2026-06-01T06:27:52Z</time></trkpt>
<trkpt lat="46.566073" lon="7.198491"><ele>1561.5</ele><time>2026-06-01T06:28:00Z</time></trkpt>
<trkpt lat="46.566174" lon="7.198427"><ele>1561.0</ele><time>2026-06-01T06:28:08Z</time></trkpt>
<trkpt lat="46.566274" lon="7.198366"><ele>1560.4</ele><time>2026-06-01T06:28:16Z</time></trkpt>
<trkpt lat="46.566374" lon="7.198308"><ele>1559.8</ele><time>2026-06-01T06:28:24Z</time></trkpt>
<trkpt lat="46.566474" lon="7.198252"><ele>1559.1</ele><time>2026-06-01T06:28:32Z</time></trkpt>
<trkpt lat="46.566574" lon="7.198200"><ele>1558.3</ele><time>2026-06-01T06:28:40Z</time></trkpt>
<trkpt lat="46.566674" lon="7.198150"><ele>1557.4</ele><time>2026-06-01T06:28:48Z</time></trkpt>
<trkpt lat="46.566774" lon="7.198105"><ele>1556.4</ele><time>2026-06-01T06:28:56Z</time></trkpt>
<trkpt lat="46.566874" lon="7.198062"><ele>1555.4</ele><time>2026-06-01T06:29:04Z</time></trkpt>
<trkpt lat="46.566974" lon="7.198023"><ele>1554.3</ele><time>2026-06-01T06:29:12Z</time></trkpt>
<trkpt lat="46.567075" lon="7.197988"><ele>1553.1</ele><time>2026-06-01T06:29:20Z</time></trkpt>
<trkpt lat="46.567175" lon="7.197957"><ele>1551.9</ele><time>2026-06-01T06:29:28Z</time></trkpt>
<trkpt lat="46.567275" lon="7.197929"><ele>1550.6</ele><time>2026-06-01T06:29:36Z</time></trkpt>
<trkpt lat="46.567375" lon="7.197906"><ele>1549.2</ele><time>2026-06-01T06:29:44Z</time></trkpt>
<trkpt lat="46.567475" lon="7.197886"><ele>1547.7</ele><time>2026-06-01T06:29:52Z</time></trkpt>
<trkpt lat="46.567575" lon="7.197871"><ele>1546.2</ele><time>2026-06-01T06:30:00Z</time></trkpt>
<trkpt lat="46.567675" lon="7.197860"><ele>1544.5</ele><time>2026-06-01T06:30:08Z</time></trkpt>
<trkpt lat="46.567775" lon="7.197854"><ele>1542.9</ele><time>2026-06-01T06:30:16Z</time></trkpt>
<trkpt lat="46.567875" lon="7.197852"><ele>1541.1</ele><time>2026-06-01T06:30:24Z</time></trkpt>
<trkpt lat="46.567976" lon="7.197855"><ele>1539.3</ele><time>2026-06-01T06:30:32Z</time></trkpt>
<trkpt lat="46.568076" lon="7.197863"><ele>1537.4</ele><time>2026-06-01T06:30:40Z</time></trkpt>
<trkpt lat="46.568176" lon="7.197875"><ele>1535.4</ele><time>2026-06-01T06:30:48Z</time></trkpt>
<trkpt lat="46.568276" lon="7.197893"><ele>1533.3</ele><time>2026-06-01T06:30:56Z</time></trkpt>
<trkpt lat="46.568376" lon="7.197915"><ele>1531.2</ele><time>2026-06-01T06:31:04Z</time></trkpt>
<trkpt lat="46.568476" lon="7.197942"><ele>1529.0</ele><time>2026-06-01T06:31:12Z</time></trkpt>
<trkpt lat="46.568576" lon="7.197975"><ele>1526.7</ele><time>2026-06-01T06:31:20Z</time></trkpt>
<trkpt lat="46.568676" lon="7.198012"><ele>1524.4</ele><time>2026-06-01T06:31:28Z</time></trkpt>
<trkpt lat="46.568776" lon="7.198055"><ele>1522.0</ele><time>2026-06-01T06:31:36Z</time></trkpt>
<trkpt lat="46.568877" lon="7.198103"><ele>1519.5</ele><time>2026-06-01T06:31:44Z</time></trkpt>
<trkpt lat="46.568977" lon="7.198157"><ele>1516.9</ele><time>2026-06-01T06:31:52Z</time></trkpt>
<trkpt lat="46.569077" lon="7.198216"><ele>1514.3</ele><time>2026-06-01T06:32:00Z</time></trkpt>
<trkpt lat="46.569177" lon="7.198281"><ele>1511.6</ele><time>2026-06-01T06:32:08Z</time></trkpt>
<trkpt lat="46.569277" lon="7.198351"><ele>1508.9</ele><time>2026-06-01T06:32:16Z</time></trkpt>
<trkpt lat="46.569377" lon="7.198427"><ele>1506.0</ele><time>2026-06-01T06:32:24Z</time></trkpt>
<trkpt lat="46.569477" lon="7.198509"><ele>1503.1</ele><time>2026-06-01T06:32:32Z</time></trkpt>
<trkpt lat="46.569577" lon="7.198596"><ele>1500.2</ele><time>2026-06-01T06:32:40Z</time></trkpt>
<trkpt lat="46.569677" lon="7.198689"><ele>1497.1</ele><time>2026-06-01T06:32:48Z</time></trkpt>
<trkpt lat="46.569778" lon="7.198788"><ele>1494.0</ele><time>2026-06-01T06:32:56Z</time></trkpt>
<trkpt lat="46.569878" lon="7.198893"><ele>1490.9</ele><time>2026-06-01T06:33:04Z</time></trkpt>
<trkpt lat="46.569978" lon="7.199004"><ele>1487.6</ele><time>2026-06-01T06:33:12Z</time></trkpt>
<trkpt lat="46.570078" lon="7.199120"><ele>1484.3</ele><time>2026-06-01T06:33:20Z</time></trkpt>
<trkpt lat="46.570178" lon="7.199243"><ele>1480.9</ele><time>2026-06-01T06:33:28Z</time></trkpt>
<trkpt lat="46.570278" lon="7.199371"><ele>1477.5</ele><time>2026-06-01T06:33:36Z</time></trkpt>
<trkpt lat="46.570378" lon="7.199505"><ele>1474.0</ele><time>2026-06-01T06:33:44Z</time></trkpt>
<trkpt lat="46.570478" lon="7.199646"><ele>1470.4</ele><time>2026-06-01T06:33:52Z</time></trkpt>
<trkpt lat="46.570578" lon="7.199792"><ele>1466.8</ele><time>2026-06-01T06:34:00Z</time></trkpt>
<trkpt lat="46.570679" lon="7.199944"><ele>1463.1</ele><time>2026-06-01T06:34:08Z</time></trkpt>
<trkpt lat="46.570779" lon="7.200103"><ele>1459.4</ele><time>2026-06-01T06:34:16Z</time></trkpt>
<trkpt lat="46.570879" lon="7.200267"><ele>1455.5</ele><time>2026-06-01T06:34:24Z</time></trkpt>
<trkpt lat="46.570979" lon="7.200437"><ele>1451.6</ele><time>2026-06-01T06:34:32Z</time></trkpt>
<trkpt lat="46.571079" lon="7.200613"><ele>1447.7</ele><time>2026-06-01T06:34:40Z</time></trkpt>
<trkpt lat="46.571179" lon="7.200796"><ele>1443.7</ele><time>2026-06-01T06:34:48Z</time></trkpt>
<trkpt lat="46.571279" lon="7.200984"><ele>1439.6</ele><time>2026-06-01T06:34:56Z</time></trkpt>
<trkpt lat="46.571379" lon="7.201178"><ele>1435.5</ele><time>2026-06-01T06:35:04Z</time></trkpt>
<trkpt lat="46.571479" lon="7.201378"><ele>1431.3</ele><time>2026-06-01T06:35:12Z</time></trkpt>
<trkpt lat="46.571580" lon="7.201584"><ele>1427.1</ele><time>2026-06-01T06:35:20Z</time></trkpt>
<trkpt lat="46.571680" lon="7.201795"><ele>1422.8</ele><time>2026-06-01T06:35:28Z</time></trkpt>
<trkpt lat="46.571780" lon="7.202013"><ele>1418.4</ele><time>2026-06-01T06:35:36Z</time></trkpt>
<trkpt lat="46.571880" lon="7.202236"><ele>1414.0</ele><time>2026-06-01T06:35:44Z</time></trkpt>
<trkpt lat="46.571980" lon="7.202465"><ele>1409.5</ele><time>2026-06-01T06:35:52Z</time></trkpt>
<trkpt lat="46.572080" lon="7.202700"><ele>1405.0</ele><time>2026-06-01T06:36:00Z</time></trkpt>
<trkpt lat="46.572180" lon="7.202940"><ele>1400.4</ele><time>2026-06-01T06:36:08Z</time></trkpt>
<trkpt lat="46.572280" lon="7.203186"><ele>1395.8</ele><time>2026-06-01T06:36:16Z</time></trkpt>
<trkpt lat="46.572380" lon="7.203438"><ele>1391.1</ele><time>2026-06-01T06:36:24Z</time></trkpt>
<trkpt lat="46.572481" lon="7.203694"><ele>1386.3</ele><time>2026-06-01T06:36:32Z</time></trkpt>
<trkpt lat="46.572581" lon="7.203957"><ele>1381.5</ele><time>2026-06-01T06:36:40Z</time></trkpt>
<trkpt lat="46.572681" lon="7.204225"><ele>1376.7</ele><time>2026-06-01T06:36:48Z</time></trkpt>
<trkpt lat="46.572781" lon="7.204498"><ele>1371.8</ele><time>2026-06-01T06:36:56Z</time></trkpt>
<trkpt lat="46.572881" lon="7.204776"><ele>1366.8</ele><time>2026-06-01T06:37:04Z</time></trkpt>
<trkpt lat="46.572981" lon="7.205059"><ele>1361.9</ele><time>2026-06-01T06:37:12Z</time></trkpt>
<trkpt lat="46.573081" lon="7.205348"><ele>1356.8</ele><time>2026-06-01T06:37:20Z</time></trkpt>
<trkpt lat="46.573181" lon="7.205641"><ele>1351.7</ele><time>2026-06-01T06:37:28Z</time></trkpt>
<trkpt lat="46.573281" lon="7.205940"><ele>1346.6</ele><time>2026-06-01T06:37:36Z</time></trkpt>
<trkpt lat="46.573382" lon="7.206243"><ele>1341.4</ele><time>2026-06-01T06:37:44Z</time></trkpt>
<trkpt lat="46.573482" lon="7.206551"><ele>1336.1</ele><time>2026-06-01T06:37:52Z</time></trkpt>
<trkpt lat="46.573582" lon="7.206863"><ele>1330.9</ele><time>2026-06-01T06:38:00Z</time></trkpt>
<trkpt lat="46.573682" lon="7.207180"><ele>1325.5</ele><time>2026-06-01T06:38:08Z</time></trkpt>
<trkpt lat="46.573782" lon="7.207502"><ele>1320.2</ele><time>2026-06-01T06:38:16Z</time></trkpt>
<trkpt lat="46.573882" lon="7.207828"><ele>1314.8</ele><time>2026-06-01T06:38:24Z</time></trkpt>
<trkpt lat="46.573982" lon="7.208158"><ele>1309.3</ele><time>2026-06-01T06:38:32Z</time></trkpt>
<trkpt lat="46.574082" lon="7.208492"><ele>1303.8</ele><time>2026-06-01T06:38:40Z</time></trkpt>
<trkpt lat="46.574182" lon="7.208831"><ele>1298.3</ele><time>2026-06-01T06:38:48Z</time></trkpt>
<trkpt lat="46.574283" lon="7.209173"><ele>1292.7</ele><time>2026-06-01T06:38:56Z</time></trkpt>
<trkpt lat="46.574383" lon="7.209519"><ele>1287.1</ele><time>2026-06-01T06:39:04Z</time></trkpt>
<trkpt lat="46.574483" lon="7.209869"><ele>1281.5</ele><time>2026-06-01T06:39:12Z</time></trkpt>
<trkpt lat="46.574583" lon="7.210222"><ele>1275.8</ele><time>2026-06-01T06:39:20Z</time></trkpt>
<trkpt lat="46.574683" lon="7.210579"><ele>1270.1</ele><time>2026-06-01T06:39:28Z</time></trkpt>
<trkpt lat="46.574783" lon="7.210939"><ele>1264.3</ele><time>2026-06-01T06:39:36Z</time></trkpt>
<trkpt lat="46.574883" lon="7.211303"><ele>1258.5</ele><time>2026-06-01T06:39:44Z</time></trkpt>
<trkpt lat="46.574983" lon="7.211669"><ele>1252.7</ele><time>2026-06-01T06:39:52Z</time></trkpt>
<trkpt lat="46.575083" lon="7.212039"><ele>1246.9</ele><time>2026-06-01T06:40:00Z</time></trkpt>
<trkpt lat="46.575184" lon="7.212411"><ele>1241.0</ele><time>2026-06-01T06:40:08Z</time></trkpt>
<trkpt lat="46.575284" lon="7.212786"><ele>1235.1</ele><time>2026-06-01T06:40:16Z</time></trkpt>
<trkpt lat="46.575384" lon="7.213164"><ele>1229.1</ele><time>2026-06-01T06:40:24Z</time></trkpt>
<trkpt lat="46.575484" lon="7.213544"><ele>1223.2</ele><time>2026-06-01T06:40:32Z</time></trkpt>
<trkpt lat="46.575584" lon="7.213927"><ele>1217.2</ele><time>2026-06-01T06:40:40Z</time></trkpt>
<trkpt lat="46.575684" lon="7.214311"><ele>1211.1</ele><time>2026-06-01T06:40:48Z</time></trkpt>
<trkpt lat="46.575784" lon="7.214698"><ele>1205.1</ele><time>2026-06-01T06:40:56Z</time></trkpt>
<trkpt lat="46.575884" lon="7.215087"><ele>1199.0</ele><time>2026-06-01T06:41:04Z</time></trkpt>
<trkpt lat="46.575984" lon="7.215477"><ele>1192.9</ele><time>2026-06-01T06:41:12Z</time></trkpt>
<trkpt lat="46.576085" lon="7.215869"><ele>1186.8</ele><time>2026-06-01T06:41:20Z</time></trkpt>
<trkpt lat="46.576185" lon="7.216262"><ele>1180.6</ele><time>2026-06-01T06:41:28Z</time></trkpt>
<trkpt lat="46.576285" lon="7.216657"><ele>1174.5</ele><time>2026-06-01T06:41:36Z</time></trkpt>
<trkpt lat="46.576385" lon="7.217053"><ele>1168.3</ele><time>2026-06-01T06:41:44Z</time></trkpt>
<trkpt lat="46.576485" lon="7.217450"><ele>1162.1</ele><time>2026-06-01T06:41:52Z</time></trkpt>
<trkpt lat="46.576585" lon="7.217848"><ele>1155.8</ele><time>2026-06-01T06:42:00Z</time></trkpt>
<trkpt lat="46.576685" lon="7.218247"><ele>1149.6</ele><time>2026-06-01T06:42:08Z</time></trkpt>
<trkpt lat="46.576785" lon="7.218647"><ele>1143.3</ele><time>2026-06-01T06:42:16Z</time></trkpt>
<trkpt lat="46.576885" lon="7.219046"><ele>1137.1</ele><time>2026-06-01T06:42:24Z</time></trkpt>
<trkpt lat="46.576986" lon="7.219447"><ele>1130.8</ele><time>2026-06-01T06:42:32Z</time></trkpt>
<trkpt lat="46.577086" lon="7.219847"><ele>1124.5</ele><time>2026-06-01T06:42:40Z</time></trkpt>
<trkpt lat="46.577186" lon="7.220247"><ele>1118.2</ele><time>2026-06-01T06:42:48Z</time></trkpt>
<trkpt lat="46.577286" lon="7.220648"><ele>1111.8</ele><time>2026-06-01T06:42:56Z</time></trkpt>
<trkpt lat="46.577386" lon="7.221048"><ele>1105.5</ele><time>2026-06-01T06:43:04Z</time></trkpt>
<trkpt lat="46.577486" lon="7.221448"><ele>1099.2</ele><time>2026-06-01T06:43:12Z</time></trkpt>
<trkpt lat="46.577586" lon="7.221847"><ele>1092.8</ele><time>2026-06-01T06:43:20Z</time></trkpt>
<trkpt lat="46.577686" lon="7.222245"><ele>1086.4</ele><time>2026-06-01T06:43:28Z</time></trkpt>
<trkpt lat="46.577786" lon="7.222643"><ele>1080.1</ele><time>2026-06-01T06:43:36Z</time></trkpt>
<trkpt lat="46.577887" lon="7.223039"><ele>1073.7</ele><time>2026-06-01T06:43:44Z</time></trkpt>
<trkpt lat="46.577987" lon="7.223435"><ele>1067.3</ele><time>2026-06-01T06:43:52Z</time></trkpt>
<trkpt lat="46.578087" lon="7.223829"><ele>1060.9</ele><time>2026-06-01T06:44:00Z</time></trkpt>
<trkpt lat="46.578187" lon="7.224222"><ele>1054.6</ele><time>2026-06-01T06:44:08Z</time></trkpt>
<trkpt lat="46.578287" lon="7.224613"><ele>1048.2</ele><time>2026-06-01T06:44:16Z</time></trkpt>
<trkpt lat="46.578387" lon="7.225003"><ele>1041.8</ele><time>2026-06-01T06:44:24Z</time></trkpt>
<trkpt lat="46.578487" lon="7.225390"><ele>1035.4</ele><time>2026-06-01T06:44:32Z</time></trkpt>
<trkpt lat="46.578587" lon="7.225776"><ele>1029.0</ele><time>2026-06-01T06:44:40Z</time></trkpt>
<trkpt lat="46.578687" lon="7.226160"><ele>1022.6</ele><time>2026-06-01T06:44:48Z</time></trkpt>
<trkpt lat="46.578788" lon="7.226541"><ele>1016.2</ele><time>2026-06-01T06:44:56Z</time></trkpt>
<trkpt lat="46.578888" lon="7.226920"><ele>1009.9</ele><time>2026-06-01T06:45:04Z</time></trkpt>
<trkpt lat="46.578988" lon="7.227296"><ele>1003.5</ele><time>2026-06-01T06:45:12Z</time></trkpt>
<trkpt lat="46.579088" lon="7.227670"><ele>997.1</ele><time>2026-06-01T06:45:20Z</time></trkpt>
<trkpt lat="46.579188" lon="7.228041"><ele>990.8</ele><time>2026-06-01T06:45:28Z</time></trkpt>
<trkpt lat="46.579288" lon="7.228409"><ele>984.4</ele><time>2026-06-01T06:45:36Z</time></trkpt>
<trkpt lat="46.579388" lon="7.228775"><ele>978.1</ele><time>2026-06-01T06:45:44Z</time></trkpt>
<trkpt lat="46.579488" lon="7.229136"><ele>971.7</ele><time>2026-06-01T06:45:52Z</time></trkpt>
<trkpt lat="46.579588" lon="7.229495"><ele>965.4</ele><time>2026-06-01T06:46:00Z</time></trkpt>
<trkpt lat="46.579689" lon="7.229850"><ele>959.1</ele><time>2026-06-01T06:46:08Z</time></trkpt>
<trkpt lat="46.579789" lon="7.230202"><ele>952.8</ele><time>2026-06-01T06:46:16Z</time></trkpt>
<trkpt lat="46.579889" lon="7.230550"><ele>946.5</ele><time>2026-06-01T06:46:24Z</time></trkpt>
<trkpt lat="46.579989" lon="7.230894"><ele>940.3</ele><time>2026-06-01T06:46:32Z</time></trkpt>
<trkpt lat="46.580089" lon="7.231235"><ele>934.0</ele><time>2026-06-01T06:46:40Z</time></trkpt>
<trkpt lat="46.580189" lon="7.231571"><ele>927.8</ele><time>2026-06-01T06:46:48Z</time></trkpt>
<trkpt lat="46.580289" lon="7.231904"><ele>921.6</ele><time>2026-06-01T06:46:56Z</time></trkpt>
<trkpt lat="46.580389" lon="7.232232"><ele>915.4</ele><time>2026-06-01T06:47:04Z</time></trkpt>
<trkpt lat="46.580489" lon="7.232556"><ele>909.2</ele><time>2026-06-01T06:47:12Z</time></trkpt>
<trkpt lat="46.580590" lon="7.232875"><ele>903.1</ele><time>2026-06-01T06:47:20Z</time></trkpt>
<trkpt lat="46.580690" lon="7.233190"><ele>896.9</ele><time>2026-06-01T06:47:28Z</time></trkpt>
<trkpt lat="46.580790" lon="7.233500"><ele>890.8</ele><time>2026-06-01T06:47:36Z</time></trkpt>
<trkpt lat="46.580890" lon="7.233806"><ele>884.7</ele><time>2026-06-01T06:47:44Z</time></trkpt>
<trkpt lat="46.580990" lon="7.234107"><ele>878.7</ele><time>2026-06-01T06:47:52Z</time></trkpt>
<trkpt lat="46.581090" lon="7.234403"><ele>872.6</ele><time>2026-06-01T06:48:00Z</time></trkpt>
<trkpt lat="46.581190" lon="7.234694"><ele>866.6</ele><time>2026-06-01T06:48:08Z</time></trkpt>
<trkpt lat="46.581290" lon="7.234980"><ele>860.6</ele><time>2026-06-01T06:48:16Z</time></trkpt>
<trkpt lat="46.581390" lon="7.235261"><ele>854.7</ele><time>2026-06-01T06:48:24Z</time></trkpt>
<trkpt lat="46.581491" lon="7.235537"><ele>848.7</ele><time>2026-06-01T06:48:32Z</time></trkpt>
<trkpt lat="46.581591" lon="7.235807"><ele>842.8</ele><time>2026-06-01T06:48:40Z</time></trkpt>
<trkpt lat="46.581691" lon="7.236072"><ele>837.0</ele><time>2026-06-01T06:48:48Z</time></trkpt>
<trkpt lat="46.581791" lon="7.236332"><ele>831.1</ele><time>2026-06-01T06:48:56Z</time></trkpt>
<trkpt lat="46.581891" lon="7.236587"><ele>825.3</ele><time>2026-06-01T06:49:04Z</time></trkpt>
<trkpt lat="46.581991" lon="7.236835"><ele>819.6</ele><time>2026-06-01T06:49:12Z</time></trkpt>
<trkpt lat="46.582091" lon="7.237079"><ele>813.8</ele><time>2026-06-01T06:49:20Z</time></trkpt>
<trkpt lat="46.582191" lon="7.237316"><ele>808.1</ele><time>2026-06-01T06:49:28Z</time></trkpt>
<trkpt lat="46.582291" lon="7.237548"><ele>802.5</ele><time>2026-06-01T06:49:36Z</time></trkpt>
<trkpt lat="46.582392" lon="7.237775"><ele>796.8</ele><time>2026-06-01T06:49:44Z</time></trkpt>
<trkpt lat="46.582492" lon="7.237995"><ele>791.3</ele><time>2026-06-01T06:49:52Z</time></trkpt>
<trkpt lat="46.582592" lon="7.238210"><ele>785.7</ele><time>2026-06-01T06:50:00Z</time></trkpt>
<trkpt lat="46.582692" lon="7.238419"><ele>780.2</ele><time>2026-06-01T06:50:08Z</time></trkpt>
<trkpt lat="46.582792" lon="7.238622"><ele>774.7</ele><time>2026-06-01T06:50:16Z</time></trkpt>
<trkpt lat="46.582892" lon="7.238819"><ele>769.3</ele><time>2026-06-01T06:50:24Z</time></trkpt>
<trkpt lat="46.582992" lon="7.239010"><ele>763.9</ele><time>2026-06-01T06:50:32Z</time></trkpt>
<trkpt lat="46.583092" lon="7.239195"><ele>758.6</ele><time>2026-06-01T06:50:40Z</time></trkpt>
<trkpt lat="46.583192" lon="7.239375"><ele>753.3</ele><time>2026-06-01T06:50:48Z</time></trkpt>
<trkpt lat="46.583293" lon="7.239548"><ele>748.0</ele><time>2026-06-01T06:50:56Z</time></trkpt>
<trkpt lat="46.583393" lon="7.239716"><ele>742.8</ele><time>2026-06-01T06:51:04Z</time></trkpt>
<trkpt lat="46.583493" lon="7.239877"><ele>737.6</ele><time>2026-06-01T06:51:12Z</time></trkpt>
<trkpt lat="46.583593" lon="7.240032"><ele>732.5</ele><time>2026-06-01T06:51:20Z</time></trkpt>
<trkpt lat="46.583693" lon="7.240182"><ele>727.4</ele><time>2026-06-01T06:51:28Z</time></trkpt>
<trkpt lat="46.583793" lon="7.240325"><ele>722.4</ele><time>2026-06-01T06:51:36Z</time></trkpt>
<trkpt lat="46.583893" lon="7.240463"><ele>717.4</ele><time>2026-06-01T06:51:44Z</time></trkpt>
<trkpt lat="46.583993" lon="7.240594"><ele>712.5</ele><time>2026-06-01T06:51:52Z</time></trkpt>
<trkpt lat="46.584093" lon="7.240720"><ele>707.6</ele><time>2026-06-01T06:52:00Z</time></trkpt>
<trkpt lat="46.584194" lon="7.240840"><ele>702.8</ele><time>2026-06-01T06:52:08Z</time></trkpt>
<trkpt lat="46.584294" lon="7.240953"><ele>698.0</ele><time>2026-06-01T06:52:16Z</time></trkpt>
<trkpt lat="46.584394" lon="7.241061"><ele>693.3</ele><time>2026-06-01T06:52:24Z</time></trkpt>
<trkpt lat="46.584494" lon="7.241163"><ele>688.6</ele><time>2026-06-01T06:52:32Z</time></trkpt>
<trkpt lat="46.584594" lon="7.241259"><ele>684.0</ele><time>2026-06-01T06:52:40Z</time></trkpt>
<trkpt lat="46.584694" lon="7.241350"><ele>679.5</ele><time>2026-06-01T06:52:48Z</time></trkpt>
<trkpt lat="46.584794" lon="7.241434"><ele>675.0</ele><time>2026-06-01T06:52:56Z</time></trkpt>
<trkpt lat="46.584894" lon="7.241513"><ele>670.5</ele><time>2026-06-01T06:53:04Z</time></trkpt>
<trkpt lat="46.584994" lon="7.241586"><ele>666.1</ele><time>2026-06-01T06:53:12Z</time></trkpt>
<trkpt lat="46.585095" lon="7.241654"><ele>661.8</ele><time>2026-06-01T06:53:20Z</time></trkpt>
<trkpt lat="46.585195" lon="7.241716"><ele>657.5</ele><time>2026-06-01T06:53:28Z</time></trkpt>
<trkpt lat="46.585295" lon="7.241773"><ele>653.3</ele><time>2026-06-01T06:53:36Z</time></trkpt>
<trkpt lat="46.585395" lon="7.241824"><ele>649.1</ele><time>2026-06-01T06:53:44Z</time></trkpt>
<trkpt lat="46.585495" lon="7.241869"><ele>645.0</ele><time>2026-06-01T06:53:52Z</time></trkpt>
<trkpt lat="46.585595" lon="7.241910"><ele>641.0</ele><time>2026-06-01T06:54:00Z</time></trkpt>
<trkpt lat="46.585695" lon="7.241945"><ele>637.0</ele><time>2026-06-01T06:54:08Z</time></trkpt>
<trkpt lat="46.585795" lon="7.241975"><ele>633.1</ele><time>2026-06-01T06:54:16Z</time></trkpt>
<trkpt lat="46.585895" lon="7.242000"><ele>629.2</ele><time>2026-06-01T06:54:24Z</time></trkpt>
<trkpt lat="46.585996" lon="7.242020"><ele>625.4</ele><time>2026-06-01T06:54:32Z</time></trkpt>
<trkpt lat="46.586096" lon="7.242035"><ele>621.7</ele><time>2026-06-01T06:54:40Z</time></trkpt>
<trkpt lat="46.586196" lon="7.242045"><ele>618.0</ele><time>2026-06-01T06:54:48Z</time></trkpt>
<trkpt lat="46.586296" lon="7.242050"><ele>614.4</ele><time>2026-06-01T06:54:56Z</time></trkpt>
<trkpt lat="46.586396" lon="7.242051"><ele>610.8</ele><time>2026-06-01T06:55:04Z</time></trkpt>
<trkpt lat="46.586496" lon="7.242047"><ele>607.3</ele><time>2026-06-01T06:55:12Z</time></trkpt>
<trkpt lat="46.586596" lon="7.242038"><ele>603.9</ele><time>2026-06-01T06:55:20Z</time></trkpt>
<trkpt lat="46.586696" lon="7.242026"><ele>600.6</ele><time>2026-06-01T06:55:28Z</time></trkpt>
<trkpt lat="46.586796" lon="7.242008"><ele>597.3</ele><time>2026-06-01T06:55:36Z</time></trkpt>
<trkpt lat="46.586897" lon="7.241987"><ele>594.1</ele><time>2026-06-01T06:55:44Z</time></trkpt>
<trkpt lat="46.586997" lon="7.241962"><ele>590.9</ele><time>2026-06-01T06:55:52Z</time></trkpt>
<trkpt lat="46.587097" lon="7.241932"><ele>587.8</ele><time>2026-06-01T06:56:00Z</time></trkpt>
<trkpt lat="46.587197" lon="7.241899"><ele>584.8</ele><time>2026-06-01T06:56:08Z</time></trkpt>
<trkpt lat="46.587297" lon="7.241862"><ele>581.9</ele><time>2026-06-01T06:56:16Z</time></trkpt>
<trkpt lat="46.587397" lon="7.241822"><ele>579.0</ele><time>2026-06-01T06:56:24Z</time></trkpt>
<trkpt lat="46.587497" lon="7.241777"><ele>576.2</ele><time>2026-06-01T06:56:32Z</time></trkpt>
<trkpt lat="46.587597" lon="7.241730"><ele>573.4</ele><time>2026-06-01T06:56:40Z</time></trkpt>
<trkpt lat="46.587697" lon="7.241679"><ele>570.7</ele><time>2026-06-01T06:56:48Z</time></trkpt>
<trkpt lat="46.587798" lon="7.241625"><ele>568.1</ele><time>2026-06-01T06:56:56Z</time></trkpt>
<trkpt lat="46.587898" lon="7.241568"><ele>565.6</ele><time>2026-06-01T06:57:04Z</time></trkpt>
<trkpt lat="46.587998" lon="7.241508"><ele>563.1</ele><time>2026-06-01T06:57:12Z</time></trkpt>
<trkpt lat="46.588098" lon="7.241446"><ele>560.7</ele><time>2026-06-01T06:57:20Z</time></trkpt>
<trkpt lat="46.588198" lon="7.241380"><ele>558.4</ele><time>2026-06-01T06:57:28Z</time></trkpt>
<trkpt lat="46.588298" lon="7.241313"><ele>556.1</ele><time>2026-06-01T06:57:36Z</time></trkpt>
<trkpt lat="46.588398" lon="7.241243"><ele>553.9</ele><time>2026-06-01T06:57:44Z</time></trkpt>
<trkpt lat="46.588498" lon="7.241170"><ele>551.8</ele><time>2026-06-01T06:57:52Z</time></trkpt>
<trkpt lat="46.588598" lon="7.241096"><ele>549.8</ele><time>2026-06-01T06:58:00Z</time></trkpt>
<trkpt lat="46.588699" lon="7.241019"><ele>547.8</ele><time>2026-06-01T06:58:08Z</time></trkpt>
<trkpt lat="46.588799" lon="7.240941"><ele>545.9</ele><time>2026-06-01T06:58:16Z</time></trkpt>
<trkpt lat="46.588899" lon="7.240861"><ele>544.1</ele><time>2026-06-01T06:58:24Z</time></trkpt>
<trkpt lat="46.588999" lon="7.240780"><ele>542.3</ele><time>2026-06-01T06:58:32Z</time></trkpt>
<trkpt lat="46.589099" lon="7.240697"><ele>540.6</ele><time>2026-06-01T06:58:40Z</time></trkpt>
<trkpt lat="46.589199" lon="7.240613"><ele>539.0</ele><time>2026-06-01T06:58:48Z</time></trkpt>
<trkpt lat="46.589299" lon="7.240527"><ele>537.4</ele><time>2026-06-01T06:58:56Z</time></trkpt>
<trkpt lat="46.589399" lon="7.240441"><ele>536.0</ele><time>2026-06-01T06:59:04Z</time></trkpt>
<trkpt lat="46.589499" lon="7.240354"><ele>534.6</ele><time>2026-06-01T06:59:12Z</time></trkpt>
<trkpt lat="46.589600" lon="7.240266"><ele>533.2</ele><time>2026-06-01T06:59:20Z</time></trkpt>
<trkpt lat="46.589700" lon="7.240178"><ele>532.0</ele><time>2026-06-01T06:59:28Z</time></trkpt>
<trkpt lat="46.589800" lon="7.240089"><ele>530.8</ele><time>2026-06-01T06:59:36Z</time></trkpt>
<trkpt lat="46.589900" lon="7.240000"><ele>529.7</ele><time>2026-06-01T06:59:44Z</time></trkpt>
<trkpt lat="46.590000" lon="7.239911"><ele>528.7</ele><time>2026-06-01T06:59:52Z</time></trkpt>
</trkseg></trk></gpx>