<?xml version="1.0" encoding="UTF-8"?>
<gpx version="1.1" creator="banc-gravure" xmlns="http://www.topografix.com/GPX/1/1">
<trk><name>plate</name><trkseg>
<trkpt lat="46.500000" lon="6.600000"><ele>372.0</ele><time>2026-06-01T06:00:00Z</time></trkpt>
<trkpt lat="46.500100" lon="6.600400"><ele>372.1</ele><time>2026-06-01T06:00:08Z</time></trkpt>
<trkpt lat="46.500200" lon="6.600801"><ele>372.3</ele><time>2026-06-01T06:00:16Z</time></trkpt>
<trkpt lat="46.500300" lon="6.601201"><ele>372.4</ele><time>2026-06-01T06:00:24Z</time></trkpt>
<trkpt lat="46.500400" lon="6.601600"><ele>372.5</ele><time>2026-06-01T06:00:32Z</time></trkpt>
<trkpt lat="46.500501" lon="6.601999"><ele>372.7</ele><time>2026-06-01T06:00:40Z</time></trkpt>
<trkpt lat="46.500601" lon="6.602397"><ele>372.8</ele><time>2026-06-01T06:00:48Z</time></trkpt>
<trkpt lat="46.500701" lon="6.602795"><ele>373.0</ele><time>2026-06-01T06:00:56Z</time></trkpt>
<trkpt lat="46.500801" lon="6.603191"><ele>373.1</ele><time>2026-06-01T06:01:04Z</time></trkpt>
<trkpt lat="46.500901" lon="6.603586"><ele>373.2</ele><time>2026-06-01T06:01:12Z</time></trkpt>
<trkpt lat="46.501001" lon="6.603980"><ele>373.4</ele><time>2026-06-01T06:01:20Z</time></trkpt>
<trkpt lat="46.501101" lon="6.604373"><ele>373.5</ele><time>2026-06-01T06:01:28Z</time></trkpt>
<trkpt lat="46.501201" lon="6.604763"><ele>373.6</ele><time>2026-06-01T06:01:36Z</time></trkpt>
<trkpt lat="46.501301" lon="6.605152"><ele>373.8</ele><time>2026-06-01T06:01:44Z</time></trkpt>
<trkpt lat="46.501402" lon="6.605540"><ele>373.9</ele><time>2026-06-01T06:01:52Z</time></trkpt>
<trkpt lat="46.501502" lon="6.605925"><ele>374.0</ele><time>2026-06-01T06:02:00Z</time></trkpt>
<trkpt lat="46.501602" lon="6.606308"><ele>374.2</ele><time>2026-06-01T06:02:08Z</time></trkpt>
<trkpt lat="46.501702" lon="6.606689"><ele>374.3</ele><time>2026-06-01T06:02:16Z</time></trkpt>
<trkpt lat="46.501802" lon="6.607067"><ele>374.4</ele><time>2026-06-01T06:02:24Z</time></trkpt>
<trkpt lat="46.501902" lon="6.607443"><ele>374.6</ele><time>2026-06-01T06:02:32Z</time></trkpt>
<trkpt lat="46.502002" lon="6.607816"><ele>374.7</ele><time>2026-06-01T06:02:40Z</time></trkpt>
<trkpt lat="46.502102" lon="6.608186"><ele>374.8</ele><time>2026-06-01T06:02:48Z</time></trkpt>
<trkpt lat="46.502202" lon="6.608553"><ele>374.9</ele><time>2026-06-01T06:02:56Z</time></trkpt>
<trkpt lat="46.502303" lon="6.608918"><ele>375.1</ele><time>2026-06-01T06:03:04Z</time></trkpt>
<trkpt lat="46.502403" lon="6.609279"><ele>375.2</ele><time>2026-06-01T06:03:12Z</time></trkpt>
<trkpt lat="46.502503" lon="6.609637"><ele>375.3</ele><time>2026-06-01T06:03:20Z</time></trkpt>
<trkpt lat="46.502603" lon="6.609991"><ele>375.5</ele><time>2026-06-01T06:03:28Z</time></trkpt>
<trkpt lat="46.502703" lon="6.610342"><ele>375.6</ele><time>2026-06-01T06:03:36Z</time></trkpt>
<trkpt lat="46.502803" lon="6.610689"><ele>375.7</ele><time>2026-06-01T06:03:44Z</time></trkpt>
<trkpt lat="46.502903" lon="6.611032"><ele>375.8</ele><time>2026-06-01T06:03:52Z</time></trkpt>
<trkpt lat="46.503003" lon="6.611371"><ele>375.9</ele><time>2026-06-01T06:04:00Z</time></trkpt>
<trkpt lat="46.503103" lon="6.611707"><ele>376.1</ele><time>2026-06-01T06:04:08Z</time></trkpt>
<trkpt lat="46.503204" lon="6.612038"><ele>376.2</ele><time>2026-06-01T06:04:16Z</time></trkpt>
<trkpt lat="46.503304" lon="6.612365"><ele>376.3</ele><time>2026-06-01T06:04:24Z</time></trkpt>
<trkpt lat="46.503404" lon="6.612688"><ele>376.4</ele><time>2026-06-01T06:04:32Z</time></trkpt>
<trkpt lat="46.503504" lon="6.613006"><ele>376.5</ele><time>2026-06-01T06:04:40Z</time></trkpt>
<trkpt lat="46.503604" lon="6.613320"><ele>376.6</ele><time>2026-06-01T06:04:48Z</time></trkpt>
<trkpt lat="46.503704" lon="6.613629"><ele>376.8</ele><time>2026-06-01T06:04:56Z</time></trkpt>
<trkpt lat="46.503804" lon="6.613933"><ele>376.9</ele><time>2026-06-01T06:05:04Z</time></trkpt>
<trkpt lat="46.503904" lon="6.614233"><ele>377.0</ele><time>2026-06-01T06:05:12Z</time></trkpt>
<trkpt lat="46.504004" lon="6.614528"><ele>377.1</ele><time>2026-06-01T06:05:20Z</time></trkpt>
<trkpt lat="46.504105" lon="6.614818"><ele>377.2</ele><time>2026-06-01T06:05:28Z</time></trkpt>
<trkpt lat="46.504205" lon="6.615102"><ele>377.3</ele><time>2026-06-01T06:05:36Z</time></trkpt>
<trkpt lat="46.504305" lon="6.615382"><ele>377.4</ele><time>2026-06-01T06:05:44Z</time></trkpt>
<trkpt lat="46.504405" lon="6.615656"><ele>377.5</ele><time>2026-06-01T06:05:52Z</time></trkpt>
<trkpt lat="46.504505" lon="6.615925"><ele>377.6</ele><time>2026-06-01T06:06:00Z</time></trkpt>
<trkpt lat="46.504605" lon="6.616189"><ele>377.7</ele><time>2026-06-01T06:06:08Z</time></trkpt>
<trkpt lat="46.504705" lon="6.616448"><ele>377.8</ele><time>2026-06-01T06:06:16Z</time></trkpt>
<trkpt lat="46.504805" lon="6.616700"><ele>377.9</ele><time>2026-06-01T06:06:24Z</time></trkpt>
<trkpt lat="46.504905" lon="6.616948"><ele>378.0</ele><time>2026-06-01T06:06:32Z</time></trkpt>
<trkpt lat="46.505006" lon="6.617190"><ele>378.1</ele><time>2026-06-01T06:06:40Z</time></trkpt>
<trkpt lat="46.505106" lon="6.617426"><ele>378.2</ele><time>2026-06-01T06:06:48Z</time></trkpt>
<trkpt lat="46.505206" lon="6.617656"><ele>378.3</ele><time>2026-06-01T06:06:56Z</time></trkpt>
<trkpt lat="46.505306" lon="6.617881"><ele>378.4</ele><time>2026-06-01T06:07:04Z</time></trkpt>
<trkpt lat="46.505406" lon="6.618100"><ele>378.5</ele><time>2026-06-01T06:07:12Z</time></trkpt>
<trkpt lat="46.505506" lon="6.618313"><ele>378.6</ele><time>2026-06-01T06:07:20Z</time></trkpt>
<trkpt lat="46.505606" lon="6.618521"><ele>378.7</ele><time>2026-06-01T06:07:28Z</time></trkpt>
<trkpt lat="46.505706" lon="6.618722"><ele>378.7</ele><time>2026-06-01T06:07:36Z</time></trkpt>
<trkpt lat="46.505806" lon="6.618918"><ele>378.8</ele><time>2026-06-01T06:07:44Z</time></trkpt>
<trkpt lat="46.505907" lon="6.619107"><ele>378.9</ele><time>2026-06-01T06:07:52Z</time></trkpt>
<trkpt lat="46.506007" lon="6.619291"><ele>379.0</ele><time>2026-06-01T06:08:00Z</time></trkpt>
<trkpt lat="46.506107" lon="6.619469"><ele>379.1</ele><time>2026-06-01T06:08:08Z</time></trkpt>
<trkpt lat="46.506207" lon="6.619641"><ele>379.1</ele><time>2026-06-01T06:08:16Z</time></trkpt>
<trkpt lat="46.506307" lon="6.619807"><ele>379.2</ele><time>2026-06-01T06:08:24Z</time></trkpt>
<trkpt lat="46.506407" lon="6.619967"><ele>379.3</ele><time>2026-06-01T06:08:32Z</time></trkpt>
<trkpt lat="46.506507" lon="6.620120"><ele>379.4</ele><time>2026-06-01T06:08:40Z</time></trkpt>
<trkpt lat="46.506607" lon="6.620268"><ele>379.4</ele><time>2026-06-01T06:08:48Z</time></trkpt>
<trkpt lat="46.506707" lon="6.620410"><ele>379.5</ele><time>2026-06-01T06:08:56Z</time></trkpt>
<trkpt lat="46.506808" lon="6.620546"><ele>379.6</ele><time>2026-06-01T06:09:04Z</time></trkpt>
<trkpt lat="46.506908" lon="6.620676"><ele>379.6</ele><time>2026-06-01T06:09:12Z</time></trkpt>
<trkpt lat="46.507008" lon="6.620800"><ele>379.7</ele><time>2026-06-01T06:09:20Z</time></trkpt>
<trkpt lat="46.507108" lon="6.620918"><ele>379.7</ele><time>2026-06-01T06:09:28Z</time></trkpt>
<trkpt lat="46.507208" lon="6.621030"><ele>379.8</ele><time>2026-06-01T06:09:36Z</time></trkpt>
<trkpt lat="46.507308" lon="6.621137"><ele>379.8</ele><time>2026-06-01T06:09:44Z</time></trkpt>
<trkpt lat="46.507408" lon="6.621237"><ele>379.9</ele><time>2026-06-01T06:09:52Z</time></trkpt>
<trkpt lat="46.507508" lon="6.621332"><ele>380.0</ele><time>2026-06-01T06:10:00Z</time></trkpt>
<trkpt lat="46.507608" lon="6.621421"><ele>380.0</ele><time>2026-06-01T06:10:08Z</time></trkpt>
<trkpt lat="46.507709" lon="6.621504"><ele>380.1</ele><time>2026-06-01T06:10:16Z</time></trkpt>
<trkpt lat="46.507809" lon="6.621581"><ele>380.1</ele><time>2026-06-01T06:10:24Z</time></trkpt>
<trkpt lat="46.507909" lon="6.621653"><ele>380.1</ele><time>2026-06-01T06:10:32Z</time></trkpt>
<trkpt lat="46.508009" lon="6.621719"><ele>380.2</ele><time>2026-06-01T06:10:40Z</time></trkpt>
<trkpt lat="46.508109" lon="6.621780"><ele>380.2</ele><time>2026-06-01T06:10:48Z</time></trkpt>
<trkpt lat="46.508209" lon="6.621835"><ele>380.3</ele><time>2026-06-01T06:10:56Z</time></trkpt>
<trkpt lat="46.508309" lon="6.621884"><ele>380.3</ele><time>2026-06-01T06:11:04Z</time></trkpt>
<trkpt lat="46.508409" lon="6.621929"><ele>380.3</ele><time>2026-06-01T06:11:12Z</time></trkpt>
<trkpt lat="46.508509" lon="6.621968"><ele>380.4</ele><time>2026-06-01T06:11:20Z</time></trkpt>
<trkpt lat="46.508610" lon="6.622002"><ele>380.4</ele><time>2026-06-01T06:11:28Z</time></trkpt>
<trkpt lat="46.508710" lon="6.622030"><ele>380.4</ele><time>2026-06-01T06:11:36Z</time></trkpt>
<trkpt lat="46.508810" lon="6.622054"><ele>380.5</ele><time>2026-06-01T06:11:44Z</time></trkpt>
<trkpt lat="46.508910" lon="6.622072"><ele>380.5</ele><time>2026-06-01T06:11:52Z</time></trkpt>
<trkpt lat="46.509010" lon="6.622086"><ele>380.5</ele><time>2026-06-01T06:12:00Z</time></trkpt>
<trkpt lat="46.509110" lon="6.622095"><ele>380.5</ele><time>2026-06-01T06:12:08Z</time></trkpt>
<trkpt lat="46.509210" lon="6.622099"><ele>380.5</ele><time>2026-06-01T06:12:16Z</time></trkpt>
<trkpt lat="46.509310" lon="6.622098"><ele>380.6</ele><time>2026-06-01T06:12:24Z</time></trkpt>
<trkpt lat="46.509410" lon="6.622093"><ele>380.6</ele><time>2026-06-01T06:12:32Z</time></trkpt>
<trkpt lat="46.509511" lon="6.622084"><ele>380.6</ele><time>2026-06-01T06:12:40Z</time></trkpt>
<trkpt lat="46.509611" lon="6.622070"><ele>380.6</ele><time>2026-06-01T06:12:48Z</time></trkpt>
<trkpt lat="46.509711" lon="6.622052"><ele>380.6</ele><time>2026-06-01T06:12:56Z</time></trkpt>
<trkpt lat="46.509811" lon="6.622029"><ele>380.6</ele><time>2026-06-01T06:13:04Z</time></trkpt>
<trkpt lat="46.509911" lon="6.622003"><ele>380.6</ele><time>2026-06-01T06:13:12Z</time></trkpt>
<trkpt lat="46.510011" lon="6.621972"><ele>380.6</ele><time>2026-06-01T06:13:20Z</time></trkpt>
<trkpt lat="46.510111" lon="6.621938"><ele>380.6</ele><time>2026-06-01T06:13:28Z</time></trkpt>
<trkpt lat="46.510211" lon="6.621900"><ele>380.6</ele><time>2026-06-01T06:13:36Z</time></trkpt>
<trkpt lat="46.510311" lon="6.621859"><ele>380.6</ele><time>2026-06-01T06:13:44Z</time></trkpt>
<trkpt lat="46.510412" lon="6.621814"><ele>380.6</ele><time>2026-06-01T06:13:52Z</time></trkpt>
<trkpt lat="46.510512" lon="6.621765"><ele>380.6</ele><time>2026-06-01T06:14:00Z</time></trkpt>
<trkpt lat="46.510612" lon="6.621714"><ele>380.6</ele><time>2026-06-01T06:14:08Z</time></trkpt>
<trkpt lat="46.510712" lon="6.621659"><ele>380.6</ele><time>2026-06-01T06:14:16Z</time></trkpt>
<trkpt lat="46.510812" lon="6.621601"><ele>380.6</ele><time>2026-06-01T06:14:24Z</time></trkpt>
<trkpt lat="46.510912" lon="6.621541"><ele>380.6</ele><time>2026-06-01T06:14:32Z</time></trkpt>
<trkpt lat="46.511012" lon="6.621477"><ele>380.6</ele><time>2026-06-01T06:14:40Z</time></trkpt>
<trkpt lat="46.511112" lon="6.621411"><ele>380.6</ele><time>2026-06-01T06:14:48Z</time></trkpt>
<trkpt lat="46.511212" lon="6.621343"><ele>380.6</ele><time>2026-06-01T06:14:56Z</time></trkpt>
<trkpt lat="46.511313" lon="6.621272"><ele>380.5</ele><time>2026-06-01T06:15:04Z</time></trkpt>
<trkpt lat="46.511413" lon="6.621199"><ele>380.5</ele><time>2026-06-01T06:15:12Z</time></trkpt>
<trkpt lat="46.511513" lon="6.621124"><ele>380.5</ele><time>2026-06-01T06:15:20Z</time></trkpt>
<trkpt lat="46.511613" lon="6.621047"><ele>380.5</ele><time>2026-06-01T06:15:28Z</time></trkpt>
<trkpt lat="46.511713" lon="6.620969"><ele>380.4</ele><time>2026-06-01T06:15:36Z</time></trkpt>
<trkpt lat="46.511813" lon="6.620888"><ele>380.4</ele><time>2026-06-01T06:15:44Z</time></trkpt>
<trkpt lat="46.511913" lon="6.620806"><ele>380.4</ele><time>2026-06-01T06:15:52Z</time></trkpt>
<trkpt lat="46.512013" lon="6.620723"><ele>380.4</ele><time>2026-06-01T06:16:00Z</time></trkpt>
<trkpt lat="46.512113" lon="6.620639"><ele>380.3</ele><time>2026-06-01T06:16:08Z</time></trkpt>
<trkpt lat="46.512214" lon="6.620553"><ele>380.3</ele><time>2026-06-01T06:16:16Z</time></trkpt>
<trkpt lat="46.512314" lon="6.620467"><ele>380.3</ele><time>2026-06-01T06:16:24Z</time></trkpt>
<trkpt lat="46.512414" lon="6.620379"><ele>380.2</ele><time>2026-06-01T06:16:32Z</time></trkpt>
<trkpt lat="46.512514" lon="6.620292"><ele>380.2</ele><time>2026-06-01T06:16:40Z</time></trkpt>
<trkpt lat="46.512614" lon="6.620203"><ele>380.2</ele><time>2026-06-01T06:16:48Z</time></trkpt>
<trkpt lat="46.512714" lon="6.620114"><ele>380.1</ele><time>2026-06-01T06:16:56Z</time></trkpt>
<trkpt lat="46.512814" lon="6.620025"><ele>380.1</ele><time>2026-06-01T06:17:04Z</time></trkpt>
<trkpt lat="46.512914" lon="6.619937"><ele>380.0</ele><time>2026-06-01T06:17:12Z</time></trkpt>
<trkpt lat="46.513014" lon="6.619848"><ele>380.0</ele><time>2026-06-01T06:17:20Z</time></trkpt>
<trkpt lat="46.513115" lon="6.619759"><ele>380.0</ele><time>2026-06-01T06:17:28Z</time></trkpt>
<trkpt lat="46.513215" lon="6.619671"><ele>379.9</ele><time>2026-06-01T06:17:36Z</time></trkpt>
<trkpt lat="46.513315" lon="6.619583"><ele>379.9</ele><time>2026-06-01T06:17:44Z</time></trkpt>
<trkpt lat="46.513415" lon="6.619496"><ele>379.8</ele><time>2026-06-01T06:17:52Z</time></trkpt>
<trkpt lat="46.513515" lon="6.619410"><ele>379.8</ele><time>2026-06-01T06:18:00Z</time></trkpt>
<trkpt lat="46.513615" lon="6.619324"><ele>379.7</ele><time>2026-06-01T06:18:08Z</time></trkpt>
<trkpt lat="46.513715" lon="6.619240"><ele>379.7</ele><time>2026-06-01T06:18:16Z</time></trkpt>
<trkpt lat="46.513815" lon="6.619157"><ele>379.6</ele><time>2026-06-01T06:18:24Z</time></trkpt>
<trkpt lat="46.513915" lon="6.619076"><ele>379.6</ele><time>2026-06-01T06:18:32Z</time></trkpt>
<trkpt lat="46.514016" lon="6.618996"><ele>379.5</ele><time>2026-06-01T06:18:40Z</time></trkpt>
<trkpt lat="46.514116" lon="6.618918"><ele>379.5</ele><time>2026-06-01T06:18:48Z</time></trkpt>
<trkpt lat="46.514216" lon="6.618841"><ele>379.4</ele><time>2026-06-01T06:18:56Z</time></trkpt>
<trkpt lat="46.514316" lon="6.618767"><ele>379.3</ele><time>2026-06-01T06:19:04Z</time></trkpt>
<trkpt lat="46.514416" lon="6.618694"><ele>379.3</ele><time>2026-06-01T06:19:12Z</time></trkpt>
<trkpt lat="46.514516" lon="6.618624"><ele>379.2</ele><time>2026-06-01T06:19:20Z</time></trkpt>
<trkpt lat="46.514616" lon="6.618556"><ele>379.2</ele><time>2026-06-01T06:19:28Z</time></trkpt>
<trkpt lat="46.514716" lon="6.618491"><ele>379.1</ele><time>2026-06-01T06:19:36Z</time></trkpt>
<trkpt lat="46.514816" lon="6.618428"><ele>379.0</ele><time>2026-06-01T06:19:44Z</time></trkpt>
<trkpt lat="46.514917" lon="6.618368"><ele>379.0</ele><time>2026-06-01T06:19:52Z</time></trkpt>
<trkpt lat="46.515017" lon="6.618311"><ele>378.9</ele><time>2026-06-01T06:20:00Z</time></trkpt>
<trkpt lat="46.515117" lon="6.618257"><ele>378.9</ele><time>2026-06-01T06:20:08Z</time></trkpt>
<trkpt lat="46.515217" lon="6.618206"><ele>378.8</ele><time>2026-06-01T06:20:16Z</time></trkpt>
<trkpt lat="46.515317" lon="6.618159"><ele>378.7</ele><time>2026-06-01T06:20:24Z</time></trkpt>
<trkpt lat="46.515417" lon="6.618115"><ele>378.7</ele><time>2026-06-01T06:20:32Z</time></trkpt>
<trkpt lat="46.515517" lon="6.618074"><ele>378.6</ele><time>2026-06-01T06:20:40Z</time></trkpt>
<trkpt lat="46.515617" lon="6.618037"><ele>378.5</ele><time>2026-06-01T06:20:48Z</time></trkpt>
<trkpt lat="46.515717" lon="6.618004"><ele>378.5</ele><time>2026-06-01T06:20:56Z</time></trkpt>
<trkpt lat="46.515818" lon="6.617974"><ele>378.4</ele><time>2026-06-01T06:21:04Z</time></trkpt>
<trkpt lat="46.515918" lon="6.617949"><ele>378.3</ele><time>2026-06-01T06:21:12Z</time></trkpt>
<trkpt lat="46.516018" lon="6.617927"><ele>378.2</ele><time>2026-06-01T06:21:20Z</time></trkpt>
<trkpt lat="46.516118" lon="6.617910"><ele>378.2</ele><time>2026-06-01T06:21:28Z</time></trkpt>
<trkpt lat="46.516218" lon="6.617897"><ele>378.1</ele><time>2026-06-01T06:21:36Z</time></trkpt>
<trkpt lat="46.516318" lon="6.617889"><ele>378.0</ele><time>2026-06-01T06:21:44Z</time></trkpt>
<trkpt lat="46.516418" lon="6.617885"><ele>378.0</ele><time>2026-06-01T06:21:52Z</time></trkpt>
<trkpt lat="46.516518" lon="6.617885"><ele>377.9</ele><time>2026-06-01T06:22:00Z</time></trkpt>
<trkpt lat="46.516618" lon="6.617891"><ele>377.8</ele><time>2026-06-01T06:22:08Z</time></trkpt>
<trkpt lat="46.516719" lon="6.617901"><ele>377.8</ele><time>2026-06-01T06:22:16Z</time></trkpt>
<trkpt lat="46.516819" lon="6.617916"><ele>377.7</ele><time>2026-06-01T06:22:24Z</time></trkpt>
<trkpt lat="46.516919" lon="6.617935"><ele>377.6</ele><time>2026-06-01T06:22:32Z</time></trkpt>
<trkpt lat="46.517019" lon="6.617960"><ele>377.5</ele><time>2026-06-01T06:22:40Z</time></trkpt>
<trkpt lat="46.517119" lon="6.617990"><ele>377.5</ele><time>2026-06-01T06:22:48Z</time></trkpt>
<trkpt lat="46.517219" lon="6.618025"><ele>377.4</ele><time>2026-06-01T06:22:56Z</time></trkpt>
<trkpt lat="46.517319" lon="6.618066"><ele>377.3</ele><time>2026-06-01T06:23:04Z</time></trkpt>
<trkpt lat="46.517419" lon="6.618111"><ele>377.2</ele><time>2026-06-01T06:23:12Z</time></trkpt>
<trkpt lat="46.517519" lon="6.618162"><ele>377.2</ele><time>2026-06-01T06:23:20Z</time></trkpt>
<trkpt lat="46.517620" lon="6.618219"><ele>377.1</ele><time>2026-06-01T06:23:28Z</time></trkpt>
<trkpt lat="46.517720" lon="6.618281"><ele>377.0</ele><time>2026-06-01T06:23:36Z</time></trkpt>
<trkpt lat="46.517820" lon="6.618348"><ele>377.0</ele><time>2026-06-01T06:23:44Z</time></trkpt>
<trkpt lat="46.517920" lon="6.618421"><ele>376.9</ele><time>2026-06-01T06:23:52Z</time></trkpt>
<trkpt lat="46.518020" lon="6.618500"><ele>376.8</ele><time>2026-06-01T06:24:00Z</time></trkpt>
<trkpt lat="46.518120" lon="6.618585"><ele>376.7</ele><time>2026-06-01T06:24:08Z</time></trkpt>
<trkpt lat="46.518220" lon="6.618675"><ele>376.7</ele><time>2026-06-01T06:24:16Z</time></trkpt>
<trkpt lat="46.518320" lon="6.618771"><ele>376.6</ele><time>2026-06-01T06:24:24Z</time></trkpt>
<trkpt lat="46.518420" lon="6.618873"><ele>376.5</ele><time>2026-06-01T06:24:32Z</time></trkpt>
<trkpt lat="46.518521" lon="6.618981"><ele>376.4</ele><time>2026-06-01T06:24:40Z</time></trkpt>
<trkpt lat="46.518621" lon="6.619094"><ele>376.4</ele><time>2026-06-01T06:24:48Z</time></trkpt>
<trkpt lat="46.518721" lon="6.619214"><ele>376.3</ele><time>2026-06-01T06:24:56Z</time></trkpt>
<trkpt lat="46.518821" lon="6.619339"><ele>376.2</ele><time>2026-06-01T06:25:04Z</time></trkpt>
<trkpt lat="46.518921" lon="6.619471"><ele>376.2</ele><time>2026-06-01T06:25:12Z</time></trkpt>
<trkpt lat="46.519021" lon="6.619608"><ele>376.1</ele><time>2026-06-01T06:25:20Z</time></trkpt>
<trkpt lat="46.519121" lon="6.619751"><ele>376.0</ele><time>2026-06-01T06:25:28Z</time></trkpt>
<trkpt lat="46.519221" lon="6.619901"><ele>375.9</ele><time>2026-06-01T06:25:36Z</time></trkpt>
<trkpt lat="46.519321" lon="6.620056"><ele>375.9</ele><time>2026-06-01T06:25:44Z</time></trkpt>
<trkpt lat="46.519422" lon="6.620218"><ele>375.8</ele><time>2026-06-01T06:25:52Z</time></trkpt>
<trkpt lat="46.519522" lon="6.620385"><ele>375.7</ele><time>2026-06-01T06:26:00Z</time></trkpt>
<trkpt lat="46.519622" lon="6.620558"><ele>375.7</ele><time>2026-06-01T06:26:08Z</time></trkpt>
<trkpt lat="46.519722" lon="6.620737"><ele>375.6</ele><time>2026-06-01T06:26:16Z</time></trkpt>
<trkpt lat="46.519822" lon="6.620923"><ele>375.5</ele><time>2026-06-01T06:26:24Z</time></trkpt>
<trkpt lat="46.519922" lon="6.621114"><ele>375.5</ele><time>2026-06-01T06:26:32Z</time></trkpt>
<trkpt lat="46.520022" lon="6.621311"><ele>375.4</ele><time>2026-06-01T06:26:40Z</time></trkpt>
<trkpt lat="46.520122" lon="6.621514"><ele>375.3</ele><time>2026-06-01T06:26:48Z</time></trkpt>
<trkpt lat="46.520222" lon="6.621723"><ele>375.3</ele><time>2026-06-01T06:26:56Z</time></trkpt>
<trkpt lat="46.520323" lon="6.621937"><ele>375.2</ele><time>2026-06-01T06:27:04Z</time></trkpt>
<trkpt lat="46.520423" lon="6.622158"><ele>375.1</ele><time>2026-06-01T06:27:12Z</time></trkpt>
<trkpt lat="46.520523" lon="6.622384"><ele>375.1</ele><time>2026-06-01T06:27:20Z</time></trkpt>
<trkpt lat="46.520623" lon="6.622616"><ele>375.0</ele><time>2026-06-01T06:27:28Z</time></trkpt>
<trkpt lat="46.520723" lon="6.622853"><ele>374.9</ele><time>2026-06-01T06:27:36Z</time></trkpt>
<trkpt lat="46.520823" lon="6.623096"><ele>374.9</ele><time>2026-06-01T06:27:44Z</time></trkpt>
<trkpt lat="46.520923" lon="6.623345"><ele>374.8</ele><time>2026-06-01T06:27:52Z</time></trkpt>
<trkpt lat="46.521023" lon="6.623599"><ele>374.8</ele><time>2026-06-01T06:28:00Z</time></trkpt>
<trkpt lat="46.521123" lon="6.623859"><ele>374.7</ele><time>2026-06-01T06:28:08Z</time></trkpt>
<trkpt lat="46.521224" lon="6.624124"><ele>374.6</ele><time>2026-06-01T06:28:16Z</time></trkpt>
<trkpt lat="46.521324" lon="6.624395"><ele>374.6</ele><time>2026-06-01T06:28:24Z</time></trkpt>
<trkpt lat="46.521424" lon="6.624670"><ele>374.5</ele><time>2026-06-01T06:28:32Z</time></trkpt>
<trkpt lat="46.521524" lon="6.624951"><ele>374.5</ele><time>2026-06-01T06:28:40Z</time></trkpt>
<trkpt lat="46.521624" lon="6.625237"><ele>374.4</ele><time>2026-06-01T06:28:48Z</time></trkpt>
<trkpt lat="46.521724" lon="6.625528"><ele>374.4</ele><time>2026-06-01T06:28:56Z</time></trkpt>
<trkpt lat="46.521824" lon="6.625824"><ele>374.3</ele><time>2026-06-01T06:29:04Z</time></trkpt>
<trkpt lat="46.521924" lon="6.626125"><ele>374.2</ele><time>2026-06-01T06:29:12Z</time></trkpt>
<trkpt lat="46.522024" lon="6.626431"><ele>374.2</ele><time>2026-06-01T06:29:20Z</time></trkpt>
<trkpt lat="46.522125" lon="6.626741"><ele>374.1</ele><time>2026-06-01T06:29:28Z</time></trkpt>
<trkpt lat="46.522225" lon="6.627056"><ele>374.1</ele><time>2026-06-01T06:29:36Z</time></trkpt>
<trkpt lat="46.522325" lon="6.627375"><ele>374.0</ele><time>2026-06-01T06:29:44Z</time></trkpt>
<trkpt lat="46.522425" lon="6.627699"><ele>374.0</ele><time>2026-06-01T06:29:52Z</time></trkpt>
<trkpt lat="46.522525" lon="6.628027"><ele>373.9</ele><time>2026-06-01T06:30:00Z</time></trkpt>
<trkpt lat="46.522625" lon="6.628359"><ele>373.9</ele><time>2026-06-01T06:30:08Z</time></trkpt>
<trkpt lat="46.522725" lon="6.628696"><ele>373.8</ele><time>2026-06-01T06:30:16Z</time></trkpt>
<trkpt lat="46.522825" lon="6.629036"><ele>373.8</ele><time>2026-06-01T06:30:24Z</time></trkpt>
<trkpt lat="46.522925" lon="6.629380"><ele>373.7</ele><time>2026-06-01T06:30:32Z</time></trkpt>
<trkpt lat="46.523026" lon="6.629728"><ele>373.7</ele><time>2026-06-01T06:30:40Z</time></trkpt>
<trkpt lat="46.523126" lon="6.630080"><ele>373.7</ele><time>2026-06-01T06:30:48Z</time></trkpt>
<trkpt lat="46.523226" lon="6.630435"><ele>373.6</ele><time>2026-06-01T06:30:56Z</time></trkpt>
<trkpt lat="46.523326" lon="6.630794"><ele>373.6</ele><time>2026-06-01T06:31:04Z</time></trkpt>
<trkpt lat="46.523426" lon="6.631156"><ele>373.5</ele><time>2026-06-01T06:31:12Z</time></trkpt>
<trkpt lat="46.523526" lon="6.631521"><ele>373.5</ele><time>2026-06-01T06:31:20Z</time></trkpt>
<trkpt lat="46.523626" lon="6.631889"><ele>373.4</ele><time>2026-06-01T06:31:28Z</time></trkpt>
<trkpt lat="46.523726" lon="6.632260"><ele>373.4</ele><time>2026-06-01T06:31:36Z</time></trkpt>
<trkpt lat="46.523826" lon="6.632633"><ele>373.4</ele><time>2026-06-01T06:31:44Z</time></trkpt>
<trkpt lat="46.523927" lon="6.633010"><ele>373.3</ele><time>2026-06-01T06:31:52Z</time></trkpt>
<trkpt lat="46.524027" lon="6.633389"><ele>373.3</ele><time>2026-06-01T06:32:00Z</time></trkpt>
<trkpt lat="46.524127" lon="6.633770"><ele>373.3</ele><time>2026-06-01T06:32:08Z</time></trkpt>
<trkpt lat="46.524227" lon="6.634154"><ele>373.2</ele><time>2026-06-01T06:32:16Z</time></trkpt>
<trkpt lat="46.524327" lon="6.634539"><ele>373.2</ele><time>2026-06-01T06:32:24Z</time></trkpt>
<trkpt lat="46.524427" lon="6.634927"><ele>373.1</ele><time>2026-06-01T06:32:32Z</time></trkpt>
<trkpt lat="46.524527" lon="6.635317"><ele>373.1</ele><time>2026-06-01T06:32:40Z</time></trkpt>
<trkpt lat="46.524627" lon="6.635708"><ele>373.1</ele><time>2026-06-01T06:32:48Z</time></trkpt>
<trkpt lat="46.524727" lon="6.636101"><ele>373.1</ele><time>2026-06-01T06:32:56Z</time></trkpt>
<trkpt lat="46.524828" lon="6.636495"><ele>373.0</ele><time>2026-06-01T06:33:04Z</time></trkpt>
<trkpt lat="46.524928" lon="6.636890"><ele>373.0</ele><time>2026-06-01T06:33:12Z</time></trkpt>
<trkpt lat="46.525028" lon="6.637287"><ele>373.0</ele><time>2026-06-01T06:33:20Z</time></trkpt>
<trkpt lat="46.525128" lon="6.637684"><ele>372.9</ele><time>2026-06-01T06:33:28Z</time></trkpt>
<trkpt lat="46.525228" lon="6.638083"><ele>372.9</ele><time>2026-06-01T06:33:36Z</time></trkpt>
<trkpt lat="46.525328" lon="6.638482"><ele>372.9</ele><time>2026-06-01T06:33:44Z</time></trkpt>
<trkpt lat="46.525428" lon="6.638882"><ele>372.8</ele><time>2026-06-01T06:33:52Z</time></trkpt>
<trkpt lat="46.525528" lon="6.639282"><ele>372.8</ele><time>2026-06-01T06:34:00Z</time></trkpt>
<trkpt lat="46.525628" lon="6.639682"><ele>372.8</ele><time>2026-06-01T06:34:08Z</time></trkpt>
<trkpt lat="46.525729" lon="6.640082"><ele>372.8</ele><time>2026-06-01T06:34:16Z</time></trkpt>
<trkpt lat="46.525829" lon="6.640483"><ele>372.7</ele><time>2026-06-01T06:34:24Z</time></trkpt>
<trkpt lat="46.525929" lon="6.640883"><ele>372.7</ele><time>2026-06-01T06:34:32Z</time></trkpt>
<trkpt lat="46.526029" lon="6.641283"><ele>372.7</ele><time>2026-06-01T06:34:40Z</time></trkpt>
<trkpt lat="46.526129" lon="6.641682"><ele>372.7</ele><time>2026-06-01T06:34:48Z</time></trkpt>
<trkpt lat="46.526229" lon="6.642081"><ele>372.7</ele><time>2026-06-01T06:34:56Z</time></trkpt>
<trkpt lat="46.526329" lon="6.642479"><ele>372.6</ele><time>2026-06-01T06:35:04Z</time></trkpt>
<trkpt lat="46.526429" lon="6.642876"><ele>372.6</ele><time>2026-06-01T06:35:12Z</time></trkpt>
<trkpt lat="46.526529" lon="6.643272"><ele>372.6</ele><time>2026-06-01T06:35:20Z</time></trkpt>
<trkpt lat="46.526630" lon="6.643667"><ele>372.6</ele><time>2026-06-01T06:35:28Z</time></trkpt>
<trkpt lat="46.526730" lon="6.644061"><ele>372.6</ele><time>2026-06-01T06:35:36Z</time></trkpt>
<trkpt lat="46.526830" lon="6.644453"><ele>372.5</ele><time>2026-06-01T06:35:44Z</time></trkpt>
<trkpt lat="46.526930" lon="6.644843"><ele>372.5</ele><time>2026-06-01T06:35:52Z</time></trkpt>
<trkpt lat="46.527030" lon="6.645232"><ele>372.5</ele><time>2026-06-01T06:36:00Z</time></trkpt>
<trkpt lat="46.527130" lon="6.645619"><ele>372.5</ele><time>2026-06-01T06:36:08Z</time></trkpt>
<trkpt lat="46.527230" lon="6.646003"><ele>372.5</ele><time>2026-06-01T06:36:16Z</time></trkpt>
<trkpt lat="46.527330" lon="6.646386"><ele>372.5</ele><time>2026-06-01T06:36:24Z</time></trkpt>
<trkpt lat="46.527430" lon="6.646766"><ele>372.4</ele><time>2026-06-01T06:36:32Z</time></trkpt>
<trkpt lat="46.527531" lon="6.647144"><ele>372.4</ele><time>2026-06-01T06:36:40Z</time></trkpt>
<trkpt lat="46.527631" lon="6.647519"><ele>372.4</ele><time>2026-06-01T06:36:48Z</time></trkpt>
<trkpt lat="46.527731" lon="6.647891"><ele>372.4</ele><time>2026-06-01T06:36:56Z</time></trkpt>
<trkpt lat="46.527831" lon="6.648261"><ele>372.4</ele><time>2026-06-01T06:37:04Z</time></trkpt>
<trkpt lat="46.527931" lon="6.648627"><ele>372.4</ele><time>2026-06-01T06:37:12Z</time></trkpt>
<trkpt lat="46.528031" lon="6.648991"><ele>372.4</ele><time>2026-06-01T06:37:20Z</time></trkpt>
<trkpt lat="46.528131" lon="6.649351"><ele>372.3</ele><time>2026-06-01T06:37:28Z</time></trkpt>
<trkpt lat="46.528231" lon="6.649708"><ele>372.3</ele><time>2026-06-01T06:37:36Z</time></trkpt>
<trkpt lat="46.528331" lon="6.650061"><ele>372.3</ele><time>2026-06-01T06:37:44Z</time></trkpt>
<trkpt lat="46.528432" lon="6.650411"><ele>372.3</ele><time>2026-06-01T06:37:52Z</time></trkpt>
<trkpt lat="46.528532" lon="6.650758"><ele>372.3</ele><time>2026-06-01T06:38:00Z</time></trkpt>
<trkpt lat="46.528632" lon="6.651100"><ele>372.3</ele><time>2026-06-01T06:38:08Z</time></trkpt>
<trkpt lat="46.528732" lon="6.651438"><ele>372.3</ele><time>2026-06-01T06:38:16Z</time></trkpt>
<trkpt lat="46.528832" lon="6.651773"><ele>372.3</ele><time>2026-06-01T06:38:24Z</time></trkpt>
<trkpt lat="46.528932" lon="6.652103"><ele>372.3</ele><time>2026-06-01T06:38:32Z</time></trkpt>
<trkpt lat="46.529032" lon="6.652429"><ele>372.2</ele><time>2026-06-01T06:38:40Z</time></trkpt>
<trkpt lat="46.529132" lon="6.652750"><ele>372.2</ele><time>2026-06-01T06:38:48Z</time></trkpt>
<trkpt lat="46.529232" lon="6.653068"><ele>372.2</ele><time>2026-06-01T06:38:56Z</time></trkpt>
<trkpt lat="46.529333" lon="6.653380"><ele>372.2</ele><time>2026-06-01T06:39:04Z</time></trkpt>
<trkpt lat="46.529433" lon="6.653688"><ele>372.2</ele><time>2026-06-01T06:39:12Z</time></trkpt>
<trkpt lat="46.529533" lon="6.653992"><ele>372.2</ele><time>2026-06-01T06:39:20Z</time></trkpt>
<trkpt lat="46.529633" lon="6.654290"><ele>372.2</ele><time>2026-06-01T06:39:28Z</time></trkpt>
<trkpt lat="46.529733" lon="6.654584"><ele>372.2</ele><time>2026-06-01T06:39:36Z</time></trkpt>
<trkpt lat="46.529833" lon="6.654872"><ele>372.2</ele><time>2026-06-01T06:39:44Z</time></trkpt>
<trkpt lat="46.529933" lon="6.655156"><ele>372.2</ele><time>2026-06-01T06:39:52Z</time></trkpt>
<trkpt lat="46.530033" lon="6.655434"><ele>372.1</ele><time>2026-06-01T06:40:00Z</time></trkpt>
<trkpt lat="46.530133" lon="6.655707"><ele>372.1</ele><time>2026-06-01T06:40:08Z</time></trkpt>
<trkpt lat="46.530234" lon="6.655975"><ele>372.1</ele><time>2026-06-01T06:40:16Z</time></trkpt>
<trkpt lat="46.530334" lon="6.656237"><ele>372.1</ele><time>2026-06-01T06:40:24Z</time></trkpt>
<trkpt lat="46.530434" lon="6.656494"><ele>372.1</ele><time>2026-06-01T06:40:32Z</time></trkpt>
<trkpt lat="46.530534" lon="6.656746"><ele>372.1</ele><time>2026-06-01T06:40:40Z</time></trkpt>
<trkpt lat="46.530634" lon="6.656992"><ele>372.1</ele><time>2026-06-01T06:40:48Z</time></trkpt>
<trkpt lat="46.530734" lon="6.657232"><ele>372.1</ele><time>2026-06-01T06:40:56Z</time></trkpt>
<trkpt lat="46.530834" lon="6.657467"><ele>372.1</ele><time>2026-06-01T06:41:04Z</time></trkpt>
<trkpt lat="46.530934" lon="6.657696"><ele>372.1</ele><time>2026-06-01T06:41:12Z</time></trkpt>
<trkpt lat="46.531034" lon="6.657919"><ele>372.0</ele><time>2026-06-01T06:41:20Z</time></trkpt>
<trkpt lat="46.531135" lon="6.658137"><ele>372.0</ele><time>2026-06-01T06:41:28Z</time></trkpt>
<trkpt lat="46.531235" lon="6.658349"><ele>372.0</ele><time>2026-06-01T06:41:36Z</time></trkpt>
<trkpt lat="46.531335" lon="6.658555"><ele>372.0</ele><time>2026-06-01T06:41:44Z</time></trkpt>
<trkpt lat="46.531435" lon="6.658755"><ele>372.0</ele><time>2026-06-01T06:41:52Z</time></trkpt>
<trkpt lat="46.531535" lon="6.658949"><ele>372.0</ele><time>2026-06-01T06:42:00Z</time></trkpt>
<trkpt lat="46.531635" lon="6.659137"><ele>372.0</ele><time>2026-06-01T06:42:08Z</time></trkpt>
<trkpt lat="46.531735" lon="6.659319"><ele>371.9</ele><time>2026-06-01T06:42:16Z</time></trkpt>
<trkpt lat="46.531835" lon="6.659496"><ele>371.9</ele><time>2026-06-01T06:42:24Z</time></trkpt>
<trkpt lat="46.531935" lon="6.659666"><ele>371.9</ele><time>2026-06-01T06:42:32Z</time></trkpt>
<trkpt lat="46.532036" lon="6.659830"><ele>371.9</ele><time>2026-06-01T06:42:40Z</time></trkpt>
<trkpt lat="46.532136" lon="6.659989"><ele>371.9</ele><time>2026-06-01T06:42:48Z</time></trkpt>
<trkpt lat="46.532236" lon="6.660141"><ele>371.9</ele><time>2026-06-01T06:42:56Z</time></trkpt>
<trkpt lat="46.532336" lon="6.660288"><ele>371.9</ele><time>2026-06-01T06:43:04Z</time></trkpt>
<trkpt lat="46.532436" lon="6.660428"><ele>371.8</ele><time>2026-06-01T06:43:12Z</time></trkpt>
<trkpt lat="46.532536" lon="6.660563"><ele>371.8</ele><time>2026-06-01T06:43:20Z</time></trkpt>
<trkpt lat="46.532636" lon="6.660691"><ele>371.8</ele><time>2026-06-01T06:43:28Z</time></trkpt>
<trkpt lat="46.532736" lon="6.660814"><ele>371.8</ele><time>2026-06-01T06:43:36Z</time></trkpt>
<trkpt lat="46.532836" lon="6.660930"><ele>371.8</ele><time>2026-06-01T06:43:44Z</time></trkpt>
<trkpt lat="46.532937" lon="6.661041"><ele>371.7</ele><time>2026-06-01T06:43:52Z</time></trkpt>
<trkpt lat="46.533037" lon="6.661146"><ele>371.7</ele><time>2026-06-01T06:44:00Z</time></trkpt>
<trkpt lat="46.533137" lon="6.661245"><ele>371.7</ele><time>2026-06-01T06:44:08Z</time></trkpt>
<trkpt lat="46.533237" lon="6.661338"><ele>371.7</ele><time>2026-06-01T06:44:16Z</time></trkpt>
<trkpt lat="46.533337" lon="6.661425"><ele>371.7</ele><time>2026-06-01T06:44:24Z</time></trkpt>
<trkpt lat="46.533437" lon="6.661507"><ele>371.6</ele><time>2026-06-01T06:44:32Z</time></trkpt>
<trkpt lat="46.533537" lon="6.661583"><ele>371.6</ele><time>2026-06-01T06:44:40Z</time></trkpt>
<trkpt lat="46.533637" lon="6.661654"><ele>371.6</ele><time>2026-06-01T06:44:48Z</time></trkpt>
<trkpt lat="46.533737" lon="6.661718"><ele>371.6</ele><time>2026-06-01T06:44:56Z</time></trkpt>
<trkpt lat="46.533838" lon="6.661778"><ele>371.5</ele><time>2026-06-01T06:45:04Z</time></trkpt>
<trkpt lat="46.533938" lon="6.661831"><ele>371.5</ele><time>2026-06-01T06:45:12Z</time></trkpt>
<trkpt lat="46.534038" lon="6.661880"><ele>371.5</ele><time>2026-06-01T06:45:20Z</time></trkpt>
<trkpt lat="46.534138" lon="6.661923"><ele>371.5</ele><time>2026-06-01T06:45:28Z</time></trkpt>
<trkpt lat="46.534238" lon="6.661961"><ele>371.4</ele><time>2026-06-01T06:45:36Z</time></trkpt>
<trkpt lat="46.534338" lon="6.661993"><ele>371.4</ele><time>2026-06-01T06:45:44Z</time></trkpt>
<trkpt lat="46.534438" lon="6.662020"><ele>371.4</ele><time>2026-06-01T06:45:52Z</time></trkpt>
<trkpt lat="46.534538" lon="6.662043"><ele>371.3</ele><time>2026-06-01T06:46:00Z</time></trkpt>
<trkpt lat="46.534638" lon="6.662060"><ele>371.3</ele><time>2026-06-01T06:46:08Z</time></trkpt>
<trkpt lat="46.534739" lon="6.662073"><ele>371.3</ele><time>2026-06-01T06:46:16Z</time></trkpt>
<trkpt lat="46.534839" lon="6.662080"><ele>371.2</ele><time>2026-06-01T06:46:24Z</time></trkpt>
<trkpt lat="46.534939" lon="6.662083"><ele>371.2</ele><time>2026-06-01T06:46:32Z</time></trkpt>
<trkpt lat="46.535039" lon="6.662082"><ele>371.2</ele><time>2026-06-01T06:46:40Z</time></trkpt>
<trkpt lat="46.535139" lon="6.662075"><ele>371.1</ele><time>2026-06-01T06:46:48Z</time></trkpt>
<trkpt lat="46.535239" lon="6.662065"><ele>371.1</ele><time>2026-06-01T06:46:56Z</time></trkpt>
<trkpt lat="46.535339" lon="6.662050"><ele>371.1</ele><time>2026-06-01T06:47:04Z</time></trkpt>
<trkpt lat="46.535439" lon="6.662030"><ele>371.0</ele><time>2026-06-01T06:47:12Z</time></trkpt>
<trkpt lat="46.535539" lon="6.662007"><ele>371.0</ele><time>2026-06-01T06:47:20Z</time></trkpt>
<trkpt lat="46.535640" lon="6.661979"><ele>370.9</ele><time>2026-06-01T06:47:28Z</time></trkpt>
<trkpt lat="46.535740" lon="6.661948"><ele>370.9</ele><time>2026-06-01T06:47:36Z</time></trkpt>
<trkpt lat="46.535840" lon="6.661913"><ele>370.9</ele><time>2026-06-01T06:47:44Z</time></trkpt>
<trkpt lat="46.535940" lon="6.661874"><ele>370.8</ele><time>2026-06-01T06:47:52Z</time></trkpt>
<trkpt lat="46.536040" lon="6.661832"><ele>370.8</ele><time>2026-06-01T06:48:00Z</time></trkpt>
<trkpt lat="46.536140" lon="6.661786"><ele>370.7</ele><time>2026-06-01T06:48:08Z</time></trkpt>
<trkpt lat="46.536240" lon="6.661737"><ele>370.7</ele><time>2026-06-01T06:48:16Z</time></trkpt>
<trkpt lat="46.536340" lon="6.661684"><ele>370.6</ele><time>2026-06-01T06:48:24Z</time></trkpt>
<trkpt lat="46.536440" lon="6.661629"><ele>370.6</ele><time>2026-06-01T06:48:32Z</time></trkpt>
<trkpt lat="46.536541" lon="6.661570"><ele>370.5</ele><time>2026-06-01T06:48:40Z</time></trkpt>
<trkpt lat="46.536641" lon="6.661509"><ele>370.5</ele><time>2026-06-01T06:48:48Z</time></trkpt>
<trkpt lat="46.536741" lon="6.661445"><ele>370.4</ele><time>2026-06-01T06:48:56Z</time></trkpt>
<trkpt lat="46.536841" lon="6.661379"><ele>370.4</ele><time>2026-06-01T06:49:04Z</time></trkpt>
<trkpt lat="46.536941" lon="6.661310"><ele>370.3</ele><time>2026-06-01T06:49:12Z</time></trkpt>
<trkpt lat="46.537041" lon="6.661238"><ele>370.3</ele><time>2026-06-01T06:49:20Z</time></trkpt>
<trkpt lat="46.537141" lon="6.661165"><ele>370.2</ele><time>2026-06-01T06:49:28Z</time></trkpt>
<trkpt lat="46.537241" lon="6.661089"><ele>370.2</ele><time>2026-06-01T06:49:36Z</time></trkpt>
<trkpt lat="46.537341" lon="6.661012"><ele>370.1</ele><time>2026-06-01T06:49:44Z</time></trkpt>
<trkpt lat="46.537442" lon="6.660933"><ele>370.1</ele><time>2026-06-01T06:49:52Z</time></trkpt>
<trkpt lat="46.537542" lon="6.660852"><ele>370.0</ele><time>2026-06-01T06:50:00Z</time></trkpt>
<trkpt lat="46.537642" lon="6.660770"><ele>370.0</ele><time>2026-06-01T06:50:08Z</time></trkpt>
<trkpt lat="46.537742" lon="6.660686"><ele>369.9</ele><time>2026-06-01T06:50:16Z</time></trkpt>
<trkpt lat="46.537842" lon="6.660602"><ele>369.8</ele><time>2026-06-01T06:50:24Z</time></trkpt>
<trkpt lat="46.537942" lon="6.660516"><ele>369.8</ele><time>2026-06-01T06:50:32Z</time></trkpt>
<trkpt lat="46.538042" lon="6.660429"><ele>369.7</ele><time>2026-06-01T06:50:40Z</time></trkpt>
<trkpt lat="46.538142" lon="6.660342"><ele>369.7</ele><time>2026-06-01T06:50:48Z</time></trkpt>
<trkpt lat="46.538242" lon="6.660254"><ele>369.6</ele><time>2026-06-01T06:50:56Z</time></trkpt>
<trkpt lat="46.538343" lon="6.660165"><ele>369.5</ele><time>2026-06-01T06:51:04Z</time></trkpt>
<trkpt lat="46.538443" lon="6.660076"><ele>369.5</ele><time>2026-06-01T06:51:12Z</time></trkpt>
<trkpt lat="46.538543" lon="6.659987"><ele>369.4</ele><time>2026-06-01T06:51:20Z</time></trkpt>
<trkpt lat="46.538643" lon="6.659899"><ele>369.4</ele><time>2026-06-01T06:51:28Z</time></trkpt>
<trkpt lat="46.538743" lon="6.659810"><ele>369.3</ele><time>2026-06-01T06:51:36Z</time></trkpt>
<trkpt lat="46.538843" lon="6.659721"><ele>369.2</ele><time>2026-06-01T06:51:44Z</time></trkpt>
<trkpt lat="46.538943" lon="6.659633"><ele>369.2</ele><time>2026-06-01T06:51:52Z</time></trkpt>
<trkpt lat="46.539043" lon="6.659545"><ele>369.1</ele><time>2026-06-01T06:52:00Z</time></trkpt>
<trkpt lat="46.539143" lon="6.659458"><ele>369.0</ele><time>2026-06-01T06:52:08Z</time></trkpt>
<trkpt lat="46.539244" lon="6.659372"><ele>369.0</ele><time>2026-06-01T06:52:16Z</time></trkpt>
<trkpt lat="46.539344" lon="6.659287"><ele>368.9</ele><time>2026-06-01T06:52:24Z</time></trkpt>
<trkpt lat="46.539444" lon="6.659204"><ele>368.8</ele><time>2026-06-01T06:52:32Z</time></trkpt>
<trkpt lat="46.539544" lon="6.659121"><ele>368.8</ele><time>2026-06-01T06:52:40Z</time></trkpt>
<trkpt lat="46.539644" lon="6.659040"><ele>368.7</ele><time>2026-06-01T06:52:48Z</time></trkpt>
<trkpt lat="46.539744" lon="6.658960"><ele>368.6</ele><time>2026-06-01T06:52:56Z</time></trkpt>
<trkpt lat="46.539844" lon="6.658882"><ele>368.5</ele><time>2026-06-01T06:53:04Z</time></trkpt>
<trkpt lat="46.539944" lon="6.658806"><ele>368.5</ele><time>2026-06-01T06:53:12Z</time></trkpt>
<trkpt lat="46.540044" lon="6.658732"><ele>368.4</ele><time>2026-06-01T06:53:20Z</time></trkpt>
<trkpt lat="46.540145" lon="6.658661"><ele>368.3</ele><time>2026-06-01T06:53:28Z</time></trkpt>
<trkpt lat="46.540245" lon="6.658591"><ele>368.3</ele><time>2026-06-01T06:53:36Z</time></trkpt>
<trkpt lat="46.540345" lon="6.658524"><ele>368.2</ele><time>2026-06-01T06:53:44Z</time></trkpt>
<trkpt lat="46.540445" lon="6.658459"><ele>368.1</ele><time>2026-06-01T06:53:52Z</time></trkpt>
<trkpt lat="46.540545" lon="6.658397"><ele>368.0</ele><time>2026-06-01T06:54:00Z</time></trkpt>
<trkpt lat="46.540645" lon="6.658338"><ele>368.0</ele><time>2026-06-01T06:54:08Z</time></trkpt>
<trkpt lat="46.540745" lon="6.658282"><ele>367.9</ele><time>2026-06-01T06:54:16Z</time></trkpt>
<trkpt lat="46.540845" lon="6.658228"><ele>367.8</ele><time>2026-06-01T06:54:24Z</time></trkpt>
<trkpt lat="46.540945" lon="6.658178"><ele>367.7</ele><time>2026-06-01T06:54:32Z</time></trkpt>
<trkpt lat="46.541046" lon="6.658132"><ele>367.7</ele><time>2026-06-01T06:54:40Z</time></trkpt>
<trkpt lat="46.541146" lon="6.658088"><ele>367.6</ele><time>2026-06-01T06:54:48Z</time></trkpt>
<trkpt lat="46.541246" lon="6.658048"><ele>367.5</ele><time>2026-06-01T06:54:56Z</time></trkpt>
<trkpt lat="46.541346" lon="6.658012"><ele>367.4</ele><time>2026-06-01T06:55:04Z</time></trkpt>
<trkpt lat="46.541446" lon="6.657980"><ele>367.4</ele><time>2026-06-01T06:55:12Z</time></trkpt>
<trkpt lat="46.541546" lon="6.657952"><ele>367.3</ele><time>2026-06-01T06:55:20Z</time></trkpt>
<trkpt lat="46.541646" lon="6.657927"><ele>367.2</ele><time>2026-06-01T06:55:28Z</time></trkpt>
<trkpt lat="46.541746" lon="6.657907"><ele>367.1</ele><time>2026-06-01T06:55:36Z</time></trkpt>
<trkpt lat="46.541846" lon="6.657891"><ele>367.0</ele><time>2026-06-01T06:55:44Z</time></trkpt>
<trkpt lat="46.541947" lon="6.657879"><ele>367.0</ele><time>2026-06-01T06:55:52Z</time></trkpt>
<trkpt lat="46.542047" lon="6.657871"><ele>366.9</ele><time>2026-06-01T06:56:00Z</time></trkpt>
<trkpt lat="46.542147" lon="6.657869"><ele>366.8</ele><time>2026-06-01T06:56:08Z</time></trkpt>
<trkpt lat="46.542247" lon="6.657870"><ele>366.7</ele><time>2026-06-01T06:56:16Z</time></trkpt>
<trkpt lat="46.542347" lon="6.657877"><ele>366.7</ele><time>2026-06-01T06:56:24Z</time></trkpt>
<trkpt lat="46.542447" lon="6.657888"><ele>366.6</ele><time>2026-06-01T06:56:32Z</time></trkpt>
<trkpt lat="46.542547" lon="6.657904"><ele>366.5</ele><time>2026-06-01T06:56:40Z</time></trkpt>
<trkpt lat="46.542647" lon="6.657925"><ele>366.4</ele><time>2026-06-01T06:56:48Z</time></trkpt>
<trkpt lat="46.542747" lon="6.657951"><ele>366.4</ele><time>2026-06-01T06:56:56Z</time></trkpt>
<trkpt lat="46.542848" lon="6.657982"><ele>366.3</ele><time>2026-06-01T06:57:04Z</time></trkpt>
<trkpt lat="46.542948" lon="6.658019"><ele>366.2</ele><time>2026-06-01T06:57:12Z</time></trkpt>
<trkpt lat="46.543048" lon="6.658060"><ele>366.1</ele><time>2026-06-01T06:57:20Z</time></trkpt>
<trkpt lat="46.543148" lon="6.658107"><ele>366.1</ele><time>2026-06-01T06:57:28Z</time></trkpt>
<trkpt lat="46.543248" lon="6.658160"><ele>366.0</ele><time>2026-06-01T06:57:36Z</time></trkpt>
<trkpt lat="46.543348" lon="6.658217"><ele>365.9</ele><time>2026-06-01T06:57:44Z</time></trkpt>
<trkpt lat="46.543448" lon="6.658281"><ele>365.8</ele><time>2026-06-01T06:57:52Z</time></trkpt>
<trkpt lat="46.543548" lon="6.658350"><ele>365.8</ele><time>2026-06-01T06:58:00Z</time></trkpt>
<trkpt lat="46.543648" lon="6.658424"><ele>365.7</ele><time>2026-06-01T06:58:08Z</time></trkpt>
<trkpt lat="46.543749" lon="6.658504"><ele>365.6</ele><time>2026-06-01T06:58:16Z</time></trkpt>
<trkpt lat="46.543849" lon="6.658590"><ele>365.6</ele><time>2026-06-01T06:58:24Z</time></trkpt>
<trkpt lat="46.543949" lon="6.658682"><ele>365.5</ele><time>2026-06-01T06:58:32Z</time></trkpt>
<trkpt lat="46.544049" lon="6.658779"><ele>365.4</ele><time>2026-06-01T06:58:40Z</time></trkpt>
<trkpt lat="46.544149" lon="6.658883"><ele>365.3</ele><time>2026-06-01T06:58:48Z</time></trkpt>
<trkpt lat="46.544249" lon="6.658992"><ele>365.3</ele><time>2026-06-01T06:58:56Z</time></trkpt>
<trkpt lat="46.544349" lon="6.659107"><ele>365.2</ele><time>2026-06-01T06:59:04Z</time></trkpt>
<trkpt lat="46.544449" lon="6.659228"><ele>365.1</ele><time>2026-06-01T06:59:12Z</time></trkpt>
<trkpt lat="46.544549" lon="6.659355"><ele>365.1</ele><time>2026-06-01T06:59:20Z</time></trkpt>
<trkpt lat="46.544650" lon="6.659488"><ele>365.0</ele><time>2026-06-01T06:59:28Z</time></trkpt>
<trkpt lat="46.544750" lon="6.659627"><ele>364.9</ele><time>2026-06-01T06:59:36Z</time></trkpt>
<trkpt lat="46.544850" lon="6.659772"><ele>364.9</ele><time>2026-06-01T06:59:44Z</time></trkpt>
<trkpt lat="46.544950" lon="6.659922"><ele>364.8</ele><time>2026-06-01T06:59:52Z</time></trkpt>
<trkpt lat="46.545050" lon="6.660079"><ele>364.7</ele><time>2026-06-01T06:00:00Z</time></trkpt>
<trkpt lat="46.545150" lon="6.660242"><ele>364.7</ele><time>2026-06-01T06:00:08Z</time></trkpt>
<trkpt lat="46.545250" lon="6.660411"><ele>364.6</ele><time>2026-06-01T06:00:16Z</time></trkpt>
<trkpt lat="46.545350" lon="6.660586"><ele>364.6</ele><time>2026-06-01T06:00:24Z</time></trkpt>
<trkpt lat="46.545451" lon="6.660766"><ele>364.5</ele><time>2026-06-01T06:00:32Z</time></trkpt>
<trkpt lat="46.545551" lon="6.660953"><ele>364.4</ele><time>2026-06-01T06:00:40Z</time></trkpt>
<trkpt lat="46.545651" lon="6.661146"><ele>364.4</ele><time>2026-06-01T06:00:48Z</time></trkpt>
<trkpt lat="46.545751" lon="6.661344"><ele>364.3</ele><time>2026-06-01T06:00:56Z</time></trkpt>
<trkpt lat="46.545851" lon="6.661548"><ele>364.3</ele><time>2026-06-01T06:01:04Z</time></trkpt>
<trkpt lat="46.545951" lon="6.661759"><ele>364.2</ele><time>2026-06-01T06:01:12Z</time></trkpt>
<trkpt lat="46.546051" lon="6.661975"><ele>364.2</ele><time>2026-06-01T06:01:20Z</time></trkpt>
<trkpt lat="46.546151" lon="6.662197"><ele>364.1</ele><time>2026-06-01T06:01:28Z</time></trkpt>
<trkpt lat="46.546251" lon="6.662424"><ele>364.1</ele><time>2026-06-01T06:01:36Z</time></trkpt>
<trkpt lat="46.546352" lon="6.662658"><ele>364.0</ele><time>2026-06-01T06:01:44Z</time></trkpt>
<trkpt lat="46.546452" lon="6.662897"><ele>364.0</ele><time>2026-06-01T06:01:52Z</time></trkpt>
<trkpt lat="46.546552" lon="6.663141"><ele>363.9</ele><time>2026-06-01T06:02:00Z</time></trkpt>
<trkpt lat="46.546652" lon="6.663391"><ele>363.9</ele><time>2026-06-01T06:02:08Z</time></trkpt>
<trkpt lat="46.546752" lon="6.663647"><ele>363.8</ele><time>2026-06-01T06:02:16Z</time></trkpt>
<trkpt lat="46.546852" lon="6.663908"><ele>363.8</ele><time>2026-06-01T06:02:24Z</time></trkpt>
<trkpt lat="46.546952" lon="6.664174"><ele>363.7</ele><time>2026-06-01T06:02:32Z</time></trkpt>
<trkpt lat="46.547052" lon="6.664446"><ele>363.7</ele><time>2026-06-01T06:02:40Z</time></trkpt>
<trkpt lat="46.547152" lon="6.664723"><ele>363.7</ele><time>2026-06-01T06:02:48Z</time></trkpt>
<trkpt lat="46.547253" lon="6.665005"><ele>363.6</ele><time>2026-06-01T06:02:56Z</time></trkpt>
<trkpt lat="46.547353" lon="6.665292"><ele>363.6</ele><time>2026-06-01T06:03:04Z</time></trkpt>
<trkpt lat="46.547453" lon="6.665585"><ele>363.6</ele><time>2026-06-01T06:03:12Z</time></trkpt>
<trkpt lat="46.547553" lon="6.665882"><ele>363.5</ele><time>2026-06-01T06:03:20Z</time></trkpt>
<trkpt lat="46.547653" lon="6.666184"><ele>363.5</ele><time>2026-06-01T06:03:28Z</time></trkpt>
<trkpt lat="46.547753" lon="6.666490"><ele>363.5</ele><time>2026-06-01T06:03:36Z</time></trkpt>
<trkpt lat="46.547853" lon="6.666802"><ele>363.4</ele><time>2026-06-01T06:03:44Z</time></trkpt>
<trkpt lat="46.547953" lon="6.667118"><ele>363.4</ele><time>2026-06-01T06:03:52Z</time></trkpt>
<trkpt lat="46.548053" lon="6.667438"><ele>363.4</ele><time>2026-06-01T06:04:00Z</time></trkpt>
<trkpt lat="46.548154" lon="6.667763"><ele>363.4</ele><time>2026-06-01T06:04:08Z</time></trkpt>
<trkpt lat="46.548254" lon="6.668092"><ele>363.3</ele><time>2026-06-01T06:04:16Z</time></trkpt>
<trkpt lat="46.548354" lon="6.668426"><ele>363.3</ele><time>2026-06-01T06:04:24Z</time></trkpt>
<trkpt lat="46.548454" lon="6.668763"><ele>363.3</ele><time>2026-06-01T06:04:32Z</time></trkpt>
<trkpt lat="46.548554" lon="6.669104"><ele>363.3</ele><time>2026-06-01T06:04:40Z</time></trkpt>
<trkpt lat="46.548654" lon="6.669450"><ele>363.3</ele><time>2026-06-01T06:04:48Z</time></trkpt>
<trkpt lat="46.548754" lon="6.669798"><ele>363.2</ele><time>2026-06-01T06:04:56Z</time></trkpt>
<trkpt lat="46.548854" lon="6.670151"><ele>363.2</ele><time>2026-06-01T06:05:04Z</time></trkpt>
<trkpt lat="46.548954" lon="6.670507"><ele>363.2</ele><time>2026-06-01T06:05:12Z</time></trkpt>
<trkpt lat="46.549055" lon="6.670866"><ele>363.2</ele><time>2026-06-01T06:05:20Z</time></trkpt>
<trkpt lat="46.549155" lon="6.671229"><ele>363.2</ele><time>2026-06-01T06:05:28Z</time></trkpt>
<trkpt lat="46.549255" lon="6.671595"><ele>363.2</ele><time>2026-06-01T06:05:36Z</time></trkpt>
<trkpt lat="46.549355" lon="6.671964"><ele>363.2</ele><time>2026-06-01T06:05:44Z</time></trkpt>
<trkpt lat="46.549455" lon="6.672335"><ele>363.2</ele><time>2026-06-01T06:05:52Z</time></trkpt>
<trkpt lat="46.549555" lon="6.672710"><ele>363.2</ele><time>2026-06-01T06:06:00Z</time></trkpt>
<trkpt lat="46.549655" lon="6.673087"><ele>363.2</ele><time>2026-06-01T06:06:08Z</time></trkpt>
<trkpt lat="46.549755" lon="6.673466"><ele>363.2</ele><time>2026-06-01T06:06:16Z</time></trkpt>
<trkpt lat="46.549855" lon="6.673848"><ele>363.2</ele><time>2026-06-01T06:06:24Z</time></trkpt>
<trkpt lat="46.549956" lon="6.674232"><ele>363.2</ele><time>2026-06-01T06:06:32Z</time></trkpt>
<trkpt lat="46.550056" lon="6.674619"><ele>363.2</ele><time>2026-06-01T06:06:40Z</time></trkpt>
<trkpt lat="46.550156" lon="6.675007"><ele>363.2</ele><time>2026-06-01T06:06:48Z</time></trkpt>
<trkpt lat="46.550256" lon="6.675397"><ele>363.3</ele><time>2026-06-01T06:06:56Z</time></trkpt>
<trkpt lat="46.550356" lon="6.675788"><ele>363.3</ele><time>2026-06-01T06:07:04Z</time></trkpt>
<trkpt lat="46.550456" lon="6.676181"><ele>363.3</ele><time>2026-06-01T06:07:12Z</time></trkpt>
<trkpt lat="46.550556" lon="6.676576"><ele>363.3</ele><time>2026-06-01T06:07:20Z</time></trkpt>
<trkpt lat="46.550656" lon="6.676972"><ele>363.3</ele><time>2026-06-01T06:07:28Z</time></trkpt>
<trkpt lat="46.550756" lon="6.677369"><ele>363.4</ele><time>2026-06-01T06:07:36Z</time></trkpt>
<trkpt lat="46.550857" lon="6.677766"><ele>363.4</ele><time>2026-06-01T06:07:44Z</time></trkpt>
<trkpt lat="46.550957" lon="6.678165"><ele>363.4</ele><time>2026-06-01T06:07:52Z</time></trkpt>
<trkpt lat="46.551057" lon="6.678564"><ele>363.4</ele><time>2026-06-01T06:08:00Z</time></trkpt>
<trkpt lat="46.551157" lon="6.678964"><ele>363.5</ele><time>2026-06-01T06:08:08Z</time></trkpt>
<trkpt lat="46.551257" lon="6.679364"><ele>363.5</ele><time>2026-06-01T06:08:16Z</time></trkpt>
<trkpt lat="46.551357" lon="6.679765"><ele>363.5</ele><time>2026-06-01T06:08:24Z</time></trkpt>
<trkpt lat="46.551457" lon="6.680165"><ele>363.6</ele><time>2026-06-01T06:08:32Z</time></trkpt>
<trkpt lat="46.551557" lon="6.680565"><ele>363.6</ele><time>2026-06-01T06:08:40Z</time></trkpt>
<trkpt lat="46.551657" lon="6.680966"><ele>363.6</ele><time>2026-06-01T06:08:48Z</time></trkpt>
<trkpt lat="46.551758" lon="6.681365"><ele>363.7</ele><time>2026-06-01T06:08:56Z</time></trkpt>
<trkpt lat="46.551858" lon="6.681765"><ele>363.7</ele><time>2026-06-01T06:09:04Z</time></trkpt>
<trkpt lat="46.551958" lon="6.682163"><ele>363.8</ele><time>2026-06-01T06:09:12Z</time></trkpt>
<trkpt lat="46.552058" lon="6.682561"><ele>363.8</ele><time>2026-06-01T06:09:20Z</time></trkpt>
<trkpt lat="46.552158" lon="6.682958"><ele>363.9</ele><time>2026-06-01T06:09:28Z</time></trkpt>
<trkpt lat="46.552258" lon="6.683354"><ele>363.9</ele><time>2026-06-01T06:09:36Z</time></trkpt>
<trkpt lat="46.552358" lon="6.683748"><ele>364.0</ele><time>2026-06-01T06:09:44Z</time></trkpt>
<trkpt lat="46.552458" lon="6.684141"><ele>364.0</ele><time>2026-06-01T06:09:52Z</time></trkpt>
<trkpt lat="46.552558" lon="6.684533"><ele>364.1</ele><time>2026-06-01T06:10:00Z</time></trkpt>
<trkpt lat="46.552659" lon="6.684923"><ele>364.2</ele><time>2026-06-01T06:10:08Z</time></trkpt>
<trkpt lat="46.552759" lon="6.685311"><ele>364.2</ele><time>2026-06-01T06:10:16Z</time></trkpt>
<trkpt lat="46.552859" lon="6.685697"><ele>364.3</ele><time>2026-06-01T06:10:24Z</time></trkpt>
<trkpt lat="46.552959" lon="6.686081"><ele>364.3</ele><time>2026-06-01T06:10:32Z</time></trkpt>
<trkpt lat="46.553059" lon="6.686463"><ele>364.4</ele><time>2026-06-01T06:10:40Z</time></trkpt>
<trkpt lat="46.553159" lon="6.686843"><ele>364.5</ele><time>2026-06-01T06:10:48Z</time></trkpt>
<trkpt lat="46.553259" lon="6.687220"><ele>364.6</ele><time>2026-06-01T06:10:56Z</time></trkpt>
<trkpt lat="46.553359" lon="6.687595"><ele>364.6</ele><time>2026-06-01T06:11:04Z</time></trkpt>
<trkpt lat="46.553459" lon="6.687966"><ele>364.7</ele><time>2026-06-01T06:11:12Z</time></trkpt>
<trkpt lat="46.553560" lon="6.688335"><ele>364.8</ele><time>2026-06-01T06:11:20Z</time></trkpt>
<trkpt lat="46.553660" lon="6.688701"><ele>364.9</ele><time>2026-06-01T06:11:28Z</time></trkpt>
<trkpt lat="46.553760" lon="6.689064"><ele>364.9</ele><time>2026-06-01T06:11:36Z</time></trkpt>
<trkpt lat="46.553860" lon="6.689423"><ele>365.0</ele><time>2026-06-01T06:11:44Z</time></trkpt>
<trkpt lat="46.553960" lon="6.689779"><ele>365.1</ele><time>2026-06-01T06:11:52Z</time></trkpt>
<trkpt lat="46.554060" lon="6.690132"><ele>365.2</ele><time>2026-06-01T06:12:00Z</time></trkpt>
<trkpt lat="46.554160" lon="6.690481"><ele>365.3</ele><time>2026-06-01T06:12:08Z</time></trkpt>
<trkpt lat="46.554260" lon="6.690826"><ele>365.4</ele><time>2026-06-01T06:12:16Z</time></trkpt>
<trkpt lat="46.554360" lon="6.691167"><ele>365.4</ele><time>2026-06-01T06:12:24Z</time></trkpt>
<trkpt lat="46.554461" lon="6.691505"><ele>365.5</ele><time>2026-06-01T06:12:32Z</time></trkpt>
<trkpt lat="46.554561" lon="6.691838"><ele>365.6</ele><time>2026-06-01T06:12:40Z</time></trkpt>
<trkpt lat="46.554661" lon="6.692167"><ele>365.7</ele><time>2026-06-01T06:12:48Z</time></trkpt>
<trkpt lat="46.554761" lon="6.692492"><ele>365.8</ele><time>2026-06-01T06:12:56Z</time></trkpt>
<trkpt lat="46.554861" lon="6.692813"><ele>365.9</ele><time>2026-06-01T06:13:04Z</time></trkpt>
<trkpt lat="46.554961" lon="6.693129"><ele>366.0</ele><time>2026-06-01T06:13:12Z</time></trkpt>
<trkpt lat="46.555061" lon="6.693440"><ele>366.1</ele><time>2026-06-01T06:13:20Z</time></trkpt>
<trkpt lat="46.555161" lon="6.693747"><ele>366.2</ele><time>2026-06-01T06:13:28Z</time></trkpt>
<trkpt lat="46.555261" lon="6.694049"><ele>366.3</ele><time>2026-06-01T06:13:36Z</time></trkpt>
<trkpt lat="46.555362" lon="6.694347"><ele>366.4</ele><time>2026-06-01T06:13:44Z</time></trkpt>
<trkpt lat="46.555462" lon="6.694639"><ele>366.5</ele><time>2026-06-01T06:13:52Z</time></trkpt>
<trkpt lat="46.555562" lon="6.694926"><ele>366.6</ele><time>2026-06-01T06:14:00Z</time></trkpt>
<trkpt lat="46.555662" lon="6.695208"><ele>366.7</ele><time>2026-06-01T06:14:08Z</time></trkpt>
<trkpt lat="46.555762" lon="6.695485"><ele>366.9</ele><time>2026-06-01T06:14:16Z</time></trkpt>
<trkpt lat="46.555862" lon="6.695757"><ele>367.0</ele><time>2026-06-01T06:14:24Z</time></trkpt>
<trkpt lat="46.555962" lon="6.696024"><ele>367.1</ele><time>2026-06-01T06:14:32Z</time></trkpt>
<trkpt lat="46.556062" lon="6.696285"><ele>367.2</ele><time>2026-06-01T06:14:40Z</time></trkpt>
<trkpt lat="46.556162" lon="6.696541"><ele>367.3</ele><time>2026-06-01T06:14:48Z</time></trkpt>
<trkpt lat="46.556263" lon="6.696791"><ele>367.4</ele><time>2026-06-01T06:14:56Z</time></trkpt>
<trkpt lat="46.556363" lon="6.697035"><ele>367.5</ele><time>2026-06-01T06:15:04Z</time></trkpt>
<trkpt lat="46.556463" lon="6.697274"><ele>367.7</ele><time>2026-06-01T06:15:12Z</time></trkpt>
<trkpt lat="46.556563" lon="6.697508"><ele>367.8</ele><time>2026-06-01T06:15:20Z</time></trkpt>
<trkpt lat="46.556663" lon="6.697736"><ele>367.9</ele><time>2026-06-01T06:15:28Z</time></trkpt>
<trkpt lat="46.556763" lon="6.697957"><ele>368.0</ele><time>2026-06-01T06:15:36Z</time></trkpt>
<trkpt lat="46.556863" lon="6.698174"><ele>368.1</ele><time>2026-06-01T06:15:44Z</time></trkpt>
<trkpt lat="46.556963" lon="6.698384"><ele>368.3</ele><time>2026-06-01T06:15:52Z</time></trkpt>
<trkpt lat="46.557063" lon="6.698588"><ele>368.4</ele><time>2026-06-01T06:16:00Z</time></trkpt>
<trkpt lat="46.557164" lon="6.698787"><ele>368.5</ele><time>2026-06-01T06:16:08Z</time></trkpt>
<trkpt lat="46.557264" lon="6.698980"><ele>368.6</ele><time>2026-06-01T06:16:16Z</time></trkpt>
<trkpt lat="46.557364" lon="6.699167"><ele>368.8</ele><time>2026-06-01T06:16:24Z</time></trkpt>
<trkpt lat="46.557464" lon="6.699347"><ele>368.9</ele><time>2026-06-01T06:16:32Z</time></trkpt>
<trkpt lat="46.557564" lon="6.699522"><ele>369.0</ele><time>2026-06-01T06:16:40Z</time></trkpt>
<trkpt lat="46.557664" lon="6.699691"><ele>369.2</ele><time>2026-06-01T06:16:48Z</time></trkpt>
<trkpt lat="46.557764" lon="6.699854"><ele>369.3</ele><time>2026-06-01T06:16:56Z</time></trkpt>
<trkpt lat="46.557864" lon="6.700011"><ele>369.4</ele><time>2026-06-01T06:17:04Z</time></trkpt>
<trkpt lat="46.557964" lon="6.700162"><ele>369.5</ele><time>2026-06-01T06:17:12Z</time></trkpt>
<trkpt lat="46.558065" lon="6.700307"><ele>369.7</ele><time>2026-06-01T06:17:20Z</time></trkpt>
<trkpt lat="46.558165" lon="6.700446"><ele>369.8</ele><time>2026-06-01T06:17:28Z</time></trkpt>
<trkpt lat="46.558265" lon="6.700579"><ele>369.9</ele><time>2026-06-01T06:17:36Z</time></trkpt>
<trkpt lat="46.558365" lon="6.700706"><ele>370.1</ele><time>2026-06-01T06:17:44Z</time></trkpt>
<trkpt lat="46.558465" lon="6.700827"><ele>370.2</ele><time>2026-06-01T06:17:52Z</time></trkpt>
<trkpt lat="46.558565" lon="6.700942"><ele>370.3</ele><time>2026-06-01T06:18:00Z</time></trkpt>
<trkpt lat="46.558665" lon="6.701051"><ele>370.5</ele><time>2026-06-01T06:18:08Z</time></trkpt>
<trkpt lat="46.558765" lon="6.701155"><ele>370.6</ele><time>2026-06-01T06:18:16Z</time></trkpt>
<trkpt lat="46.558865" lon="6.701252"><ele>370.8</ele><time>2026-06-01T06:18:24Z</time></trkpt>
<trkpt lat="46.558966" lon="6.701344"><ele>370.9</ele><time>2026-06-01T06:18:32Z</time></trkpt>
<trkpt lat="46.559066" lon="6.701430"><ele>371.0</ele><time>2026-06-01T06:18:40Z</time></trkpt>
<trkpt lat="46.559166" lon="6.701510"><ele>371.2</ele><time>2026-06-01T06:18:48Z</time></trkpt>
<trkpt lat="46.559266" lon="6.701585"><ele>371.3</ele><time>2026-06-01T06:18:56Z</time></trkpt>
<trkpt lat="46.559366" lon="6.701654"><ele>371.4</ele><time>2026-06-01T06:19:04Z</time></trkpt>
<trkpt lat="46.559466" lon="6.701717"><ele>371.6</ele><time>2026-06-01T06:19:12Z</time></trkpt>
<trkpt lat="46.559566" lon="6.701775"><ele>371.7</ele><time>2026-06-01T06:19:20Z</time></trkpt>
<trkpt lat="46.559666" lon="6.701828"><ele>371.8</ele><time>2026-06-01T06:19:28Z</time></trkpt>
<trkpt lat="46.559766" lon="6.701875"><ele>372.0</ele><time>2026-06-01T06:19:36Z</time></trkpt>
<trkpt lat="46.559867" lon="6.701916"><ele>372.1</ele><time>2026-06-01T06:19:44Z</time></trkpt>
<trkpt lat="46.559967" lon="6.701953"><ele>372.3</ele><time>2026-06-01T06:19:52Z</time></trkpt>
<trkpt lat="46.560067" lon="6.701984"><ele>372.4</ele><time>2026-06-01T06:20:00Z</time></trkpt>
<trkpt lat="46.560167" lon="6.702010"><ele>372.5</ele><time>2026-06-01T06:20:08Z</time></trkpt>
<trkpt lat="46.560267" lon="6.702031"><ele>372.7</ele><time>2026-06-01T06:20:16Z</time></trkpt>
<trkpt lat="46.560367" lon="6.702048"><ele>372.8</ele><time>2026-06-01T06:20:24Z</time></trkpt>
<trkpt lat="46.560467" lon="6.702059"><ele>372.9</ele><time>2026-06-01T06:20:32Z</time></trkpt>
<trkpt lat="46.560567" lon="6.702065"><ele>373.1</ele><time>2026-06-01T06:20:40Z</time></trkpt>
<trkpt lat="46.560667" lon="6.702067"><ele>373.2</ele><time>2026-06-01T06:20:48Z</time></trkpt>
<trkpt lat="46.560768" lon="6.702064"><ele>373.3</ele><time>2026-06-01T06:20:56Z</time></trkpt>
<trkpt lat="46.560868" lon="6.702057"><ele>373.5</ele><time>2026-06-01T06:21:04Z</time></trkpt>
<trkpt lat="46.560968" lon="6.702045"><ele>373.6</ele><time>2026-06-01T06:21:12Z</time></trkpt>
<trkpt lat="46.561068" lon="6.702029"><ele>373.7</ele><time>2026-06-01T06:21:20Z</time></trkpt>
<trkpt lat="46.561168" lon="6.702009"><ele>373.9</ele><time>2026-06-01T06:21:28Z</time></trkpt>
<trkpt lat="46.561268" lon="6.701984"><ele>374.0</ele><time>2026-06-01T06:21:36Z</time></trkpt>
<trkpt lat="46.561368" lon="6.701956"><ele>374.1</ele><time>2026-06-01T06:21:44Z</time></trkpt>
<trkpt lat="46.561468" lon="6.701924"><ele>374.3</ele><time>2026-06-01T06:21:52Z</time></trkpt>
<trkpt lat="46.561568" lon="6.701888"><ele>374.4</ele><time>2026-06-01T06:22:00Z</time></trkpt>
<trkpt lat="46.561669" lon="6.701848"><ele>374.5</ele><time>2026-06-01T06:22:08Z</time></trkpt>
<trkpt lat="46.561769" lon="6.701805"><ele>374.7</ele><time>2026-06-01T06:22:16Z</time></trkpt>
<trkpt lat="46.561869" lon="6.701758"><ele>374.8</ele><time>2026-06-01T06:22:24Z</time></trkpt>
<trkpt lat="46.561969" lon="6.701708"><ele>374.9</ele><time>2026-06-01T06:22:32Z</time></trkpt>
<trkpt lat="46.562069" lon="6.701655"><ele>375.0</ele><time>2026-06-01T06:22:40Z</time></trkpt>
<trkpt lat="46.562169" lon="6.701599"><ele>375.2</ele><time>2026-06-01T06:22:48Z</time></trkpt>
<trkpt lat="46.562269" lon="6.701539"><ele>375.3</ele><time>2026-06-01T06:22:56Z</time></trkpt>
<trkpt lat="46.562369" lon="6.701478"><ele>375.4</ele><time>2026-06-01T06:23:04Z</time></trkpt>
<trkpt lat="46.562469" lon="6.701413"><ele>375.5</ele><time>2026-06-01T06:23:12Z</time></trkpt>
<trkpt lat="46.562570" lon="6.701346"><ele>375.7</ele><time>2026-06-01T06:23:20Z</time></trkpt>
<trkpt lat="46.562670" lon="6.701276"><ele>375.8</ele><time>2026-06-01T06:23:28Z</time></trkpt>
<trkpt lat="46.562770" lon="6.701204"><ele>375.9</ele><time>2026-06-01T06:23:36Z</time></trkpt>
<trkpt lat="46.562870" lon="6.701130"><ele>376.0</ele><time>2026-06-01T06:23:44Z</time></trkpt>
<trkpt lat="46.562970" lon="6.701054"><ele>376.1</ele><time>2026-06-01T06:23:52Z</time></trkpt>
<trkpt lat="46.563070" lon="6.700977"><ele>376.3</ele><time>2026-06-01T06:24:00Z</time></trkpt>
<trkpt lat="46.563170" lon="6.700897"><ele>376.4</ele><time>2026-06-01T06:24:08Z</time></trkpt>
<trkpt lat="46.563270" lon="6.700816"><ele>376.5</ele><time>2026-06-01T06:24:16Z</time></trkpt>
<trkpt lat="46.563370" lon="6.700733"><ele>376.6</ele><time>2026-06-01T06:24:24Z</time></trkpt>
<trkpt lat="46.563471" lon="6.700649"><ele>376.7</ele><time>2026-06-01T06:24:32Z</time></trkpt>
<trkpt lat="46.563571" lon="6.700564"><ele>376.8</ele><time>2026-06-01T06:24:40Z</time></trkpt>
<trkpt lat="46.563671" lon="6.700478"><ele>376.9</ele><time>2026-06-01T06:24:48Z</time></trkpt>
<trkpt lat="46.563771" lon="6.700392"><ele>377.0</ele><time>2026-06-01T06:24:56Z</time></trkpt>
<trkpt lat="46.563871" lon="6.700304"><ele>377.1</ele><time>2026-06-01T06:25:04Z</time></trkpt>
<trkpt lat="46.563971" lon="6.700216"><ele>377.2</ele><time>2026-06-01T06:25:12Z</time></trkpt>
<trkpt lat="46.564071" lon="6.700127"><ele>377.4</ele><time>2026-06-01T06:25:20Z</time></trkpt>
<trkpt lat="46.564171" lon="6.700038"><ele>377.5</ele><time>2026-06-01T06:25:28Z</time></trkpt>
<trkpt lat="46.564271" lon="6.699949"><ele>377.6</ele><time>2026-06-01T06:25:36Z</time></trkpt>
<trkpt lat="46.564372" lon="6.699861"><ele>377.7</ele><time>2026-06-01T06:25:44Z</time></trkpt>
<trkpt lat="46.564472" lon="6.699772"><ele>377.8</ele><time>2026-06-01T06:25:52Z</time></trkpt>
<trkpt lat="46.564572" lon="6.699683"><ele>377.8</ele><time>2026-06-01T06:26:00Z</time></trkpt>
<trkpt lat="46.564672" lon="6.699595"><ele>377.9</ele><time>2026-06-01T06:26:08Z</time></trkpt>
<trkpt lat="46.564772" lon="6.699508"><ele>378.0</ele><time>2026-06-01T06:26:16Z</time></trkpt>
<trkpt lat="46.564872" lon="6.699421"><ele>378.1</ele><time>2026-06-01T06:26:24Z</time></trkpt>
<trkpt lat="46.564972" lon="6.699335"><ele>378.2</ele><time>2026-06-01T06:26:32Z</time></trkpt>
<trkpt lat="46.565072" lon="6.699251"><ele>378.3</ele><time>2026-06-01T06:26:40Z</time></trkpt>
<trkpt lat="46.565172" lon="6.699167"><ele>378.4</ele><time>2026-06-01T06:26:48Z</time></trkpt>
<trkpt lat="46.565273" lon="6.699085"><ele>378.5</ele><time>2026-06-01T06:26:56Z</time></trkpt>
<trkpt lat="46.565373" lon="6.699004"><ele>378.6</ele><time>2026-06-01T06:27:04Z</time></trkpt>
<trkpt lat="46.565473" lon="6.698925"><ele>378.6</ele><time>2026-06-01T06:27:12Z</time></trkpt>
<trkpt lat="46.565573" lon="6.698847"><ele>378.7</ele><time>2026-06-01T06:27:20Z</time></trkpt>
<trkpt lat="46.565673" lon="6.698772"><ele>378.8</ele><time>2026-06-01T06:27:28Z</time></trkpt>
<trkpt lat="46.565773" lon="6.698698"><ele>378.9</ele><time>2026-06-01T06:27:36Z</time></trkpt>
<trkpt lat="46.565873" lon="6.698627"><ele>379.0</ele><time>2026-06-01T06:27:44Z</time></trkpt>
<trkpt lat="46.565973" lon="6.698558"><ele>379.0</ele><time>2026-06-01T06:27:52Z</time></trkpt>
<trkpt lat="46.566073" lon="6.698491"><ele>379.1</ele><time>2026-06-01T06:28:00Z</time></trkpt>
<trkpt lat="46.566174" lon="6.698427"><ele>379.2</ele><time>2026-06-01T06:28:08Z</time></trkpt>
<trkpt lat="46.566274" lon="6.698366"><ele>379.2</ele><time>2026-06-01T06:28:16Z</time></trkpt>
<trkpt lat="46.566374" lon="6.698308"><ele>379.3</ele><time>2026-06-01T06:28:24Z</time></trkpt>
<trkpt lat="46.566474" lon="6.698252"><ele>379.4</ele><time>2026-06-01T06:28:32Z</time></trkpt>
<trkpt lat="46.566574" lon="6.698200"><ele>379.4</ele><time>2026-06-01T06:28:40Z</time></trkpt>
<trkpt lat="46.566674" lon="6.698150"><ele>379.5</ele><time>2026-06-01T06:28:48Z</time></trkpt>
<trkpt lat="46.566774" lon="6.698105"><ele>379.6</ele><time>2026-06-01T06:28:56Z</time></trkpt>
<trkpt lat="46.566874" lon="6.698062"><ele>379.6</ele><time>2026-06-01T06:29:04Z</time></trkpt>
<trkpt lat="46.566974" lon="6.698023"><ele>379.7</ele><time>2026-06-01T06:29:12Z</time></trkpt>
<trkpt lat="46.567075" lon="6.697988"><ele>379.7</ele><time>2026-06-01T06:29:20Z</time></trkpt>
<trkpt lat="46.567175" lon="6.697957"><ele>379.8</ele><time>2026-06-01T06:29:28Z</time></trkpt>
<trkpt lat="46.567275" lon="6.697929"><ele>379.8</ele><time>2026-06-01T06:29:36Z</time></trkpt>
<trkpt lat="46.567375" lon="6.697906"><ele>379.9</ele><time>2026-06-01T06:29:44Z</time></trkpt>
<trkpt lat="46.567475" lon="6.697886"><ele>379.9</ele><time>2026-06-01T06:29:52Z</time></trkpt>
<trkpt lat="46.567575" lon="6.697871"><ele>380.0</ele><time>2026-06-01T06:30:00Z</time></trkpt>
<trkpt lat="46.567675" lon="6.697860"><ele>380.0</ele><time>2026-06-01T06:30:08Z</time></trkpt>
<trkpt lat="46.567775" lon="6.697854"><ele>380.0</ele><time>2026-06-01T06:30:16Z</time></trkpt>
<trkpt lat="46.567875" lon="6.697852"><ele>380.1</ele><time>2026-06-01T06:30:24Z</time></trkpt>
<trkpt lat="46.567976" lon="6.697855"><ele>380.1</ele><time>2026-06-01T06:30:32Z</time></trkpt>
<trkpt lat="46.568076" lon="6.697863"><ele>380.2</ele><time>2026-06-01T06:30:40Z</time></trkpt>
<trkpt lat="46.568176" lon="6.697875"><ele>380.2</ele><time>2026-06-01T06:30:48Z</time></trkpt>
<trkpt lat="46.568276" lon="6.697893"><ele>380.2</ele><time>2026-06-01T06:30:56Z</time></trkpt>
<trkpt lat="46.568376" lon="6.697915"><ele>380.3</ele><time>2026-06-01T06:31:04Z</time></trkpt>
<trkpt lat="46.568476" lon="6.697942"><ele>380.3</ele><time>2026-06-01T06:31:12Z</time></trkpt>
<trkpt lat="46.568576" lon="6.697975"><ele>380.3</ele><time>2026-06-01T06:31:20Z</time></trkpt>
<trkpt lat="46.568676" lon="6.698012"><ele>380.3</ele><time>2026-06-01T06:31:28Z</time></trkpt>
<trkpt lat="46.568776" lon="6.698055"><ele>380.3</ele><time>2026-06-01T06:31:36Z</time></trkpt>
<trkpt lat="46.568877" lon="6.698103"><ele>380.4</ele><time>2026-06-01T06:31:44Z</time></trkpt>
<trkpt lat="46.568977" lon="6.698157"><ele>380.4</ele><time>2026-06-01T06:31:52Z</time></trkpt>
<trkpt lat="46.569077" lon="6.698216"><ele>380.4</ele><time>2026-06-01T06:32:00Z</time></trkpt>
<trkpt lat="46.569177" lon="6.698281"><ele>380.4</ele><time>2026-06-01T06:32:08Z</time></trkpt>
<trkpt lat="46.569277" lon="6.698351"><ele>380.4</ele><time>2026-06-01T06:32:16Z</time></trkpt>
<trkpt lat="46.569377" lon="6.698427"><ele>380.4</ele><time>2026-06-01T06:32:24Z</time></trkpt>
<trkpt lat="46.569477" lon="6.698509"><ele>380.4</ele><time>2026-06-01T06:32:32Z</time></trkpt>
<trkpt lat="46.569577" lon="6.698596"><ele>380.5</ele><time>2026-06-01T06:32:40Z</time></trkpt>
<trkpt lat="46.569677" lon="6.698689"><ele>380.5</ele><time>2026-06-01T06:32:48Z</time></trkpt>
<trkpt lat="46.569778" lon="6.698788"><ele>380.5</ele><time>2026-06-01T06:32:56Z</time></trkpt>
<trkpt lat="46.569878" lon="6.698893"><ele>380.5</ele><time>2026-06-01T06:33:04Z</time></trkpt>
<trkpt lat="46.569978" lon="6.699004"><ele>380.5</ele><time>2026-06-01T06:33:12Z</time></trkpt>
<trkpt lat="46.570078" lon="6.699120"><ele>380.5</ele><time>2026-06-01T06:33:20Z</time></trkpt>
<trkpt lat="46.570178" lon="6.699243"><ele>380.5</ele><time>2026-06-01T06:33:28Z</time></trkpt>
<trkpt lat="46.570278" lon="6.699371"><ele>380.5</ele><time>2026-06-01T06:33:36Z</time></trkpt>
<trkpt lat="46.570378" lon="6.699505"><ele>380.5</ele><time>2026-06-01T06:33:44Z</time></trkpt>
<trkpt lat="46.570478" lon="6.699646"><ele>380.4</ele><time>2026-06-01T06:33:52Z</time></trkpt>
<trkpt lat="46.570578" lon="6.699792"><ele>380.4</ele><time>2026-06-01T06:34:00Z</time></trkpt>
<trkpt lat="46.570679" lon="6.699944"><ele>380.4</ele><time>2026-06-01T06:34:08Z</time></trkpt>
<trkpt lat="46.570779" lon="6.700103"><ele>380.4</ele><time>2026-06-01T06:34:16Z</time></trkpt>
<trkpt lat="46.570879" lon="6.700267"><ele>380.4</ele><time>2026-06-01T06:34:24Z</time></trkpt>
<trkpt lat="46.570979" lon="6.700437"><ele>380.4</ele><time>2026-06-01T06:34:32Z</time></trkpt>
<trkpt lat="46.571079" lon="6.700613"><ele>380.4</ele><time>2026-06-01T06:34:40Z</time></trkpt>
<trkpt lat="46.571179" lon="6.700796"><ele>380.3</ele><time>2026-06-01T06:34:48Z</time></trkpt>
<trkpt lat="46.571279" lon="6.700984"><ele>380.3</ele><time>2026-06-01T06:34:56Z</time></trkpt>
<trkpt lat="46.571379" lon="6.701178"><ele>380.3</ele><time>2026-06-01T06:35:04Z</time></trkpt>
<trkpt lat="46.571479" lon="6.701378"><ele>380.3</ele><time>2026-06-01T06:35:12Z</time></trkpt>
<trkpt lat="46.571580" lon="6.701584"><ele>380.2</ele><time>2026-06-01T06:35:20Z</time></trkpt>
<trkpt lat="46.571680" lon="6.701795"><ele>380.2</ele><time>2026-06-01T06:35:28Z</time></trkpt>
<trkpt lat="46.571780" lon="6.702013"><ele>380.2</ele><time>2026-06-01T06:35:36Z</time></trkpt>
<trkpt lat="46.571880" lon="6.702236"><ele>380.2</ele><time>2026-06-01T06:35:44Z</time></trkpt>
<trkpt lat="46.571980" lon="6.702465"><ele>380.1</ele><time>2026-06-01T06:35:52Z</time></trkpt>
<trkpt lat="46.572080" lon="6.702700"><ele>380.1</ele><time>2026-06-01T06:36:00Z</time></trkpt>
<trkpt lat="46.572180" lon="6.702940"><ele>380.1</ele><time>2026-06-01T06:36:08Z</time></trkpt>
<trkpt lat="46.572280" lon="6.703186"><ele>380.0</ele><time>2026-06-01T06:36:16Z</time></trkpt>
<trkpt lat="46.572380" lon="6.703438"><ele>380.0</ele><time>2026-06-01T06:36:24Z</time></trkpt>
<trkpt lat="46.572481" lon="6.703694"><ele>379.9</ele><time>2026-06-01T06:36:32Z</time></trkpt>
<trkpt lat="46.572581" lon="6.703957"><ele>379.9</ele><time>2026-06-01T06:36:40Z</time></trkpt>
<trkpt lat="46.572681" lon="6.704225"><ele>379.9</ele><time>2026-06-01T06:36:48Z</time></trkpt>
<trkpt lat="46.572781" lon="6.704498"><ele>379.8</ele><time>2026-06-01T06:36:56Z</time></trkpt>
<trkpt lat="46.572881" lon="6.704776"><ele>379.8</ele><time>2026-06-01T06:37:04Z</time></trkpt>
<trkpt lat="46.572981" lon="6.705059"><ele>379.7</ele><time>2026-06-01T06:37:12Z</time></trkpt>
<trkpt lat="46.573081" lon="6.705348"><ele>379.7</ele><time>2026-06-01T06:37:20Z</time></trkpt>
<trkpt lat="46.573181" lon="6.705641"><ele>379.6</ele><time>2026-06-01T06:37:28Z</time></trkpt>
<trkpt lat="46.573281" lon="6.705940"><ele>379.6</ele><time>2026-06-01T06:37:36Z</time></trkpt>
<trkpt lat="46.573382" lon="6.706243"><ele>379.5</ele><time>2026-06-01T06:37:44Z</time></trkpt>
<trkpt lat="46.573482" lon="6.706551"><ele>379.5</ele><time>2026-06-01T06:37:52Z</time></trkpt>
<trkpt lat="46.573582" lon="6.706863"><ele>379.4</ele><time>2026-06-01T06:38:00Z</time></trkpt>
<trkpt lat="46.573682" lon="6.707180"><ele>379.4</ele><time>2026-06-01T06:38:08Z</time></trkpt>
<trkpt lat="46.573782" lon="6.707502"><ele>379.3</ele><time>2026-06-01T06:38:16Z</time></trkpt>
<trkpt lat="46.573882" lon="6.707828"><ele>379.3</ele><time>2026-06-01T06:38:24Z</time></trkpt>
<trkpt lat="46.573982" lon="6.708158"><ele>379.2</ele><time>2026-06-01T06:38:32Z</time></trkpt>
<trkpt lat="46.574082" lon="6.708492"><ele>379.2</ele><time>2026-06-01T06:38:40Z</time></trkpt>
<trkpt lat="46.574182" lon="6.708831"><ele>379.1</ele><time>2026-06-01T06:38:48Z</time></trkpt>
<trkpt lat="46.574283" lon="6.709173"><ele>379.1</ele><time>2026-06-01T06:38:56Z</time></trkpt>
<trkpt lat="46.574383" lon="6.709519"><ele>379.0</ele><time>2026-06-01T06:39:04Z</time></trkpt>
<trkpt lat="46.574483" lon="6.709869"><ele>378.9</ele><time>2026-06-01T06:39:12Z</time></trkpt>
<trkpt lat="46.574583" lon="6.710222"><ele>378.9</ele><time>2026-06-01T06:39:20Z</time></trkpt>
<trkpt lat="46.574683" lon="6.710579"><ele>378.8</ele><time>2026-06-01T06:39:28Z</time></trkpt>
<trkpt lat="46.574783" lon="6.710939"><ele>378.8</ele><time>2026-06-01T06:39:36Z</time></trkpt>
<trkpt lat="46.574883" lon="6.711303"><ele>378.7</ele><time>2026-06-01T06:39:44Z</time></trkpt>
<trkpt lat="46.574983" lon="6.711669"><ele>378.6</ele><time>2026-06-01T06:39:52Z</time></trkpt>
<trkpt lat="46.575083" lon="6.712039"><ele>378.6</ele><time>2026-06-01T06:40:00Z</time></trkpt>
<trkpt lat="46.575184" lon="6.712411"><ele>378.5</ele><time>2026-06-01T06:40:08Z</time></trkpt>
<trkpt lat="46.575284" lon="6.712786"><ele>378.4</ele><time>2026-06-01T06:40:16Z</time></trkpt>
<trkpt lat="46.575384" lon="6.713164"><ele>378.4</ele><time>2026-06-01T06:40:24Z</time></trkpt>
<trkpt lat="46.575484" lon="6.713544"><ele>378.3</ele><time>2026-06-01T06:40:32Z</time></trkpt>
<trkpt lat="46.575584" lon="6.713927"><ele>378.2</ele><time>2026-06-01T06:40:40Z</time></trkpt>
<trkpt lat="46.575684" lon="6.714311"><ele>378.2</ele><time>2026-06-01T06:40:48Z</time></trkpt>
<trkpt lat="46.575784" lon="6.714698"><ele>378.1</ele><time>2026-06-01T06:40:56Z</time></trkpt>
<trkpt lat="46.575884" lon="6.715087"><ele>378.0</ele><time>2026-06-01T06:41:04Z</time></trkpt>
<trkpt lat="46.575984" lon="6.715477"><ele>378.0</ele><time>2026-06-01T06:41:12Z</time></trkpt>
<trkpt lat="46.576085" lon="6.715869"><ele>377.9</ele><time>2026-06-01T06:41:20Z</time></trkpt>
<trkpt lat="46.576185" lon="6.716262"><ele>377.8</ele><time>2026-06-01T06:41:28Z</time></trkpt>
<trkpt lat="46.576285" lon="6.716657"><ele>377.8</ele><time>2026-06-01T06:41:36Z</time></trkpt>
<trkpt lat="46.576385" lon="6.717053"><ele>377.7</ele><time>2026-06-01T06:41:44Z</time></trkpt>
<trkpt lat="46.576485" lon="6.717450"><ele>377.6</ele><time>2026-06-01T06:41:52Z</time></trkpt>
<trkpt lat="46.576585" lon="6.717848"><ele>377.6</ele><time>2026-06-01T06:42:00Z</time></trkpt>
<trkpt lat="46.576685" lon="6.718247"><ele>377.5</ele><time>2026-06-01T06:42:08Z</time></trkpt>
<trkpt lat="46.576785" lon="6.718647"><ele>377.4</ele><time>2026-06-01T06:42:16Z</time></trkpt>
<trkpt lat="46.576885" lon="6.719046"><ele>377.4</ele><time>2026-06-01T06:42:24Z</time></trkpt>
<trkpt lat="46.576986" lon="6.719447"><ele>377.3</ele><time>2026-06-01T06:42:32Z</time></trkpt>
<trkpt lat="46.577086" lon="6.719847"><ele>377.2</ele><time>2026-06-01T06:42:40Z</time></trkpt>
<trkpt lat="46.577186" lon="6.720247"><ele>377.2</ele><time>2026-06-01T06:42:48Z</time></trkpt>
<trkpt lat="46.577286" lon="6.720648"><ele>377.1</ele><time>2026-06-01T06:42:56Z</time></trkpt>
<trkpt lat="46.577386" lon="6.721048"><ele>377.0</ele><time>2026-06-01T06:43:04Z</time></trkpt>
<trkpt lat="46.577486" lon="6.721448"><ele>376.9</ele><time>2026-06-01T06:43:12Z</time></trkpt>
<trkpt lat="46.577586" lon="6.721847"><ele>376.9</ele><time>2026-06-01T06:43:20Z</time></trkpt>
<trkpt lat="46.577686" lon="6.722245"><ele>376.8</ele><time>2026-06-01T06:43:28Z</time></trkpt>
<trkpt lat="46.577786" lon="6.722643"><ele>376.7</ele><time>2026-06-01T06:43:36Z</time></trkpt>
<trkpt lat="46.577887" lon="6.723039"><ele>376.7</ele><time>2026-06-01T06:43:44Z</time></trkpt>
<trkpt lat="46.577987" lon="6.723435"><ele>376.6</ele><time>2026-06-01T06:43:52Z</time></trkpt>
<trkpt lat="46.578087" lon="6.723829"><ele>376.5</ele><time>2026-06-01T06:44:00Z</time></trkpt>
<trkpt lat="46.578187" lon="6.724222"><ele>376.5</ele><time>2026-06-01T06:44:08Z</time></trkpt>
<trkpt lat="46.578287" lon="6.724613"><ele>376.4</ele><time>2026-06-01T06:44:16Z</time></trkpt>
<trkpt lat="46.578387" lon="6.725003"><ele>376.3</ele><time>2026-06-01T06:44:24Z</time></trkpt>
<trkpt lat="46.578487" lon="6.725390"><ele>376.3</ele><time>2026-06-01T06:44:32Z</time></trkpt>
<trkpt lat="46.578587" lon="6.725776"><ele>376.2</ele><time>2026-06-01T06:44:40Z</time></trkpt>
<trkpt lat="46.578687" lon="6.726160"><ele>376.1</ele><time>2026-06-01T06:44:48Z</time></trkpt>
<trkpt lat="46.578788" lon="6.726541"><ele>376.1</ele><time>2026-06-01T06:44:56Z</time></trkpt>
<trkpt lat="46.578888" lon="6.726920"><ele>376.0</ele><time>2026-06-01T06:45:04Z</time></trkpt>
<trkpt lat="46.578988" lon="6.727296"><ele>375.9</ele><time>2026-06-01T06:45:12Z</time></trkpt>
<trkpt lat="46.579088" lon="6.727670"><ele>375.9</ele><time>2026-06-01T06:45:20Z</time></trkpt>
<trkpt lat="46.579188" lon="6.728041"><ele>375.8</ele><time>2026-06-01T06:45:28Z</time></trkpt>
<trkpt lat="46.579288" lon="6.728409"><ele>375.7</ele><time>2026-06-01T06:45:36Z</time></trkpt>
<trkpt lat="46.579388" lon="6.728775"><ele>375.7</ele><time>2026-06-01T06:45:44Z</time></trkpt>
<trkpt lat="46.579488" lon="6.729136"><ele>375.6</ele><time>2026-06-01T06:45:52Z</time></trkpt>
<trkpt lat="46.579588" lon="6.729495"><ele>375.5</ele><time>2026-06-01T06:46:00Z</time></trkpt>
<trkpt lat="46.579689" lon="6.729850"><ele>375.5</ele><time>2026-06-01T06:46:08Z</time></trkpt>
<trkpt lat="46.579789" lon="6.730202"><ele>375.4</ele><time>2026-06-01T06:46:16Z</time></trkpt>
<trkpt lat="46.579889" lon="6.730550"><ele>375.4</ele><time>2026-06-01T06:46:24Z</time></trkpt>
<trkpt lat="46.579989" lon="6.730894"><ele>375.3</ele><time>2026-06-01T06:46:32Z</time></trkpt>
<trkpt lat="46.580089" lon="6.731235"><ele>375.2</ele><time>2026-06-01T06:46:40Z</time></trkpt>
<trkpt lat="46.580189" lon="6.731571"><ele>375.2</ele><time>2026-06-01T06:46:48Z</time></trkpt>
<trkpt lat="46.580289" lon="6.731904"><ele>375.1</ele><time>2026-06-01T06:46:56Z</time></trkpt>
<trkpt lat="46.580389" lon="6.732232"><ele>375.1</ele><time>2026-06-01T06:47:04Z</time></trkpt>
<trkpt lat="46.580489" lon="6.732556"><ele>375.0</ele><time>2026-06-01T06:47:12Z</time></trkpt>
<trkpt lat="46.580590" lon="6.732875"><ele>374.9</ele><time>2026-06-01T06:47:20Z</time></trkpt>
<trkpt lat="46.580690" lon="6.733190"><ele>374.9</ele><time>2026-06-01T06:47:28Z</time></trkpt>
<trkpt lat="46.580790" lon="6.733500"><ele>374.8</ele><time>2026-06-01T06:47:36Z</time></trkpt>
<trkpt lat="46.580890" lon="6.733806"><ele>374.8</ele><time>2026-06-01T06:47:44Z</time></trkpt>
<trkpt lat="46.580990" lon="6.734107"><ele>374.7</ele><time>2026-06-01T06:47:52Z</time></trkpt>
<trkpt lat="46.581090" lon="6.734403"><ele>374.7</ele><time>2026-06-01T06:48:00Z</time></trkpt>
<trkpt lat="46.581190" lon="6.734694"><ele>374.6</ele><time>2026-06-01T06:48:08Z</time></trkpt>
<trkpt lat="46.581290" lon="6.734980"><ele>374.6</ele><time>2026-06-01T06:48:16Z</time></trkpt>
<trkpt lat="46.581390" lon="6.735261"><ele>374.5</ele><time>2026-06-01T06:48:24Z</time></trkpt>
<trkpt lat="46.581491" lon="6.735537"><ele>374.5</ele><time>2026-06-01T06:48:32Z</time></trkpt>
<trkpt lat="46.581591" lon="6.735807"><ele>374.4</ele><time>2026-06-01T06:48:40Z</time></trkpt>
<trkpt lat="46.581691" lon="6.736072"><ele>374.4</ele><time>2026-06-01T06:48:48Z</time></trkpt>
<trkpt lat="46.581791" lon="6.736332"><ele>374.3</ele><time>2026-06-01T06:48:56Z</time></trkpt>
<trkpt lat="46.581891" lon="6.736587"><ele>374.3</ele><time>2026-06-01T06:49:04Z</time></trkpt>
<trkpt lat="46.581991" lon="6.736835"><ele>374.2</ele><time>2026-06-01T06:49:12Z</time></trkpt>
<trkpt lat="46.582091" lon="6.737079"><ele>374.2</ele><time>2026-06-01T06:49:20Z</time></trkpt>
<trkpt lat="46.582191" lon="6.737316"><ele>374.1</ele><time>2026-06-01T06:49:28Z</time></trkpt>
<trkpt lat="46.582291" lon="6.737548"><ele>374.1</ele><time>2026-06-01T06:49:36Z</time></trkpt>
<trkpt lat="46.582392" lon="6.737775"><ele>374.0</ele><time>2026-06-01T06:49:44Z</time></trkpt>
<trkpt lat="46.582492" lon="6.737995"><ele>374.0</ele><time>2026-06-01T06:49:52Z</time></trkpt>
<trkpt lat="46.582592" lon="6.738210"><ele>373.9</ele><time>2026-06-01T06:50:00Z</time></trkpt>
<trkpt lat="46.582692" lon="6.738419"><ele>373.9</ele><time>2026-06-01T06:50:08Z</time></trkpt>
<trkpt lat="46.582792" lon="6.738622"><ele>373.9</ele><time>2026-06-01T06:50:16Z</time></trkpt>
<trkpt lat="46.582892" lon="6.738819"><ele>373.8</ele><time>2026-06-01T06:50:24Z</time></trkpt>
<trkpt lat="46.582992" lon="6.739010"><ele>373.8</ele><time>2026-06-01T06:50:32Z</time></trkpt>
<trkpt lat="46.583092" lon="6.739195"><ele>373.7</ele><time>2026-06-01T06:50:40Z</time></trkpt>
<trkpt lat="46.583192" lon="6.739375"><ele>373.7</ele><time>2026-06-01T06:50:48Z</time></trkpt>
<trkpt lat="46.583293" lon="6.739548"><ele>373.7</ele><time>2026-06-01T06:50:56Z</time></trkpt>
<trkpt lat="46.583393" lon="6.739716"><ele>373.6</ele><time>2026-06-01T06:51:04Z</time></trkpt>
<trkpt lat="46.583493" lon="6.739877"><ele>373.6</ele><time>2026-06-01T06:51:12Z</time></trkpt>
<trkpt lat="46.583593" lon="6.740032"><ele>373.6</ele><time>2026-06-01T06:51:20Z</time></trkpt>
<trkpt lat="46.583693" lon="6.740182"><ele>373.5</ele><time>2026-06-01T06:51:28Z</time></trkpt>
<trkpt lat="46.583793" lon="6.740325"><ele>373.5</ele><time>2026-06-01T06:51:36Z</time></trkpt>
<trkpt lat="46.583893" lon="6.740463"><ele>373.5</ele><time>2026-06-01T06:51:44Z</time></trkpt>
<trkpt lat="46.583993" lon="6.740594"><ele>373.4</ele><time>2026-06-01T06:51:52Z</time></trkpt>
<trkpt lat="46.584093" lon="6.740720"><ele>373.4</ele><time>2026-06-01T06:52:00Z</time></trkpt>
<trkpt lat="46.584194" lon="6.740840"><ele>373.4</ele><time>2026-06-01T06:52:08Z</time></trkpt>
<trkpt lat="46.584294" lon="6.740953"><ele>373.3</ele><time>2026-06-01T06:52:16Z</time></trkpt>
<trkpt lat="46.584394" lon="6.741061"><ele>373.3</ele><time>2026-06-01T06:52:24Z</time></trkpt>
<trkpt lat="46.584494" lon="6.741163"><ele>373.3</ele><time>2026-06-01T06:52:32Z</time></trkpt>
<trkpt lat="46.584594" lon="6.741259"><ele>373.2</ele><time>2026-06-01T06:52:40Z</time></trkpt>
<trkpt lat="46.584694" lon="6.741350"><ele>373.2</ele><time>2026-06-01T06:52:48Z</time></trkpt>
<trkpt lat="46.584794" lon="6.741434"><ele>373.2</ele><time>2026-06-01T06:52:56Z</time></trkpt>
<trkpt lat="46.584894" lon="6.741513"><ele>373.2</ele><time>2026-06-01T06:53:04Z</time></trkpt>
<trkpt lat="46.584994" lon="6.741586"><ele>373.1</ele><time>2026-06-01T06:53:12Z</time></trkpt>
<trkpt lat="46.585095" lon="6.741654"><ele>373.1</ele><time>2026-06-01T06:53:20Z</time></trkpt>
<trkpt lat="46.585195" lon="6.741716"><ele>373.1</ele><time>2026-06-01T06:53:28Z</time></trkpt>
<trkpt lat="46.585295" lon="6.741773"><ele>373.1</ele><time>2026-06-01T06:53:36Z</time></trkpt>
<trkpt lat="46.585395" lon="6.741824"><ele>373.0</ele><time>2026-06-01T06:53:44Z</time></trkpt>
<trkpt lat="46.585495" lon="6.741869"><ele>373.0</ele><time>2026-06-01T06:53:52Z</time></trkpt>
<trkpt lat="46.585595" lon="6.741910"><ele>373.0</ele><time>2026-06-01T06:54:00Z</time></trkpt>
<trkpt lat="46.585695" lon="6.741945"><ele>373.0</ele><time>2026-06-01T06:54:08Z</time></trkpt>
<trkpt lat="46.585795" lon="6.741975"><ele>373.0</ele><time>2026-06-01T06:54:16Z</time></trkpt>
<trkpt lat="46.585895" lon="6.742000"><ele>372.9</ele><time>2026-06-01T06:54:24Z</time></trkpt>
<trkpt lat="46.585996" lon="6.742020"><ele>372.9</ele><time>2026-06-01T06:54:32Z</time></trkpt>
<trkpt lat="46.586096" lon="6.742035"><ele>372.9</ele><time>2026-06-01T06:54:40Z</time></trkpt>
<trkpt lat="46.586196" lon="6.742045"><ele>372.9</ele><time>2026-06-01T06:54:48Z</time></trkpt>
<trkpt lat="46.586296" lon="6.742050"><ele>372.9</ele><time>2026-06-01T06:54:56Z</time></trkpt>
<trkpt lat="46.586396" lon="6.742051"><ele>372.9</ele><time>2026-06-01T06:55:04Z</time></trkpt>
<trkpt lat="46.586496" lon="6.742047"><ele>372.8</ele><time>2026-06-01T06:55:12Z</time></trkpt>
<trkpt lat="46.586596" lon="6.742038"><ele>372.8</ele><time>2026-06-01T06:55:20Z</time></trkpt>
<trkpt lat="46.586696" lon="6.742026"><ele>372.8</ele><time>2026-06-01T06:55:28Z</time></trkpt>
<trkpt lat="46.586796" lon="6.742008"><ele>372.8</ele><time>2026-06-01T06:55:36Z</time></trkpt>
<trkpt lat="46.586897" lon="6.741987"><ele>372.8</ele><time>2026-06-01T06:55:44Z</time></trkpt>
<trkpt lat="46.586997" lon="6.741962"><ele>372.8</ele><time>2026-06-01T06:55:52Z</time></trkpt>
<trkpt lat="46.587097" lon="6.741932"><ele>372.8</ele><time>2026-06-01T06:56:00Z</time></trkpt>
<trkpt lat="46.587197" lon="6.741899"><ele>372.7</ele><time>2026-06-01T06:56:08Z</time></trkpt>
<trkpt lat="46.587297" lon="6.741862"><ele>372.7</ele><time>2026-06-01T06:56:16Z</time></trkpt>
<trkpt lat="46.587397" lon="6.741822"><ele>372.7</ele><time>2026-06-01T06:56:24Z</time></trkpt>
<trkpt lat="46.587497" lon="6.741777"><ele>372.7</ele><time>2026-06-01T06:56:32Z</time></trkpt>
<trkpt lat="46.587597" lon="6.741730"><ele>372.7</ele><time>2026-06-01T06:56:40Z</time></trkpt>
<trkpt lat="46.587697" lon="6.741679"><ele>372.7</ele><time>2026-06-01T06:56:48Z</time></trkpt>
<trkpt lat="46.587798" lon="6.741625"><ele>372.7</ele><time>2026-06-01T06:56:56Z</time></trkpt>
<trkpt lat="46.587898" lon="6.741568"><ele>372.7</ele><time>2026-06-01T06:57:04Z</time></trkpt>
<trkpt lat="46.587998" lon="6.741508"><ele>372.7</ele><time>2026-06-01T06:57:12Z</time></trkpt>
<trkpt lat="46.588098" lon="6.741446"><ele>372.6</ele><time>2026-06-01T06:57:20Z</time></trkpt>
<trkpt lat="46.588198" lon="6.741380"><ele>372.6</ele><time>2026-06-01T06:57:28Z</time></trkpt>
<trkpt lat="46.588298" lon="6.741313"><ele>372.6</ele><time>2026-06-01T06:57:36Z</time></trkpt>
<trkpt lat="46.588398" lon="6.741243"><ele>372.6</ele><time>2026-06-01T06:57:44Z</time></trkpt>
<trkpt lat="46.588498" lon="6.741170"><ele>372.6</ele><time>2026-06-01T06:57:52Z</time></trkpt>
<trkpt lat="46.588598" lon="6.741096"><ele>372.6</ele><time>2026-06-01T06:58:00Z</time></trkpt>
<trkpt lat="46.588699" lon="6.741019"><ele>372.6</ele><time>2026-06-01T06:58:08Z</time></trkpt>
<trkpt lat="46.588799" lon="6.740941"><ele>372.6</ele><time>2026-06-01T06:58:16Z</time></trkpt>
<trkpt lat="46.588899" lon="6.740861"><ele>372.6</ele><time>2026-06-01T06:58:24Z</time></trkpt>
<trkpt lat="46.588999" lon="6.740780"><ele>372.5</ele><time>2026-06-01T06:58:32Z</time></trkpt>
<trkpt lat="46.589099" lon="6.740697"><ele>372.5</ele><time>2026-06-01T06:58:40Z</time></trkpt>
<trkpt lat="46.589199" lon="6.740613"><ele>372.5</ele><time>2026-06-01T06:58:48Z</time></trkpt>
<trkpt lat="46.589299" lon="6.740527"><ele>372.5</ele><time>2026-06-01T06:58:56Z</time></trkpt>
<trkpt lat="46.589399" lon="6.740441"><ele>372.5</ele><time>2026-06-01T06:59:04Z</time></trkpt>
<trkpt lat="46.589499" lon="6.740354"><ele>372.5</ele><time>2026-06-01T06:59:12Z</time></trkpt>
<trkpt lat="46.589600" lon="6.740266"><ele>372.5</ele><time>2026-06-01T06:59:20Z</time></trkpt>
<trkpt lat="46.589700" lon="6.740178"><ele>372.5</ele><time>2026-06-01T06:59:28Z</time></trkpt>
<trkpt lat="46.589800" lon="6.740089"><ele>372.5</ele><time>2026-06-01T06:59:36Z</time></trkpt>
<trkpt lat="46.589900" lon="6.740000"><ele>372.5</ele><time>2026-06-01T06:59:44Z</time></trkpt>
<trkpt lat="46.590000" lon="6.739911"><ele>372.4</ele><time>2026-06-01T06:59:52Z</time></trkpt>
</trkseg></trk></gpx>