<?xml version="1.0" encoding="UTF-8"?>
<gpx version="1.1" creator="banc-gravure" xmlns="http://www.topografix.com/GPX/1/1">
<trk><name>sans-altitude</name><trkseg>
<trkpt lat="46.500000" lon="6.600000"><time>2026-06-01T06:00:00Z</time></trkpt>
<trkpt lat="46.500100" lon="6.600400"><time>2026-06-01T06:00:08Z</time></trkpt>
<trkpt lat="46.500200" lon="6.600801"><time>2026-06-01T06:00:16Z</time></trkpt>
<trkpt lat="46.500300" lon="6.601201"><time>2026-06-01T06:00:24Z</time></trkpt>
<trkpt lat="46.500400" lon="6.601600"><time>2026-06-01T06:00:32Z</time></trkpt>
<trkpt lat="46.500501" lon="6.601999"><time>2026-06-01T06:00:40Z</time></trkpt>
<trkpt lat="46.500601" lon="6.602397"><time>2026-06-01T06:00:48Z</time></trkpt>
<trkpt lat="46.500701" lon="6.602795"><time>2026-06-01T06:00:56Z</time></trkpt>
<trkpt lat="46.500801" lon="6.603191"><time>2026-06-01T06:01:04Z</time></trkpt>
<trkpt lat="46.500901" lon="6.603586"><time>2026-06-01T06:01:12Z</time></trkpt>
<trkpt lat="46.501001" lon="6.603980"><time>2026-06-01T06:01:20Z</time></trkpt>
<trkpt lat="46.501101" lon="6.604373"><time>2026-06-01T06:01:28Z</time></trkpt>
<trkpt lat="46.501201" lon="6.604763"><time>2026-06-01T06:01:36Z</time></trkpt>
<trkpt lat="46.501301" lon="6.605152"><time>2026-06-01T06:01:44Z</time></trkpt>
<trkpt lat="46.501402" lon="6.605540"><time>2026-06-01T06:01:52Z</time></trkpt>
<trkpt lat="46.501502" lon="6.605925"><time>2026-06-01T06:02:00Z</time></trkpt>
<trkpt lat="46.501602" lon="6.606308"><time>2026-06-01T06:02:08Z</time></trkpt>
<trkpt lat="46.501702" lon="6.606689"><time>2026-06-01T06:02:16Z</time></trkpt>
<trkpt lat="46.501802" lon="6.607067"><time>2026-06-01T06:02:24Z</time></trkpt>
<trkpt lat="46.501902" lon="6.607443"><time>2026-06-01T06:02:32Z</time></trkpt>
<trkpt lat="46.502002" lon="6.607816"><time>2026-06-01T06:02:40Z</time></trkpt>
<trkpt lat="46.502102" lon="6.608186"><time>2026-06-01T06:02:48Z</time></trkpt>
<trkpt lat="46.502202" lon="6.608553"><time>2026-06-01T06:02:56Z</time></trkpt>
<trkpt lat="46.502303" lon="6.608918"><time>2026-06-01T06:03:04Z</time></trkpt>
<trkpt lat="46.502403" lon="6.609279"><time>2026-06-01T06:03:12Z</time></trkpt>
<trkpt lat="46.502503" lon="6.609637"><time>2026-06-01T06:03:20Z</time></trkpt>
<trkpt lat="46.502603" lon="6.609991"><time>2026-06-01T06:03:28Z</time></trkpt>
<trkpt lat="46.502703" lon="6.610342"><time>2026-06-01T06:03:36Z</time></trkpt>
<trkpt lat="46.502803" lon="6.610689"><time>2026-06-01T06:03:44Z</time></trkpt>
<trkpt lat="46.502903" lon="6.611032"><time>2026-06-01T06:03:52Z</time></trkpt>
<trkpt lat="46.503003" lon="6.611371"><time>2026-06-01T06:04:00Z</time></trkpt>
<trkpt lat="46.503103" lon="6.611707"><time>2026-06-01T06:04:08Z</time></trkpt>
<trkpt lat="46.503204" lon="6.612038"><time>2026-06-01T06:04:16Z</time></trkpt>
<trkpt lat="46.503304" lon="6.612365"><time>2026-06-01T06:04:24Z</time></trkpt>
<trkpt lat="46.503404" lon="6.612688"><time>2026-06-01T06:04:32Z</time></trkpt>
<trkpt lat="46.503504" lon="6.613006"><time>2026-06-01T06:04:40Z</time></trkpt>
<trkpt lat="46.503604" lon="6.613320"><time>2026-06-01T06:04:48Z</time></trkpt>
<trkpt lat="46.503704" lon="6.613629"><time>2026-06-01T06:04:56Z</time></trkpt>
<trkpt lat="46.503804" lon="6.613933"><time>2026-06-01T06:05:04Z</time></trkpt>
<trkpt lat="46.503904" lon="6.614233"><time>2026-06-01T06:05:12Z</time></trkpt>
<trkpt lat="46.504004" lon="6.614528"><time>2026-06-01T06:05:20Z</time></trkpt>
<trkpt lat="46.504105" lon="6.614818"><time>2026-06-01T06:05:28Z</time></trkpt>
<trkpt lat="46.504205" lon="6.615102"><time>2026-06-01T06:05:36Z</time></trkpt>
<trkpt lat="46.504305" lon="6.615382"><time>2026-06-01T06:05:44Z</time></trkpt>
<trkpt lat="46.504405" lon="6.615656"><time>2026-06-01T06:05:52Z</time></trkpt>
<trkpt lat="46.504505" lon="6.615925"><time>2026-06-01T06:06:00Z</time></trkpt>
<trkpt lat="46.504605" lon="6.616189"><time>2026-06-01T06:06:08Z</time></trkpt>
<trkpt lat="46.504705" lon="6.616448"><time>2026-06-01T06:06:16Z</time></trkpt>
<trkpt lat="46.504805" lon="6.616700"><time>2026-06-01T06:06:24Z</time></trkpt>
<trkpt lat="46.504905" lon="6.616948"><time>2026-06-01T06:06:32Z</time></trkpt>
<trkpt lat="46.505006" lon="6.617190"><time>2026-06-01T06:06:40Z</time></trkpt>
<trkpt lat="46.505106" lon="6.617426"><time>2026-06-01T06:06:48Z</time></trkpt>
<trkpt lat="46.505206" lon="6.617656"><time>2026-06-01T06:06:56Z</time></trkpt>
<trkpt lat="46.505306" lon="6.617881"><time>2026-06-01T06:07:04Z</time></trkpt>
<trkpt lat="46.505406" lon="6.618100"><time>2026-06-01T06:07:12Z</time></trkpt>
<trkpt lat="46.505506" lon="6.618313"><time>2026-06-01T06:07:20Z</time></trkpt>
<trkpt lat="46.505606" lon="6.618521"><time>2026-06-01T06:07:28Z</time></trkpt>
<trkpt lat="46.505706" lon="6.618722"><time>2026-06-01T06:07:36Z</time></trkpt>
<trkpt lat="46.505806" lon="6.618918"><time>2026-06-01T06:07:44Z</time></trkpt>
<trkpt lat="46.505907" lon="6.619107"><time>2026-06-01T06:07:52Z</time></trkpt>
<trkpt lat="46.506007" lon="6.619291"><time>2026-06-01T06:08:00Z</time></trkpt>
<trkpt lat="46.506107" lon="6.619469"><time>2026-06-01T06:08:08Z</time></trkpt>
<trkpt lat="46.506207" lon="6.619641"><time>2026-06-01T06:08:16Z</time></trkpt>
<trkpt lat="46.506307" lon="6.619807"><time>2026-06-01T06:08:24Z</time></trkpt>
<trkpt lat="46.506407" lon="6.619967"><time>2026-06-01T06:08:32Z</time></trkpt>
<trkpt lat="46.506507" lon="6.620120"><time>2026-06-01T06:08:40Z</time></trkpt>
<trkpt lat="46.506607" lon="6.620268"><time>2026-06-01T06:08:48Z</time></trkpt>
<trkpt lat="46.506707" lon="6.620410"><time>2026-06-01T06:08:56Z</time></trkpt>
<trkpt lat="46.506808" lon="6.620546"><time>2026-06-01T06:09:04Z</time></trkpt>
<trkpt lat="46.506908" lon="6.620676"><time>2026-06-01T06:09:12Z</time></trkpt>
<trkpt lat="46.507008" lon="6.620800"><time>2026-06-01T06:09:20Z</time></trkpt>
<trkpt lat="46.507108" lon="6.620918"><time>2026-06-01T06:09:28Z</time></trkpt>
<trkpt lat="46.507208" lon="6.621030"><time>2026-06-01T06:09:36Z</time></trkpt>
<trkpt lat="46.507308" lon="6.621137"><time>2026-06-01T06:09:44Z</time></trkpt>
<trkpt lat="46.507408" lon="6.621237"><time>2026-06-01T06:09:52Z</time></trkpt>
<trkpt lat="46.507508" lon="6.621332"><time>2026-06-01T06:10:00Z</time></trkpt>
<trkpt lat="46.507608" lon="6.621421"><time>2026-06-01T06:10:08Z</time></trkpt>
<trkpt lat="46.507709" lon="6.621504"><time>2026-06-01T06:10:16Z</time></trkpt>
<trkpt lat="46.507809" lon="6.621581"><time>2026-06-01T06:10:24Z</time></trkpt>
<trkpt lat="46.507909" lon="6.621653"><time>2026-06-01T06:10:32Z</time></trkpt>
<trkpt lat="46.508009" lon="6.621719"><time>2026-06-01T06:10:40Z</time></trkpt>
<trkpt lat="46.508109" lon="6.621780"><time>2026-06-01T06:10:48Z</time></trkpt>
<trkpt lat="46.508209" lon="6.621835"><time>2026-06-01T06:10:56Z</time></trkpt>
<trkpt lat="46.508309" lon="6.621884"><time>2026-06-01T06:11:04Z</time></trkpt>
<trkpt lat="46.508409" lon="6.621929"><time>2026-06-01T06:11:12Z</time></trkpt>
<trkpt lat="46.508509" lon="6.621968"><time>2026-06-01T06:11:20Z</time></trkpt>
<trkpt lat="46.508610" lon="6.622002"><time>2026-06-01T06:11:28Z</time></trkpt>
<trkpt lat="46.508710" lon="6.622030"><time>2026-06-01T06:11:36Z</time></trkpt>
<trkpt lat="46.508810" lon="6.622054"><time>2026-06-01T06:11:44Z</time></trkpt>
<trkpt lat="46.508910" lon="6.622072"><time>2026-06-01T06:11:52Z</time></trkpt>
<trkpt lat="46.509010" lon="6.622086"><time>2026-06-01T06:12:00Z</time></trkpt>
<trkpt lat="46.509110" lon="6.622095"><time>2026-06-01T06:12:08Z</time></trkpt>
<trkpt lat="46.509210" lon="6.622099"><time>2026-06-01T06:12:16Z</time></trkpt>
<trkpt lat="46.509310" lon="6.622098"><time>2026-06-01T06:12:24Z</time></trkpt>
<trkpt lat="46.509410" lon="6.622093"><time>2026-06-01T06:12:32Z</time></trkpt>
<trkpt lat="46.509511" lon="6.622084"><time>2026-06-01T06:12:40Z</time></trkpt>
<trkpt lat="46.509611" lon="6.622070"><time>2026-06-01T06:12:48Z</time></trkpt>
<trkpt lat="46.509711" lon="6.622052"><time>2026-06-01T06:12:56Z</time></trkpt>
<trkpt lat="46.509811" lon="6.622029"><time>2026-06-01T06:13:04Z</time></trkpt>
<trkpt lat="46.509911" lon="6.622003"><time>2026-06-01T06:13:12Z</time></trkpt>
<trkpt lat="46.510011" lon="6.621972"><time>2026-06-01T06:13:20Z</time></trkpt>
<trkpt lat="46.510111" lon="6.621938"><time>2026-06-01T06:13:28Z</time></trkpt>
<trkpt lat="46.510211" lon="6.621900"><time>2026-06-01T06:13:36Z</time></trkpt>
<trkpt lat="46.510311" lon="6.621859"><time>2026-06-01T06:13:44Z</time></trkpt>
<trkpt lat="46.510412" lon="6.621814"><time>2026-06-01T06:13:52Z</time></trkpt>
<trkpt lat="46.510512" lon="6.621765"><time>2026-06-01T06:14:00Z</time></trkpt>
<trkpt lat="46.510612" lon="6.621714"><time>2026-06-01T06:14:08Z</time></trkpt>
<trkpt lat="46.510712" lon="6.621659"><time>2026-06-01T06:14:16Z</time></trkpt>
<trkpt lat="46.510812" lon="6.621601"><time>2026-06-01T06:14:24Z</time></trkpt>
<trkpt lat="46.510912" lon="6.621541"><time>2026-06-01T06:14:32Z</time></trkpt>
<trkpt lat="46.511012" lon="6.621477"><time>2026-06-01T06:14:40Z</time></trkpt>
<trkpt lat="46.511112" lon="6.621411"><time>2026-06-01T06:14:48Z</time></trkpt>
<trkpt lat="46.511212" lon="6.621343"><time>2026-06-01T06:14:56Z</time></trkpt>
<trkpt lat="46.511313" lon="6.621272"><time>2026-06-01T06:15:04Z</time></trkpt>
<trkpt lat="46.511413" lon="6.621199"><time>2026-06-01T06:15:12Z</time></trkpt>
<trkpt lat="46.511513" lon="6.621124"><time>2026-06-01T06:15:20Z</time></trkpt>
<trkpt lat="46.511613" lon="6.621047"><time>2026-06-01T06:15:28Z</time></trkpt>
<trkpt lat="46.511713" lon="6.620969"><time>2026-06-01T06:15:36Z</time></trkpt>
<trkpt lat="46.511813" lon="6.620888"><time>2026-06-01T06:15:44Z</time></trkpt>
<trkpt lat="46.511913" lon="6.620806"><time>2026-06-01T06:15:52Z</time></trkpt>
<trkpt lat="46.512013" lon="6.620723"><time>2026-06-01T06:16:00Z</time></trkpt>
<trkpt lat="46.512113" lon="6.620639"><time>2026-06-01T06:16:08Z</time></trkpt>
<trkpt lat="46.512214" lon="6.620553"><time>2026-06-01T06:16:16Z</time></trkpt>
<trkpt lat="46.512314" lon="6.620467"><time>2026-06-01T06:16:24Z</time></trkpt>
<trkpt lat="46.512414" lon="6.620379"><time>2026-06-01T06:16:32Z</time></trkpt>
<trkpt lat="46.512514" lon="6.620292"><time>2026-06-01T06:16:40Z</time></trkpt>
<trkpt lat="46.512614" lon="6.620203"><time>2026-06-01T06:16:48Z</time></trkpt>
<trkpt lat="46.512714" lon="6.620114"><time>2026-06-01T06:16:56Z</time></trkpt>
<trkpt lat="46.512814" lon="6.620025"><time>2026-06-01T06:17:04Z</time></trkpt>
<trkpt lat="46.512914" lon="6.619937"><time>2026-06-01T06:17:12Z</time></trkpt>
<trkpt lat="46.513014" lon="6.619848"><time>2026-06-01T06:17:20Z</time></trkpt>
<trkpt lat="46.513115" lon="6.619759"><time>2026-06-01T06:17:28Z</time></trkpt>
<trkpt lat="46.513215" lon="6.619671"><time>2026-06-01T06:17:36Z</time></trkpt>
<trkpt lat="46.513315" lon="6.619583"><time>2026-06-01T06:17:44Z</time></trkpt>
<trkpt lat="46.513415" lon="6.619496"><time>2026-06-01T06:17:52Z</time></trkpt>
<trkpt lat="46.513515" lon="6.619410"><time>2026-06-01T06:18:00Z</time></trkpt>
<trkpt lat="46.513615" lon="6.619324"><time>2026-06-01T06:18:08Z</time></trkpt>
<trkpt lat="46.513715" lon="6.619240"><time>2026-06-01T06:18:16Z</time></trkpt>
<trkpt lat="46.513815" lon="6.619157"><time>2026-06-01T06:18:24Z</time></trkpt>
<trkpt lat="46.513915" lon="6.619076"><time>2026-06-01T06:18:32Z</time></trkpt>
<trkpt lat="46.514016" lon="6.618996"><time>2026-06-01T06:18:40Z</time></trkpt>
<trkpt lat="46.514116" lon="6.618918"><time>2026-06-01T06:18:48Z</time></trkpt>
<trkpt lat="46.514216" lon="6.618841"><time>2026-06-01T06:18:56Z</time></trkpt>
<trkpt lat="46.514316" lon="6.618767"><time>2026-06-01T06:19:04Z</time></trkpt>
<trkpt lat="46.514416" lon="6.618694"><time>2026-06-01T06:19:12Z</time></trkpt>
<trkpt lat="46.514516" lon="6.618624"><time>2026-06-01T06:19:20Z</time></trkpt>
<trkpt lat="46.514616" lon="6.618556"><time>2026-06-01T06:19:28Z</time></trkpt>
<trkpt lat="46.514716" lon="6.618491"><time>2026-06-01T06:19:36Z</time></trkpt>
<trkpt lat="46.514816" lon="6.618428"><time>2026-06-01T06:19:44Z</time></trkpt>
<trkpt lat="46.514917" lon="6.618368"><time>2026-06-01T06:19:52Z</time></trkpt>
<trkpt lat="46.515017" lon="6.618311"><time>2026-06-01T06:20:00Z</time></trkpt>
<trkpt lat="46.515117" lon="6.618257"><time>2026-06-01T06:20:08Z</time></trkpt>
<trkpt lat="46.515217" lon="6.618206"><time>2026-06-01T06:20:16Z</time></trkpt>
<trkpt lat="46.515317" lon="6.618159"><time>2026-06-01T06:20:24Z</time></trkpt>
<trkpt lat="46.515417" lon="6.618115"><time>2026-06-01T06:20:32Z</time></trkpt>
<trkpt lat="46.515517" lon="6.618074"><time>2026-06-01T06:20:40Z</time></trkpt>
<trkpt lat="46.515617" lon="6.618037"><time>2026-06-01T06:20:48Z</time></trkpt>
<trkpt lat="46.515717" lon="6.618004"><time>2026-06-01T06:20:56Z</time></trkpt>
<trkpt lat="46.515818" lon="6.617974"><time>2026-06-01T06:21:04Z</time></trkpt>
<trkpt lat="46.515918" lon="6.617949"><time>2026-06-01T06:21:12Z</time></trkpt>
<trkpt lat="46.516018" lon="6.617927"><time>2026-06-01T06:21:20Z</time></trkpt>
<trkpt lat="46.516118" lon="6.617910"><time>2026-06-01T06:21:28Z</time></trkpt>
<trkpt lat="46.516218" lon="6.617897"><time>2026-06-01T06:21:36Z</time></trkpt>
<trkpt lat="46.516318" lon="6.617889"><time>2026-06-01T06:21:44Z</time></trkpt>
<trkpt lat="46.516418" lon="6.617885"><time>2026-06-01T06:21:52Z</time></trkpt>
<trkpt lat="46.516518" lon="6.617885"><time>2026-06-01T06:22:00Z</time></trkpt>
<trkpt lat="46.516618" lon="6.617891"><time>2026-06-01T06:22:08Z</time></trkpt>
<trkpt lat="46.516719" lon="6.617901"><time>2026-06-01T06:22:16Z</time></trkpt>
<trkpt lat="46.516819" lon="6.617916"><time>2026-06-01T06:22:24Z</time></trkpt>
<trkpt lat="46.516919" lon="6.617935"><time>2026-06-01T06:22:32Z</time></trkpt>
<trkpt lat="46.517019" lon="6.617960"><time>2026-06-01T06:22:40Z</time></trkpt>
<trkpt lat="46.517119" lon="6.617990"><time>2026-06-01T06:22:48Z</time></trkpt>
<trkpt lat="46.517219" lon="6.618025"><time>2026-06-01T06:22:56Z</time></trkpt>
<trkpt lat="46.517319" lon="6.618066"><time>2026-06-01T06:23:04Z</time></trkpt>
<trkpt lat="46.517419" lon="6.618111"><time>2026-06-01T06:23:12Z</time></trkpt>
<trkpt lat="46.517519" lon="6.618162"><time>2026-06-01T06:23:20Z</time></trkpt>
<trkpt lat="46.517620" lon="6.618219"><time>2026-06-01T06:23:28Z</time></trkpt>
<trkpt lat="46.517720" lon="6.618281"><time>2026-06-01T06:23:36Z</time></trkpt>
<trkpt lat="46.517820" lon="6.618348"><time>2026-06-01T06:23:44Z</time></trkpt>
<trkpt lat="46.517920" lon="6.618421"><time>2026-06-01T06:23:52Z</time></trkpt>
<trkpt lat="46.518020" lon="6.618500"><time>2026-06-01T06:24:00Z</time></trkpt>
<trkpt lat="46.518120" lon="6.618585"><time>2026-06-01T06:24:08Z</time></trkpt>
<trkpt lat="46.518220" lon="6.618675"><time>2026-06-01T06:24:16Z</time></trkpt>
<trkpt lat="46.518320" lon="6.618771"><time>2026-06-01T06:24:24Z</time></trkpt>
<trkpt lat="46.518420" lon="6.618873"><time>2026-06-01T06:24:32Z</time></trkpt>
<trkpt lat="46.518521" lon="6.618981"><time>2026-06-01T06:24:40Z</time></trkpt>
<trkpt lat="46.518621" lon="6.619094"><time>2026-06-01T06:24:48Z</time></trkpt>
<trkpt lat="46.518721" lon="6.619214"><time>2026-06-01T06:24:56Z</time></trkpt>
<trkpt lat="46.518821" lon="6.619339"><time>2026-06-01T06:25:04Z</time></trkpt>
<trkpt lat="46.518921" lon="6.619471"><time>2026-06-01T06:25:12Z</time></trkpt>
<trkpt lat="46.519021" lon="6.619608"><time>2026-06-01T06:25:20Z</time></trkpt>
<trkpt lat="46.519121" lon="6.619751"><time>2026-06-01T06:25:28Z</time></trkpt>
<trkpt lat="46.519221" lon="6.619901"><time>2026-06-01T06:25:36Z</time></trkpt>
<trkpt lat="46.519321" lon="6.620056"><time>2026-06-01T06:25:44Z</time></trkpt>
<trkpt lat="46.519422" lon="6.620218"><time>2026-06-01T06:25:52Z</time></trkpt>
<trkpt lat="46.519522" lon="6.620385"><time>2026-06-01T06:26:00Z</time></trkpt>
<trkpt lat="46.519622" lon="6.620558"><time>2026-06-01T06:26:08Z</time></trkpt>
<trkpt lat="46.519722" lon="6.620737"><time>2026-06-01T06:26:16Z</time></trkpt>
<trkpt lat="46.519822" lon="6.620923"><time>2026-06-01T06:26:24Z</time></trkpt>
<trkpt lat="46.519922" lon="6.621114"><time>2026-06-01T06:26:32Z</time></trkpt>
<trkpt lat="46.520022" lon="6.621311"><time>2026-06-01T06:26:40Z</time></trkpt>
<trkpt lat="46.520122" lon="6.621514"><time>2026-06-01T06:26:48Z</time></trkpt>
<trkpt lat="46.520222" lon="6.621723"><time>2026-06-01T06:26:56Z</time></trkpt>
<trkpt lat="46.520323" lon="6.621937"><time>2026-06-01T06:27:04Z</time></trkpt>
<trkpt lat="46.520423" lon="6.622158"><time>2026-06-01T06:27:12Z</time></trkpt>
<trkpt lat="46.520523" lon="6.622384"><time>2026-06-01T06:27:20Z</time></trkpt>
<trkpt lat="46.520623" lon="6.622616"><time>2026-06-01T06:27:28Z</time></trkpt>
<trkpt lat="46.520723" lon="6.622853"><time>2026-06-01T06:27:36Z</time></trkpt>
<trkpt lat="46.520823" lon="6.623096"><time>2026-06-01T06:27:44Z</time></trkpt>
<trkpt lat="46.520923" lon="6.623345"><time>2026-06-01T06:27:52Z</time></trkpt>
<trkpt lat="46.521023" lon="6.623599"><time>2026-06-01T06:28:00Z</time></trkpt>
<trkpt lat="46.521123" lon="6.623859"><time>2026-06-01T06:28:08Z</time></trkpt>
<trkpt lat="46.521224" lon="6.624124"><time>2026-06-01T06:28:16Z</time></trkpt>
<trkpt lat="46.521324" lon="6.624395"><time>2026-06-01T06:28:24Z</time></trkpt>
<trkpt lat="46.521424" lon="6.624670"><time>2026-06-01T06:28:32Z</time></trkpt>
<trkpt lat="46.521524" lon="6.624951"><time>2026-06-01T06:28:40Z</time></trkpt>
<trkpt lat="46.521624" lon="6.625237"><time>2026-06-01T06:28:48Z</time></trkpt>
<trkpt lat="46.521724" lon="6.625528"><time>2026-06-01T06:28:56Z</time></trkpt>
<trkpt lat="46.521824" lon="6.625824"><time>2026-06-01T06:29:04Z</time></trkpt>
<trkpt lat="46.521924" lon="6.626125"><time>2026-06-01T06:29:12Z</time></trkpt>
<trkpt lat="46.522024" lon="6.626431"><time>2026-06-01T06:29:20Z</time></trkpt>
<trkpt lat="46.522125" lon="6.626741"><time>2026-06-01T06:29:28Z</time></trkpt>
<trkpt lat="46.522225" lon="6.627056"><time>2026-06-01T06:29:36Z</time></trkpt>
<trkpt lat="46.522325" lon="6.627375"><time>2026-06-01T06:29:44Z</time></trkpt>
<trkpt lat="46.522425" lon="6.627699"><time>2026-06-01T06:29:52Z</time></trkpt>
<trkpt lat="46.522525" lon="6.628027"><time>2026-06-01T06:30:00Z</time></trkpt>
<trkpt lat="46.522625" lon="6.628359"><time>2026-06-01T06:30:08Z</time></trkpt>
<trkpt lat="46.522725" lon="6.628696"><time>2026-06-01T06:30:16Z</time></trkpt>
<trkpt lat="46.522825" lon="6.629036"><time>2026-06-01T06:30:24Z</time></trkpt>
<trkpt lat="46.522925" lon="6.629380"><time>2026-06-01T06:30:32Z</time></trkpt>
<trkpt lat="46.523026" lon="6.629728"><time>2026-06-01T06:30:40Z</time></trkpt>
<trkpt lat="46.523126" lon="6.630080"><time>2026-06-01T06:30:48Z</time></trkpt>
<trkpt lat="46.523226" lon="6.630435"><time>2026-06-01T06:30:56Z</time></trkpt>
<trkpt lat="46.523326" lon="6.630794"><time>2026-06-01T06:31:04Z</time></trkpt>
<trkpt lat="46.523426" lon="6.631156"><time>2026-06-01T06:31:12Z</time></trkpt>
<trkpt lat="46.523526" lon="6.631521"><time>2026-06-01T06:31:20Z</time></trkpt>
<trkpt lat="46.523626" lon="6.631889"><time>2026-06-01T06:31:28Z</time></trkpt>
<trkpt lat="46.523726" lon="6.632260"><time>2026-06-01T06:31:36Z</time></trkpt>
<trkpt lat="46.523826" lon="6.632633"><time>2026-06-01T06:31:44Z</time></trkpt>
<trkpt lat="46.523927" lon="6.633010"><time>2026-06-01T06:31:52Z</time></trkpt>
<trkpt lat="46.524027" lon="6.633389"><time>2026-06-01T06:32:00Z</time></trkpt>
<trkpt lat="46.524127" lon="6.633770"><time>2026-06-01T06:32:08Z</time></trkpt>
<trkpt lat="46.524227" lon="6.634154"><time>2026-06-01T06:32:16Z</time></trkpt>
<trkpt lat="46.524327" lon="6.634539"><time>2026-06-01T06:32:24Z</time></trkpt>
<trkpt lat="46.524427" lon="6.634927"><time>2026-06-01T06:32:32Z</time></trkpt>
<trkpt lat="46.524527" lon="6.635317"><time>2026-06-01T06:32:40Z</time></trkpt>
<trkpt lat="46.524627" lon="6.635708"><time>2026-06-01T06:32:48Z</time></trkpt>
<trkpt lat="46.524727" lon="6.636101"><time>2026-06-01T06:32:56Z</time></trkpt>
<trkpt lat="46.524828" lon="6.636495"><time>2026-06-01T06:33:04Z</time></trkpt>
<trkpt lat="46.524928" lon="6.636890"><time>2026-06-01T06:33:12Z</time></trkpt>
<trkpt lat="46.525028" lon="6.637287"><time>2026-06-01T06:33:20Z</time></trkpt>
<trkpt lat="46.525128" lon="6.637684"><time>2026-06-01T06:33:28Z</time></trkpt>
<trkpt lat="46.525228" lon="6.638083"><time>2026-06-01T06:33:36Z</time></trkpt>
<trkpt lat="46.525328" lon="6.638482"><time>2026-06-01T06:33:44Z</time></trkpt>
<trkpt lat="46.525428" lon="6.638882"><time>2026-06-01T06:33:52Z</time></trkpt>
<trkpt lat="46.525528" lon="6.639282"><time>2026-06-01T06:34:00Z</time></trkpt>
<trkpt lat="46.525628" lon="6.639682"><time>2026-06-01T06:34:08Z</time></trkpt>
<trkpt lat="46.525729" lon="6.640082"><time>2026-06-01T06:34:16Z</time></trkpt>
<trkpt lat="46.525829" lon="6.640483"><time>2026-06-01T06:34:24Z</time></trkpt>
<trkpt lat="46.525929" lon="6.640883"><time>2026-06-01T06:34:32Z</time></trkpt>
<trkpt lat="46.526029" lon="6.641283"><time>2026-06-01T06:34:40Z</time></trkpt>
<trkpt lat="46.526129" lon="6.641682"><time>2026-06-01T06:34:48Z</time></trkpt>
<trkpt lat="46.526229" lon="6.642081"><time>2026-06-01T06:34:56Z</time></trkpt>
<trkpt lat="46.526329" lon="6.642479"><time>2026-06-01T06:35:04Z</time></trkpt>
<trkpt lat="46.526429" lon="6.642876"><time>2026-06-01T06:35:12Z</time></trkpt>
<trkpt lat="46.526529" lon="6.643272"><time>2026-06-01T06:35:20Z</time></trkpt>
<trkpt lat="46.526630" lon="6.643667"><time>2026-06-01T06:35:28Z</time></trkpt>
<trkpt lat="46.526730" lon="6.644061"><time>2026-06-01T06:35:36Z</time></trkpt>
<trkpt lat="46.526830" lon="6.644453"><time>2026-06-01T06:35:44Z</time></trkpt>
<trkpt lat="46.526930" lon="6.644843"><time>2026-06-01T06:35:52Z</time></trkpt>
<trkpt lat="46.527030" lon="6.645232"><time>2026-06-01T06:36:00Z</time></trkpt>
<trkpt lat="46.527130" lon="6.645619"><time>2026-06-01T06:36:08Z</time></trkpt>
<trkpt lat="46.527230" lon="6.646003"><time>2026-06-01T06:36:16Z</time></trkpt>
<trkpt lat="46.527330" lon="6.646386"><time>2026-06-01T06:36:24Z</time></trkpt>
<trkpt lat="46.527430" lon="6.646766"><time>2026-06-01T06:36:32Z</time></trkpt>
<trkpt lat="46.527531" lon="6.647144"><time>2026-06-01T06:36:40Z</time></trkpt>
<trkpt lat="46.527631" lon="6.647519"><time>2026-06-01T06:36:48Z</time></trkpt>
<trkpt lat="46.527731" lon="6.647891"><time>2026-06-01T06:36:56Z</time></trkpt>
<trkpt lat="46.527831" lon="6.648261"><time>2026-06-01T06:37:04Z</time></trkpt>
<trkpt lat="46.527931" lon="6.648627"><time>2026-06-01T06:37:12Z</time></trkpt>
<trkpt lat="46.528031" lon="6.648991"><time>2026-06-01T06:37:20Z</time></trkpt>
<trkpt lat="46.528131" lon="6.649351"><time>2026-06-01T06:37:28Z</time></trkpt>
<trkpt lat="46.528231" lon="6.649708"><time>2026-06-01T06:37:36Z</time></trkpt>
<trkpt lat="46.528331" lon="6.650061"><time>2026-06-01T06:37:44Z</time></trkpt>
<trkpt lat="46.528432" lon="6.650411"><time>2026-06-01T06:37:52Z</time></trkpt>
<trkpt lat="46.528532" lon="6.650758"><time>2026-06-01T06:38:00Z</time></trkpt>
<trkpt lat="46.528632" lon="6.651100"><time>2026-06-01T06:38:08Z</time></trkpt>
<trkpt lat="46.528732" lon="6.651438"><time>2026-06-01T06:38:16Z</time></trkpt>
<trkpt lat="46.528832" lon="6.651773"><time>2026-06-01T06:38:24Z</time></trkpt>
<trkpt lat="46.528932" lon="6.652103"><time>2026-06-01T06:38:32Z</time></trkpt>
<trkpt lat="46.529032" lon="6.652429"><time>2026-06-01T06:38:40Z</time></trkpt>
<trkpt lat="46.529132" lon="6.652750"><time>2026-06-01T06:38:48Z</time></trkpt>
<trkpt lat="46.529232" lon="6.653068"><time>2026-06-01T06:38:56Z</time></trkpt>
<trkpt lat="46.529333" lon="6.653380"><time>2026-06-01T06:39:04Z</time></trkpt>
<trkpt lat="46.529433" lon="6.653688"><time>2026-06-01T06:39:12Z</time></trkpt>
<trkpt lat="46.529533" lon="6.653992"><time>2026-06-01T06:39:20Z</time></trkpt>
<trkpt lat="46.529633" lon="6.654290"><time>2026-06-01T06:39:28Z</time></trkpt>
<trkpt lat="46.529733" lon="6.654584"><time>2026-06-01T06:39:36Z</time></trkpt>
<trkpt lat="46.529833" lon="6.654872"><time>2026-06-01T06:39:44Z</time></trkpt>
<trkpt lat="46.529933" lon="6.655156"><time>2026-06-01T06:39:52Z</time></trkpt>
<trkpt lat="46.530033" lon="6.655434"><time>2026-06-01T06:40:00Z</time></trkpt>
<trkpt lat="46.530133" lon="6.655707"><time>2026-06-01T06:40:08Z</time></trkpt>
<trkpt lat="46.530234" lon="6.655975"><time>2026-06-01T06:40:16Z</time></trkpt>
<trkpt lat="46.530334" lon="6.656237"><time>2026-06-01T06:40:24Z</time></trkpt>
<trkpt lat="46.530434" lon="6.656494"><time>2026-06-01T06:40:32Z</time></trkpt>
<trkpt lat="46.530534" lon="6.656746"><time>2026-06-01T06:40:40Z</time></trkpt>
<trkpt lat="46.530634" lon="6.656992"><time>2026-06-01T06:40:48Z</time></trkpt>
<trkpt lat="46.530734" lon="6.657232"><time>2026-06-01T06:40:56Z</time></trkpt>
<trkpt lat="46.530834" lon="6.657467"><time>2026-06-01T06:41:04Z</time></trkpt>
<trkpt lat="46.530934" lon="6.657696"><time>2026-06-01T06:41:12Z</time></trkpt>
<trkpt lat="46.531034" lon="6.657919"><time>2026-06-01T06:41:20Z</time></trkpt>
<trkpt lat="46.531135" lon="6.658137"><time>2026-06-01T06:41:28Z</time></trkpt>
<trkpt lat="46.531235" lon="6.658349"><time>2026-06-01T06:41:36Z</time></trkpt>
<trkpt lat="46.531335" lon="6.658555"><time>2026-06-01T06:41:44Z</time></trkpt>
<trkpt lat="46.531435" lon="6.658755"><time>2026-06-01T06:41:52Z</time></trkpt>
<trkpt lat="46.531535" lon="6.658949"><time>2026-06-01T06:42:00Z</time></trkpt>
<trkpt lat="46.531635" lon="6.659137"><time>2026-06-01T06:42:08Z</time></trkpt>
<trkpt lat="46.531735" lon="6.659319"><time>2026-06-01T06:42:16Z</time></trkpt>
<trkpt lat="46.531835" lon="6.659496"><time>2026-06-01T06:42:24Z</time></trkpt>
<trkpt lat="46.531935" lon="6.659666"><time>2026-06-01T06:42:32Z</time></trkpt>
<trkpt lat="46.532036" lon="6.659830"><time>2026-06-01T06:42:40Z</time></trkpt>
<trkpt lat="46.532136" lon="6.659989"><time>2026-06-01T06:42:48Z</time></trkpt>
<trkpt lat="46.532236" lon="6.660141"><time>2026-06-01T06:42:56Z</time></trkpt>
<trkpt lat="46.532336" lon="6.660288"><time>2026-06-01T06:43:04Z</time></trkpt>
<trkpt lat="46.532436" lon="6.660428"><time>2026-06-01T06:43:12Z</time></trkpt>
<trkpt lat="46.532536" lon="6.660563"><time>2026-06-01T06:43:20Z</time></trkpt>
<trkpt lat="46.532636" lon="6.660691"><time>2026-06-01T06:43:28Z</time></trkpt>
<trkpt lat="46.532736" lon="6.660814"><time>2026-06-01T06:43:36Z</time></trkpt>
<trkpt lat="46.532836" lon="6.660930"><time>2026-06-01T06:43:44Z</time></trkpt>
<trkpt lat="46.532937" lon="6.661041"><time>2026-06-01T06:43:52Z</time></trkpt>
<trkpt lat="46.533037" lon="6.661146"><time>2026-06-01T06:44:00Z</time></trkpt>
<trkpt lat="46.533137" lon="6.661245"><time>2026-06-01T06:44:08Z</time></trkpt>
<trkpt lat="46.533237" lon="6.661338"><time>2026-06-01T06:44:16Z</time></trkpt>
<trkpt lat="46.533337" lon="6.661425"><time>2026-06-01T06:44:24Z</time></trkpt>
<trkpt lat="46.533437" lon="6.661507"><time>2026-06-01T06:44:32Z</time></trkpt>
<trkpt lat="46.533537" lon="6.661583"><time>2026-06-01T06:44:40Z</time></trkpt>
<trkpt lat="46.533637" lon="6.661654"><time>2026-06-01T06:44:48Z</time></trkpt>
<trkpt lat="46.533737" lon="6.661718"><time>2026-06-01T06:44:56Z</time></trkpt>
<trkpt lat="46.533838" lon="6.661778"><time>2026-06-01T06:45:04Z</time></trkpt>
<trkpt lat="46.533938" lon="6.661831"><time>2026-06-01T06:45:12Z</time></trkpt>
<trkpt lat="46.534038" lon="6.661880"><time>2026-06-01T06:45:20Z</time></trkpt>
<trkpt lat="46.534138" lon="6.661923"><time>2026-06-01T06:45:28Z</time></trkpt>
<trkpt lat="46.534238" lon="6.661961"><time>2026-06-01T06:45:36Z</time></trkpt>
<trkpt lat="46.534338" lon="6.661993"><time>2026-06-01T06:45:44Z</time></trkpt>
<trkpt lat="46.534438" lon="6.662020"><time>2026-06-01T06:45:52Z</time></trkpt>
<trkpt lat="46.534538" lon="6.662043"><time>2026-06-01T06:46:00Z</time></trkpt>
<trkpt lat="46.534638" lon="6.662060"><time>2026-06-01T06:46:08Z</time></trkpt>
<trkpt lat="46.534739" lon="6.662073"><time>2026-06-01T06:46:16Z</time></trkpt>
<trkpt lat="46.534839" lon="6.662080"><time>2026-06-01T06:46:24Z</time></trkpt>
<trkpt lat="46.534939" lon="6.662083"><time>2026-06-01T06:46:32Z</time></trkpt>
<trkpt lat="46.535039" lon="6.662082"><time>2026-06-01T06:46:40Z</time></trkpt>
<trkpt lat="46.535139" lon="6.662075"><time>2026-06-01T06:46:48Z</time></trkpt>
<trkpt lat="46.535239" lon="6.662065"><time>2026-06-01T06:46:56Z</time></trkpt>
<trkpt lat="46.535339" lon="6.662050"><time>2026-06-01T06:47:04Z</time></trkpt>
<trkpt lat="46.535439" lon="6.662030"><time>2026-06-01T06:47:12Z</time></trkpt>
<trkpt lat="46.535539" lon="6.662007"><time>2026-06-01T06:47:20Z</time></trkpt>
<trkpt lat="46.535640" lon="6.661979"><time>2026-06-01T06:47:28Z</time></trkpt>
<trkpt lat="46.535740" lon="6.661948"><time>2026-06-01T06:47:36Z</time></trkpt>
<trkpt lat="46.535840" lon="6.661913"><time>2026-06-01T06:47:44Z</time></trkpt>
<trkpt lat="46.535940" lon="6.661874"><time>2026-06-01T06:47:52Z</time></trkpt>
<trkpt lat="46.536040" lon="6.661832"><time>2026-06-01T06:48:00Z</time></trkpt>
<trkpt lat="46.536140" lon="6.661786"><time>2026-06-01T06:48:08Z</time></trkpt>
<trkpt lat="46.536240" lon="6.661737"><time>2026-06-01T06:48:16Z</time></trkpt>
<trkpt lat="46.536340" lon="6.661684"><time>2026-06-01T06:48:24Z</time></trkpt>
<trkpt lat="46.536440" lon="6.661629"><time>2026-06-01T06:48:32Z</time></trkpt>
<trkpt lat="46.536541" lon="6.661570"><time>2026-06-01T06:48:40Z</time></trkpt>
<trkpt lat="46.536641" lon="6.661509"><time>2026-06-01T06:48:48Z</time></trkpt>
<trkpt lat="46.536741" lon="6.661445"><time>2026-06-01T06:48:56Z</time></trkpt>
<trkpt lat="46.536841" lon="6.661379"><time>2026-06-01T06:49:04Z</time></trkpt>
<trkpt lat="46.536941" lon="6.661310"><time>2026-06-01T06:49:12Z</time></trkpt>
<trkpt lat="46.537041" lon="6.661238"><time>2026-06-01T06:49:20Z</time></trkpt>
<trkpt lat="46.537141" lon="6.661165"><time>2026-06-01T06:49:28Z</time></trkpt>
<trkpt lat="46.537241" lon="6.661089"><time>2026-06-01T06:49:36Z</time></trkpt>
<trkpt lat="46.537341" lon="6.661012"><time>2026-06-01T06:49:44Z</time></trkpt>
<trkpt lat="46.537442" lon="6.660933"><time>2026-06-01T06:49:52Z</time></trkpt>
<trkpt lat="46.537542" lon="6.660852"><time>2026-06-01T06:50:00Z</time></trkpt>
<trkpt lat="46.537642" lon="6.660770"><time>2026-06-01T06:50:08Z</time></trkpt>
<trkpt lat="46.537742" lon="6.660686"><time>2026-06-01T06:50:16Z</time></trkpt>
<trkpt lat="46.537842" lon="6.660602"><time>2026-06-01T06:50:24Z</time></trkpt>
<trkpt lat="46.537942" lon="6.660516"><time>2026-06-01T06:50:32Z</time></trkpt>
<trkpt lat="46.538042" lon="6.660429"><time>2026-06-01T06:50:40Z</time></trkpt>
<trkpt lat="46.538142" lon="6.660342"><time>2026-06-01T06:50:48Z</time></trkpt>
<trkpt lat="46.538242" lon="6.660254"><time>2026-06-01T06:50:56Z</time></trkpt>
<trkpt lat="46.538343" lon="6.660165"><time>2026-06-01T06:51:04Z</time></trkpt>
<trkpt lat="46.538443" lon="6.660076"><time>2026-06-01T06:51:12Z</time></trkpt>
<trkpt lat="46.538543" lon="6.659987"><time>2026-06-01T06:51:20Z</time></trkpt>
<trkpt lat="46.538643" lon="6.659899"><time>2026-06-01T06:51:28Z</time></trkpt>
<trkpt lat="46.538743" lon="6.659810"><time>2026-06-01T06:51:36Z</time></trkpt>
<trkpt lat="46.538843" lon="6.659721"><time>2026-06-01T06:51:44Z</time></trkpt>
<trkpt lat="46.538943" lon="6.659633"><time>2026-06-01T06:51:52Z</time></trkpt>
<trkpt lat="46.539043" lon="6.659545"><time>2026-06-01T06:52:00Z</time></trkpt>
<trkpt lat="46.539143" lon="6.659458"><time>2026-06-01T06:52:08Z</time></trkpt>
<trkpt lat="46.539244" lon="6.659372"><time>2026-06-01T06:52:16Z</time></trkpt>
<trkpt lat="46.539344" lon="6.659287"><time>2026-06-01T06:52:24Z</time></trkpt>
<trkpt lat="46.539444" lon="6.659204"><time>2026-06-01T06:52:32Z</time></trkpt>
<trkpt lat="46.539544" lon="6.659121"><time>2026-06-01T06:52:40Z</time></trkpt>
<trkpt lat="46.539644" lon="6.659040"><time>2026-06-01T06:52:48Z</time></trkpt>
<trkpt lat="46.539744" lon="6.658960"><time>2026-06-01T06:52:56Z</time></trkpt>
<trkpt lat="46.539844" lon="6.658882"><time>2026-06-01T06:53:04Z</time></trkpt>
<trkpt lat="46.539944" lon="6.658806"><time>2026-06-01T06:53:12Z</time></trkpt>
<trkpt lat="46.540044" lon="6.658732"><time>2026-06-01T06:53:20Z</time></trkpt>
<trkpt lat="46.540145" lon="6.658661"><time>2026-06-01T06:53:28Z</time></trkpt>
<trkpt lat="46.540245" lon="6.658591"><time>2026-06-01T06:53:36Z</time></trkpt>
<trkpt lat="46.540345" lon="6.658524"><time>2026-06-01T06:53:44Z</time></trkpt>
<trkpt lat="46.540445" lon="6.658459"><time>2026-06-01T06:53:52Z</time></trkpt>
<trkpt lat="46.540545" lon="6.658397"><time>2026-06-01T06:54:00Z</time></trkpt>
<trkpt lat="46.540645" lon="6.658338"><time>2026-06-01T06:54:08Z</time></trkpt>
<trkpt lat="46.540745" lon="6.658282"><time>2026-06-01T06:54:16Z</time></trkpt>
<trkpt lat="46.540845" lon="6.658228"><time>2026-06-01T06:54:24Z</time></trkpt>
<trkpt lat="46.540945" lon="6.658178"><time>2026-06-01T06:54:32Z</time></trkpt>
<trkpt lat="46.541046" lon="6.658132"><time>2026-06-01T06:54:40Z</time></trkpt>
<trkpt lat="46.541146" lon="6.658088"><time>2026-06-01T06:54:48Z</time></trkpt>
<trkpt lat="46.541246" lon="6.658048"><time>2026-06-01T06:54:56Z</time></trkpt>
<trkpt lat="46.541346" lon="6.658012"><time>2026-06-01T06:55:04Z</time></trkpt>
<trkpt lat="46.541446" lon="6.657980"><time>2026-06-01T06:55:12Z</time></trkpt>
<trkpt lat="46.541546" lon="6.657952"><time>2026-06-01T06:55:20Z</time></trkpt>
<trkpt lat="46.541646" lon="6.657927"><time>2026-06-01T06:55:28Z</time></trkpt>
<trkpt lat="46.541746" lon="6.657907"><time>2026-06-01T06:55:36Z</time></trkpt>
<trkpt lat="46.541846" lon="6.657891"><time>2026-06-01T06:55:44Z</time></trkpt>
<trkpt lat="46.541947" lon="6.657879"><time>2026-06-01T06:55:52Z</time></trkpt>
<trkpt lat="46.542047" lon="6.657871"><time>2026-06-01T06:56:00Z</time></trkpt>
<trkpt lat="46.542147" lon="6.657869"><time>2026-06-01T06:56:08Z</time></trkpt>
<trkpt lat="46.542247" lon="6.657870"><time>2026-06-01T06:56:16Z</time></trkpt>
<trkpt lat="46.542347" lon="6.657877"><time>2026-06-01T06:56:24Z</time></trkpt>
<trkpt lat="46.542447" lon="6.657888"><time>2026-06-01T06:56:32Z</time></trkpt>
<trkpt lat="46.542547" lon="6.657904"><time>2026-06-01T06:56:40Z</time></trkpt>
<trkpt lat="46.542647" lon="6.657925"><time>2026-06-01T06:56:48Z</time></trkpt>
<trkpt lat="46.542747" lon="6.657951"><time>2026-06-01T06:56:56Z</time></trkpt>
<trkpt lat="46.542848" lon="6.657982"><time>2026-06-01T06:57:04Z</time></trkpt>
<trkpt lat="46.542948" lon="6.658019"><time>2026-06-01T06:57:12Z</time></trkpt>
<trkpt lat="46.543048" lon="6.658060"><time>2026-06-01T06:57:20Z</time></trkpt>
<trkpt lat="46.543148" lon="6.658107"><time>2026-06-01T06:57:28Z</time></trkpt>
<trkpt lat="46.543248" lon="6.658160"><time>2026-06-01T06:57:36Z</time></trkpt>
<trkpt lat="46.543348" lon="6.658217"><time>2026-06-01T06:57:44Z</time></trkpt>
<trkpt lat="46.543448" lon="6.658281"><time>2026-06-01T06:57:52Z</time></trkpt>
<trkpt lat="46.543548" lon="6.658350"><time>2026-06-01T06:58:00Z</time></trkpt>
<trkpt lat="46.543648" lon="6.658424"><time>2026-06-01T06:58:08Z</time></trkpt>
<trkpt lat="46.543749" lon="6.658504"><time>2026-06-01T06:58:16Z</time></trkpt>
<trkpt lat="46.543849" lon="6.658590"><time>2026-06-01T06:58:24Z</time></trkpt>
<trkpt lat="46.543949" lon="6.658682"><time>2026-06-01T06:58:32Z</time></trkpt>
<trkpt lat="46.544049" lon="6.658779"><time>2026-06-01T06:58:40Z</time></trkpt>
<trkpt lat="46.544149" lon="6.658883"><time>2026-06-01T06:58:48Z</time></trkpt>
<trkpt lat="46.544249" lon="6.658992"><time>2026-06-01T06:58:56Z</time></trkpt>
<trkpt lat="46.544349" lon="6.659107"><time>2026-06-01T06:59:04Z</time></trkpt>
<trkpt lat="46.544449" lon="6.659228"><time>2026-06-01T06:59:12Z</time></trkpt>
<trkpt lat="46.544549" lon="6.659355"><time>2026-06-01T06:59:20Z</time></trkpt>
<trkpt lat="46.544650" lon="6.659488"><time>2026-06-01T06:59:28Z</time></trkpt>
<trkpt lat="46.544750" lon="6.659627"><time>2026-06-01T06:59:36Z</time></trkpt>
<trkpt lat="46.544850" lon="6.659772"><time>2026-06-01T06:59:44Z</time></trkpt>
<trkpt lat="46.544950" lon="6.659922"><time>2026-06-01T06:59:52Z</time></trkpt>
<trkpt lat="46.545050" lon="6.660079"><time>2026-06-01T06:00:00Z</time></trkpt>
<trkpt lat="46.545150" lon="6.660242"><time>2026-06-01T06:00:08Z</time></trkpt>
<trkpt lat="46.545250" lon="6.660411"><time>2026-06-01T06:00:16Z</time></trkpt>
<trkpt lat="46.545350" lon="6.660586"><time>2026-06-01T06:00:24Z</time></trkpt>
<trkpt lat="46.545451" lon="6.660766"><time>2026-06-01T06:00:32Z</time></trkpt>
<trkpt lat="46.545551" lon="6.660953"><time>2026-06-01T06:00:40Z</time></trkpt>
<trkpt lat="46.545651" lon="6.661146"><time>2026-06-01T06:00:48Z</time></trkpt>
<trkpt lat="46.545751" lon="6.661344"><time>2026-06-01T06:00:56Z</time></trkpt>
<trkpt lat="46.545851" lon="6.661548"><time>2026-06-01T06:01:04Z</time></trkpt>
<trkpt lat="46.545951" lon="6.661759"><time>2026-06-01T06:01:12Z</time></trkpt>
<trkpt lat="46.546051" lon="6.661975"><time>2026-06-01T06:01:20Z</time></trkpt>
<trkpt lat="46.546151" lon="6.662197"><time>2026-06-01T06:01:28Z</time></trkpt>
<trkpt lat="46.546251" lon="6.662424"><time>2026-06-01T06:01:36Z</time></trkpt>
<trkpt lat="46.546352" lon="6.662658"><time>2026-06-01T06:01:44Z</time></trkpt>
<trkpt lat="46.546452" lon="6.662897"><time>2026-06-01T06:01:52Z</time></trkpt>
<trkpt lat="46.546552" lon="6.663141"><time>2026-06-01T06:02:00Z</time></trkpt>
<trkpt lat="46.546652" lon="6.663391"><time>2026-06-01T06:02:08Z</time></trkpt>
<trkpt lat="46.546752" lon="6.663647"><time>2026-06-01T06:02:16Z</time></trkpt>
<trkpt lat="46.546852" lon="6.663908"><time>2026-06-01T06:02:24Z</time></trkpt>
<trkpt lat="46.546952" lon="6.664174"><time>2026-06-01T06:02:32Z</time></trkpt>
<trkpt lat="46.547052" lon="6.664446"><time>2026-06-01T06:02:40Z</time></trkpt>
<trkpt lat="46.547152" lon="6.664723"><time>2026-06-01T06:02:48Z</time></trkpt>
<trkpt lat="46.547253" lon="6.665005"><time>2026-06-01T06:02:56Z</time></trkpt>
<trkpt lat="46.547353" lon="6.665292"><time>2026-06-01T06:03:04Z</time></trkpt>
<trkpt lat="46.547453" lon="6.665585"><time>2026-06-01T06:03:12Z</time></trkpt>
<trkpt lat="46.547553" lon="6.665882"><time>2026-06-01T06:03:20Z</time></trkpt>
<trkpt lat="46.547653" lon="6.666184"><time>2026-06-01T06:03:28Z</time></trkpt>
<trkpt lat="46.547753" lon="6.666490"><time>2026-06-01T06:03:36Z</time></trkpt>
<trkpt lat="46.547853" lon="6.666802"><time>2026-06-01T06:03:44Z</time></trkpt>
<trkpt lat="46.547953" lon="6.667118"><time>2026-06-01T06:03:52Z</time></trkpt>
<trkpt lat="46.548053" lon="6.667438"><time>2026-06-01T06:04:00Z</time></trkpt>
<trkpt lat="46.548154" lon="6.667763"><time>2026-06-01T06:04:08Z</time></trkpt>
<trkpt lat="46.548254" lon="6.668092"><time>2026-06-01T06:04:16Z</time></trkpt>
<trkpt lat="46.548354" lon="6.668426"><time>2026-06-01T06:04:24Z</time></trkpt>
<trkpt lat="46.548454" lon="6.668763"><time>2026-06-01T06:04:32Z</time></trkpt>
<trkpt lat="46.548554" lon="6.669104"><time>2026-06-01T06:04:40Z</time></trkpt>
<trkpt lat="46.548654" lon="6.669450"><time>2026-06-01T06:04:48Z</time></trkpt>
<trkpt lat="46.548754" lon="6.669798"><time>2026-06-01T06:04:56Z</time></trkpt>
<trkpt lat="46.548854" lon="6.670151"><time>2026-06-01T06:05:04Z</time></trkpt>
<trkpt lat="46.548954" lon="6.670507"><time>2026-06-01T06:05:12Z</time></trkpt>
<trkpt lat="46.549055" lon="6.670866"><time>2026-06-01T06:05:20Z</time></trkpt>
<trkpt lat="46.549155" lon="6.671229"><time>2026-06-01T06:05:28Z</time></trkpt>
<trkpt lat="46.549255" lon="6.671595"><time>2026-06-01T06:05:36Z</time></trkpt>
<trkpt lat="46.549355" lon="6.671964"><time>2026-06-01T06:05:44Z</time></trkpt>
<trkpt lat="46.549455" lon="6.672335"><time>2026-06-01T06:05:52Z</time></trkpt>
<trkpt lat="46.549555" lon="6.672710"><time>2026-06-01T06:06:00Z</time></trkpt>
<trkpt lat="46.549655" lon="6.673087"><time>2026-06-01T06:06:08Z</time></trkpt>
<trkpt lat="46.549755" lon="6.673466"><time>2026-06-01T06:06:16Z</time></trkpt>
<trkpt lat="46.549855" lon="6.673848"><time>2026-06-01T06:06:24Z</time></trkpt>
<trkpt lat="46.549956" lon="6.674232"><time>2026-06-01T06:06:32Z</time></trkpt>
<trkpt lat="46.550056" lon="6.674619"><time>2026-06-01T06:06:40Z</time></trkpt>
<trkpt lat="46.550156" lon="6.675007"><time>2026-06-01T06:06:48Z</time></trkpt>
<trkpt lat="46.550256" lon="6.675397"><time>2026-06-01T06:06:56Z</time></trkpt>
<trkpt lat="46.550356" lon="6.675788"><time>2026-06-01T06:07:04Z</time></trkpt>
<trkpt lat="46.550456" lon="6.676181"><time>2026-06-01T06:07:12Z</time></trkpt>
<trkpt lat="46.550556" lon="6.676576"><time>2026-06-01T06:07:20Z</time></trkpt>
<trkpt lat="46.550656" lon="6.676972"><time>2026-06-01T06:07:28Z</time></trkpt>
<trkpt lat="46.550756" lon="6.677369"><time>2026-06-01T06:07:36Z</time></trkpt>
<trkpt lat="46.550857" lon="6.677766"><time>2026-06-01T06:07:44Z</time></trkpt>
<trkpt lat="46.550957" lon="6.678165"><time>2026-06-01T06:07:52Z</time></trkpt>
<trkpt lat="46.551057" lon="6.678564"><time>2026-06-01T06:08:00Z</time></trkpt>
<trkpt lat="46.551157" lon="6.678964"><time>2026-06-01T06:08:08Z</time></trkpt>
<trkpt lat="46.551257" lon="6.679364"><time>2026-06-01T06:08:16Z</time></trkpt>
<trkpt lat="46.551357" lon="6.679765"><time>2026-06-01T06:08:24Z</time></trkpt>
<trkpt lat="46.551457" lon="6.680165"><time>2026-06-01T06:08:32Z</time></trkpt>
<trkpt lat="46.551557" lon="6.680565"><time>2026-06-01T06:08:40Z</time></trkpt>
<trkpt lat="46.551657" lon="6.680966"><time>2026-06-01T06:08:48Z</time></trkpt>
<trkpt lat="46.551758" lon="6.681365"><time>2026-06-01T06:08:56Z</time></trkpt>
<trkpt lat="46.551858" lon="6.681765"><time>2026-06-01T06:09:04Z</time></trkpt>
<trkpt lat="46.551958" lon="6.682163"><time>2026-06-01T06:09:12Z</time></trkpt>
<trkpt lat="46.552058" lon="6.682561"><time>2026-06-01T06:09:20Z</time></trkpt>
<trkpt lat="46.552158" lon="6.682958"><time>2026-06-01T06:09:28Z</time></trkpt>
<trkpt lat="46.552258" lon="6.683354"><time>2026-06-01T06:09:36Z</time></trkpt>
<trkpt lat="46.552358" lon="6.683748"><time>2026-06-01T06:09:44Z</time></trkpt>
<trkpt lat="46.552458" lon="6.684141"><time>2026-06-01T06:09:52Z</time></trkpt>
<trkpt lat="46.552558" lon="6.684533"><time>2026-06-01T06:10:00Z</time></trkpt>
<trkpt lat="46.552659" lon="6.684923"><time>2026-06-01T06:10:08Z</time></trkpt>
<trkpt lat="46.552759" lon="6.685311"><time>2026-06-01T06:10:16Z</time></trkpt>
<trkpt lat="46.552859" lon="6.685697"><time>2026-06-01T06:10:24Z</time></trkpt>
<trkpt lat="46.552959" lon="6.686081"><time>2026-06-01T06:10:32Z</time></trkpt>
<trkpt lat="46.553059" lon="6.686463"><time>2026-06-01T06:10:40Z</time></trkpt>
<trkpt lat="46.553159" lon="6.686843"><time>2026-06-01T06:10:48Z</time></trkpt>
<trkpt lat="46.553259" lon="6.687220"><time>2026-06-01T06:10:56Z</time></trkpt>
<trkpt lat="46.553359" lon="6.687595"><time>2026-06-01T06:11:04Z</time></trkpt>
<trkpt lat="46.553459" lon="6.687966"><time>2026-06-01T06:11:12Z</time></trkpt>
<trkpt lat="46.553560" lon="6.688335"><time>2026-06-01T06:11:20Z</time></trkpt>
<trkpt lat="46.553660" lon="6.688701"><time>2026-06-01T06:11:28Z</time></trkpt>
<trkpt lat="46.553760" lon="6.689064"><time>2026-06-01T06:11:36Z</time></trkpt>
<trkpt lat="46.553860" lon="6.689423"><time>2026-06-01T06:11:44Z</time></trkpt>
<trkpt lat="46.553960" lon="6.689779"><time>2026-06-01T06:11:52Z</time></trkpt>
<trkpt lat="46.554060" lon="6.690132"><time>2026-06-01T06:12:00Z</time></trkpt>
<trkpt lat="46.554160" lon="6.690481"><time>2026-06-01T06:12:08Z</time></trkpt>
<trkpt lat="46.554260" lon="6.690826"><time>2026-06-01T06:12:16Z</time></trkpt>
<trkpt lat="46.554360" lon="6.691167"><time>2026-06-01T06:12:24Z</time></trkpt>
<trkpt lat="46.554461" lon="6.691505"><time>2026-06-01T06:12:32Z</time></trkpt>
<trkpt lat="46.554561" lon="6.691838"><time>2026-06-01T06:12:40Z</time></trkpt>
<trkpt lat="46.554661" lon="6.692167"><time>2026-06-01T06:12:48Z</time></trkpt>
<trkpt lat="46.554761" lon="6.692492"><time>2026-06-01T06:12:56Z</time></trkpt>
<trkpt lat="46.554861" lon="6.692813"><time>2026-06-01T06:13:04Z</time></trkpt>
<trkpt lat="46.554961" lon="6.693129"><time>2026-06-01T06:13:12Z</time></trkpt>
<trkpt lat="46.555061" lon="6.693440"><time>2026-06-01T06:13:20Z</time></trkpt>
<trkpt lat="46.555161" lon="6.693747"><time>2026-06-01T06:13:28Z</time></trkpt>
<trkpt lat="46.555261" lon="6.694049"><time>2026-06-01T06:13:36Z</time></trkpt>
<trkpt lat="46.555362" lon="6.694347"><time>2026-06-01T06:13:44Z</time></trkpt>
<trkpt lat="46.555462" lon="6.694639"><time>2026-06-01T06:13:52Z</time></trkpt>
<trkpt lat="46.555562" lon="6.694926"><time>2026-06-01T06:14:00Z</time></trkpt>
<trkpt lat="46.555662" lon="6.695208"><time>2026-06-01T06:14:08Z</time></trkpt>
<trkpt lat="46.555762" lon="6.695485"><time>2026-06-01T06:14:16Z</time></trkpt>
<trkpt lat="46.555862" lon="6.695757"><time>2026-06-01T06:14:24Z</time></trkpt>
<trkpt lat="46.555962" lon="6.696024"><time>2026-06-01T06:14:32Z</time></trkpt>
<trkpt lat="46.556062" lon="6.696285"><time>2026-06-01T06:14:40Z</time></trkpt>
<trkpt lat="46.556162" lon="6.696541"><time>2026-06-01T06:14:48Z</time></trkpt>
<trkpt lat="46.556263" lon="6.696791"><time>2026-06-01T06:14:56Z</time></trkpt>
<trkpt lat="46.556363" lon="6.697035"><time>2026-06-01T06:15:04Z</time></trkpt>
<trkpt lat="46.556463" lon="6.697274"><time>2026-06-01T06:15:12Z</time></trkpt>
<trkpt lat="46.556563" lon="6.697508"><time>2026-06-01T06:15:20Z</time></trkpt>
<trkpt lat="46.556663" lon="6.697736"><time>2026-06-01T06:15:28Z</time></trkpt>
<trkpt lat="46.556763" lon="6.697957"><time>2026-06-01T06:15:36Z</time></trkpt>
<trkpt lat="46.556863" lon="6.698174"><time>2026-06-01T06:15:44Z</time></trkpt>
<trkpt lat="46.556963" lon="6.698384"><time>2026-06-01T06:15:52Z</time></trkpt>
<trkpt lat="46.557063" lon="6.698588"><time>2026-06-01T06:16:00Z</time></trkpt>
<trkpt lat="46.557164" lon="6.698787"><time>2026-06-01T06:16:08Z</time></trkpt>
<trkpt lat="46.557264" lon="6.698980"><time>2026-06-01T06:16:16Z</time></trkpt>
<trkpt lat="46.557364" lon="6.699167"><time>2026-06-01T06:16:24Z</time></trkpt>
<trkpt lat="46.557464" lon="6.699347"><time>2026-06-01T06:16:32Z</time></trkpt>
<trkpt lat="46.557564" lon="6.699522"><time>2026-06-01T06:16:40Z</time></trkpt>
<trkpt lat="46.557664" lon="6.699691"><time>2026-06-01T06:16:48Z</time></trkpt>
<trkpt lat="46.557764" lon="6.699854"><time>2026-06-01T06:16:56Z</time></trkpt>
<trkpt lat="46.557864" lon="6.700011"><time>2026-06-01T06:17:04Z</time></trkpt>
<trkpt lat="46.557964" lon="6.700162"><time>2026-06-01T06:17:12Z</time></trkpt>
<trkpt lat="46.558065" lon="6.700307"><time>2026-06-01T06:17:20Z</time></trkpt>
<trkpt lat="46.558165" lon="6.700446"><time>2026-06-01T06:17:28Z</time></trkpt>
<trkpt lat="46.558265" lon="6.700579"><time>2026-06-01T06:17:36Z</time></trkpt>
<trkpt lat="46.558365" lon="6.700706"><time>2026-06-01T06:17:44Z</time></trkpt>
<trkpt lat="46.558465" lon="6.700827"><time>2026-06-01T06:17:52Z</time></trkpt>
<trkpt lat="46.558565" lon="6.700942"><time>2026-06-01T06:18:00Z</time></trkpt>
<trkpt lat="46.558665" lon="6.701051"><time>2026-06-01T06:18:08Z</time></trkpt>
<trkpt lat="46.558765" lon="6.701155"><time>2026-06-01T06:18:16Z</time></trkpt>
<trkpt lat="46.558865" lon="6.701252"><time>2026-06-01T06:18:24Z</time></trkpt>
<trkpt lat="46.558966" lon="6.701344"><time>2026-06-01T06:18:32Z</time></trkpt>
<trkpt lat="46.559066" lon="6.701430"><time>2026-06-01T06:18:40Z</time></trkpt>
<trkpt lat="46.559166" lon="6.701510"><time>2026-06-01T06:18:48Z</time></trkpt>
<trkpt lat="46.559266" lon="6.701585"><time>2026-06-01T06:18:56Z</time></trkpt>
<trkpt lat="46.559366" lon="6.701654"><time>2026-06-01T06:19:04Z</time></trkpt>
<trkpt lat="46.559466" lon="6.701717"><time>2026-06-01T06:19:12Z</time></trkpt>
<trkpt lat="46.559566" lon="6.701775"><time>2026-06-01T06:19:20Z</time></trkpt>
<trkpt lat="46.559666" lon="6.701828"><time>2026-06-01T06:19:28Z</time></trkpt>
<trkpt lat="46.559766" lon="6.701875"><time>2026-06-01T06:19:36Z</time></trkpt>
<trkpt lat="46.559867" lon="6.701916"><time>2026-06-01T06:19:44Z</time></trkpt>
<trkpt lat="46.559967" lon="6.701953"><time>2026-06-01T06:19:52Z</time></trkpt>
<trkpt lat="46.560067" lon="6.701984"><time>2026-06-01T06:20:00Z</time></trkpt>
<trkpt lat="46.560167" lon="6.702010"><time>2026-06-01T06:20:08Z</time></trkpt>
<trkpt lat="46.560267" lon="6.702031"><time>2026-06-01T06:20:16Z</time></trkpt>
<trkpt lat="46.560367" lon="6.702048"><time>2026-06-01T06:20:24Z</time></trkpt>
<trkpt lat="46.560467" lon="6.702059"><time>2026-06-01T06:20:32Z</time></trkpt>
<trkpt lat="46.560567" lon="6.702065"><time>2026-06-01T06:20:40Z</time></trkpt>
<trkpt lat="46.560667" lon="6.702067"><time>2026-06-01T06:20:48Z</time></trkpt>
<trkpt lat="46.560768" lon="6.702064"><time>2026-06-01T06:20:56Z</time></trkpt>
<trkpt lat="46.560868" lon="6.702057"><time>2026-06-01T06:21:04Z</time></trkpt>
<trkpt lat="46.560968" lon="6.702045"><time>2026-06-01T06:21:12Z</time></trkpt>
<trkpt lat="46.561068" lon="6.702029"><time>2026-06-01T06:21:20Z</time></trkpt>
<trkpt lat="46.561168" lon="6.702009"><time>2026-06-01T06:21:28Z</time></trkpt>
<trkpt lat="46.561268" lon="6.701984"><time>2026-06-01T06:21:36Z</time></trkpt>
<trkpt lat="46.561368" lon="6.701956"><time>2026-06-01T06:21:44Z</time></trkpt>
<trkpt lat="46.561468" lon="6.701924"><time>2026-06-01T06:21:52Z</time></trkpt>
<trkpt lat="46.561568" lon="6.701888"><time>2026-06-01T06:22:00Z</time></trkpt>
<trkpt lat="46.561669" lon="6.701848"><time>2026-06-01T06:22:08Z</time></trkpt>
<trkpt lat="46.561769" lon="6.701805"><time>2026-06-01T06:22:16Z</time></trkpt>
<trkpt lat="46.561869" lon="6.701758"><time>2026-06-01T06:22:24Z</time></trkpt>
<trkpt lat="46.561969" lon="6.701708"><time>2026-06-01T06:22:32Z</time></trkpt>
<trkpt lat="46.562069" lon="6.701655"><time>2026-06-01T06:22:40Z</time></trkpt>
<trkpt lat="46.562169" lon="6.701599"><time>2026-06-01T06:22:48Z</time></trkpt>
<trkpt lat="46.562269" lon="6.701539"><time>2026-06-01T06:22:56Z</time></trkpt>
<trkpt lat="46.562369" lon="6.701478"><time>2026-06-01T06:23:04Z</time></trkpt>
<trkpt lat="46.562469" lon="6.701413"><time>2026-06-01T06:23:12Z</time></trkpt>
<trkpt lat="46.562570" lon="6.701346"><time>2026-06-01T06:23:20Z</time></trkpt>
<trkpt lat="46.562670" lon="6.701276"><time>2026-06-01T06:23:28Z</time></trkpt>
<trkpt lat="46.562770" lon="6.701204"><time>2026-06-01T06:23:36Z</time></trkpt>
<trkpt lat="46.562870" lon="6.701130"><time>2026-06-01T06:23:44Z</time></trkpt>
<trkpt lat="46.562970" lon="6.701054"><time>2026-06-01T06:23:52Z</time></trkpt>
<trkpt lat="46.563070" lon="6.700977"><time>2026-06-01T06:24:00Z</time></trkpt>
<trkpt lat="46.563170" lon="6.700897"><time>2026-06-01T06:24:08Z</time></trkpt>
<trkpt lat="46.563270" lon="6.700816"><time>2026-06-01T06:24:16Z</time></trkpt>
<trkpt lat="46.563370" lon="6.700733"><time>2026-06-01T06:24:24Z</time></trkpt>
<trkpt lat="46.563471" lon="6.700649"><time>2026-06-01T06:24:32Z</time></trkpt>
<trkpt lat="46.563571" lon="6.700564"><time>2026-06-01T06:24:40Z</time></trkpt>
<trkpt lat="46.563671" lon="6.700478"><time>2026-06-01T06:24:48Z</time></trkpt>
<trkpt lat="46.563771" lon="6.700392"><time>2026-06-01T06:24:56Z</time></trkpt>
<trkpt lat="46.563871" lon="6.700304"><time>2026-06-01T06:25:04Z</time></trkpt>
<trkpt lat="46.563971" lon="6.700216"><time>2026-06-01T06:25:12Z</time></trkpt>
<trkpt lat="46.564071" lon="6.700127"><time>2026-06-01T06:25:20Z</time></trkpt>
<trkpt lat="46.564171" lon="6.700038"><time>2026-06-01T06:25:28Z</time></trkpt>
<trkpt lat="46.564271" lon="6.699949"><time>2026-06-01T06:25:36Z</time></trkpt>
<trkpt lat="46.564372" lon="6.699861"><time>2026-06-01T06:25:44Z</time></trkpt>
<trkpt lat="46.564472" lon="6.699772"><time>2026-06-01T06:25:52Z</time></trkpt>
<trkpt lat="46.564572" lon="6.699683"><time>2026-06-01T06:26:00Z</time></trkpt>
<trkpt lat="46.564672" lon="6.699595"><time>2026-06-01T06:26:08Z</time></trkpt>
<trkpt lat="46.564772" lon="6.699508"><time>2026-06-01T06:26:16Z</time></trkpt>
<trkpt lat="46.564872" lon="6.699421"><time>2026-06-01T06:26:24Z</time></trkpt>
<trkpt lat="46.564972" lon="6.699335"><time>2026-06-01T06:26:32Z</time></trkpt>
<trkpt lat="46.565072" lon="6.699251"><time>2026-06-01T06:26:40Z</time></trkpt>
<trkpt lat="46.565172" lon="6.699167"><time>2026-06-01T06:26:48Z</time></trkpt>
<trkpt lat="46.565273" lon="6.699085"><time>2026-06-01T06:26:56Z</time></trkpt>
<trkpt lat="46.565373" lon="6.699004"><time>2026-06-01T06:27:04Z</time></trkpt>
<trkpt lat="46.565473" lon="6.698925"><time>2026-06-01T06:27:12Z</time></trkpt>
<trkpt lat="46.565573" lon="6.698847"><time>2026-06-01T06:27:20Z</time></trkpt>
<trkpt lat="46.565673" lon="6.698772"><time>2026-06-01T06:27:28Z</time></trkpt>
<trkpt lat="46.565773" lon="6.698698"><time>2026-06-01T06:27:36Z</time></trkpt>
<trkpt lat="46.565873" lon="6.698627"><time>2026-06-01T06:27:44Z</time></trkpt>
<trkpt lat="46.565973" lon="6.698558"><time>2026-06-01T06:27:52Z</time></trkpt>
<trkpt lat="46.566073" lon="6.698491"><time>2026-06-01T06:28:00Z</time></trkpt>
<trkpt lat="46.566174" lon="6.698427"><time>2026-06-01T06:28:08Z</time></trkpt>
<trkpt lat="46.566274" lon="6.698366"><time>2026-06-01T06:28:16Z</time></trkpt>
<trkpt lat="46.566374" lon="6.698308"><time>2026-06-01T06:28:24Z</time></trkpt>
<trkpt lat="46.566474" lon="6.698252"><time>2026-06-01T06:28:32Z</time></trkpt>
<trkpt lat="46.566574" lon="6.698200"><time>2026-06-01T06:28:40Z</time></trkpt>
<trkpt lat="46.566674" lon="6.698150"><time>2026-06-01T06:28:48Z</time></trkpt>
<trkpt lat="46.566774" lon="6.698105"><time>2026-06-01T06:28:56Z</time></trkpt>
<trkpt lat="46.566874" lon="6.698062"><time>2026-06-01T06:29:04Z</time></trkpt>
<trkpt lat="46.566974" lon="6.698023"><time>2026-06-01T06:29:12Z</time></trkpt>
<trkpt lat="46.567075" lon="6.697988"><time>2026-06-01T06:29:20Z</time></trkpt>
<trkpt lat="46.567175" lon="6.697957"><time>2026-06-01T06:29:28Z</time></trkpt>
<trkpt lat="46.567275" lon="6.697929"><time>2026-06-01T06:29:36Z</time></trkpt>
<trkpt lat="46.567375" lon="6.697906"><time>2026-06-01T06:29:44Z</time></trkpt>
<trkpt lat="46.567475" lon="6.697886"><time>2026-06-01T06:29:52Z</time></trkpt>
<trkpt lat="46.567575" lon="6.697871"><time>2026-06-01T06:30:00Z</time></trkpt>
<trkpt lat="46.567675" lon="6.697860"><time>2026-06-01T06:30:08Z</time></trkpt>
<trkpt lat="46.567775" lon="6.697854"><time>2026-06-01T06:30:16Z</time></trkpt>
<trkpt lat="46.567875" lon="6.697852"><time>2026-06-01T06:30:24Z</time></trkpt>
<trkpt lat="46.567976" lon="6.697855"><time>2026-06-01T06:30:32Z</time></trkpt>
<trkpt lat="46.568076" lon="6.697863"><time>2026-06-01T06:30:40Z</time></trkpt>
<trkpt lat="46.568176" lon="6.697875"><time>2026-06-01T06:30:48Z</time></trkpt>
<trkpt lat="46.568276" lon="6.697893"><time>2026-06-01T06:30:56Z</time></trkpt>
<trkpt lat="46.568376" lon="6.697915"><time>2026-06-01T06:31:04Z</time></trkpt>
<trkpt lat="46.568476" lon="6.697942"><time>2026-06-01T06:31:12Z</time></trkpt>
<trkpt lat="46.568576" lon="6.697975"><time>2026-06-01T06:31:20Z</time></trkpt>
<trkpt lat="46.568676" lon="6.698012"><time>2026-06-01T06:31:28Z</time></trkpt>
<trkpt lat="46.568776" lon="6.698055"><time>2026-06-01T06:31:36Z</time></trkpt>
<trkpt lat="46.568877" lon="6.698103"><time>2026-06-01T06:31:44Z</time></trkpt>
<trkpt lat="46.568977" lon="6.698157"><time>2026-06-01T06:31:52Z</time></trkpt>
<trkpt lat="46.569077" lon="6.698216"><time>2026-06-01T06:32:00Z</time></trkpt>
<trkpt lat="46.569177" lon="6.698281"><time>2026-06-01T06:32:08Z</time></trkpt>
<trkpt lat="46.569277" lon="6.698351"><time>2026-06-01T06:32:16Z</time></trkpt>
<trkpt lat="46.569377" lon="6.698427"><time>2026-06-01T06:32:24Z</time></trkpt>
<trkpt lat="46.569477" lon="6.698509"><time>2026-06-01T06:32:32Z</time></trkpt>
<trkpt lat="46.569577" lon="6.698596"><time>2026-06-01T06:32:40Z</time></trkpt>
<trkpt lat="46.569677" lon="6.698689"><time>2026-06-01T06:32:48Z</time></trkpt>
<trkpt lat="46.569778" lon="6.698788"><time>2026-06-01T06:32:56Z</time></trkpt>
<trkpt lat="46.569878" lon="6.698893"><time>2026-06-01T06:33:04Z</time></trkpt>
<trkpt lat="46.569978" lon="6.699004"><time>2026-06-01T06:33:12Z</time></trkpt>
<trkpt lat="46.570078" lon="6.699120"><time>2026-06-01T06:33:20Z</time></trkpt>
<trkpt lat="46.570178" lon="6.699243"><time>2026-06-01T06:33:28Z</time></trkpt>
<trkpt lat="46.570278" lon="6.699371"><time>2026-06-01T06:33:36Z</time></trkpt>
<trkpt lat="46.570378" lon="6.699505"><time>2026-06-01T06:33:44Z</time></trkpt>
<trkpt lat="46.570478" lon="6.699646"><time>2026-06-01T06:33:52Z</time></trkpt>
<trkpt lat="46.570578" lon="6.699792"><time>2026-06-01T06:34:00Z</time></trkpt>
<trkpt lat="46.570679" lon="6.699944"><time>2026-06-01T06:34:08Z</time></trkpt>
<trkpt lat="46.570779" lon="6.700103"><time>2026-06-01T06:34:16Z</time></trkpt>
<trkpt lat="46.570879" lon="6.700267"><time>2026-06-01T06:34:24Z</time></trkpt>
<trkpt lat="46.570979" lon="6.700437"><time>2026-06-01T06:34:32Z</time></trkpt>
<trkpt lat="46.571079" lon="6.700613"><time>2026-06-01T06:34:40Z</time></trkpt>
<trkpt lat="46.571179" lon="6.700796"><time>2026-06-01T06:34:48Z</time></trkpt>
<trkpt lat="46.571279" lon="6.700984"><time>2026-06-01T06:34:56Z</time></trkpt>
<trkpt lat="46.571379" lon="6.701178"><time>2026-06-01T06:35:04Z</time></trkpt>
<trkpt lat="46.571479" lon="6.701378"><time>2026-06-01T06:35:12Z</time></trkpt>
<trkpt lat="46.571580" lon="6.701584"><time>2026-06-01T06:35:20Z</time></trkpt>
<trkpt lat="46.571680" lon="6.701795"><time>2026-06-01T06:35:28Z</time></trkpt>
<trkpt lat="46.571780" lon="6.702013"><time>2026-06-01T06:35:36Z</time></trkpt>
<trkpt lat="46.571880" lon="6.702236"><time>2026-06-01T06:35:44Z</time></trkpt>
<trkpt lat="46.571980" lon="6.702465"><time>2026-06-01T06:35:52Z</time></trkpt>
<trkpt lat="46.572080" lon="6.702700"><time>2026-06-01T06:36:00Z</time></trkpt>
<trkpt lat="46.572180" lon="6.702940"><time>2026-06-01T06:36:08Z</time></trkpt>
<trkpt lat="46.572280" lon="6.703186"><time>2026-06-01T06:36:16Z</time></trkpt>
<trkpt lat="46.572380" lon="6.703438"><time>2026-06-01T06:36:24Z</time></trkpt>
<trkpt lat="46.572481" lon="6.703694"><time>2026-06-01T06:36:32Z</time></trkpt>
<trkpt lat="46.572581" lon="6.703957"><time>2026-06-01T06:36:40Z</time></trkpt>
<trkpt lat="46.572681" lon="6.704225"><time>2026-06-01T06:36:48Z</time></trkpt>
<trkpt lat="46.572781" lon="6.704498"><time>2026-06-01T06:36:56Z</time></trkpt>
<trkpt lat="46.572881" lon="6.704776"><time>2026-06-01T06:37:04Z</time></trkpt>
<trkpt lat="46.572981" lon="6.705059"><time>2026-06-01T06:37:12Z</time></trkpt>
<trkpt lat="46.573081" lon="6.705348"><time>2026-06-01T06:37:20Z</time></trkpt>
<trkpt lat="46.573181" lon="6.705641"><time>2026-06-01T06:37:28Z</time></trkpt>
<trkpt lat="46.573281" lon="6.705940"><time>2026-06-01T06:37:36Z</time></trkpt>
<trkpt lat="46.573382" lon="6.706243"><time>2026-06-01T06:37:44Z</time></trkpt>
<trkpt lat="46.573482" lon="6.706551"><time>2026-06-01T06:37:52Z</time></trkpt>
<trkpt lat="46.573582" lon="6.706863"><time>2026-06-01T06:38:00Z</time></trkpt>
<trkpt lat="46.573682" lon="6.707180"><time>2026-06-01T06:38:08Z</time></trkpt>
<trkpt lat="46.573782" lon="6.707502"><time>2026-06-01T06:38:16Z</time></trkpt>
<trkpt lat="46.573882" lon="6.707828"><time>2026-06-01T06:38:24Z</time></trkpt>
<trkpt lat="46.573982" lon="6.708158"><time>2026-06-01T06:38:32Z</time></trkpt>
<trkpt lat="46.574082" lon="6.708492"><time>2026-06-01T06:38:40Z</time></trkpt>
<trkpt lat="46.574182" lon="6.708831"><time>2026-06-01T06:38:48Z</time></trkpt>
<trkpt lat="46.574283" lon="6.709173"><time>2026-06-01T06:38:56Z</time></trkpt>
<trkpt lat="46.574383" lon="6.709519"><time>2026-06-01T06:39:04Z</time></trkpt>
<trkpt lat="46.574483" lon="6.709869"><time>2026-06-01T06:39:12Z</time></trkpt>
<trkpt lat="46.574583" lon="6.710222"><time>2026-06-01T06:39:20Z</time></trkpt>
<trkpt lat="46.574683" lon="6.710579"><time>2026-06-01T06:39:28Z</time></trkpt>
<trkpt lat="46.574783" lon="6.710939"><time>2026-06-01T06:39:36Z</time></trkpt>
<trkpt lat="46.574883" lon="6.711303"><time>2026-06-01T06:39:44Z</time></trkpt>
<trkpt lat="46.574983" lon="6.711669"><time>2026-06-01T06:39:52Z</time></trkpt>
<trkpt lat="46.575083" lon="6.712039"><time>2026-06-01T06:40:00Z</time></trkpt>
<trkpt lat="46.575184" lon="6.712411"><time>2026-06-01T06:40:08Z</time></trkpt>
<trkpt lat="46.575284" lon="6.712786"><time>2026-06-01T06:40:16Z</time></trkpt>
<trkpt lat="46.575384" lon="6.713164"><time>2026-06-01T06:40:24Z</time></trkpt>
<trkpt lat="46.575484" lon="6.713544"><time>2026-06-01T06:40:32Z</time></trkpt>
<trkpt lat="46.575584" lon="6.713927"><time>2026-06-01T06:40:40Z</time></trkpt>
<trkpt lat="46.575684" lon="6.714311"><time>2026-06-01T06:40:48Z</time></trkpt>
<trkpt lat="46.575784" lon="6.714698"><time>2026-06-01T06:40:56Z</time></trkpt>
<trkpt lat="46.575884" lon="6.715087"><time>2026-06-01T06:41:04Z</time></trkpt>
<trkpt lat="46.575984" lon="6.715477"><time>2026-06-01T06:41:12Z</time></trkpt>
<trkpt lat="46.576085" lon="6.715869"><time>2026-06-01T06:41:20Z</time></trkpt>
<trkpt lat="46.576185" lon="6.716262"><time>2026-06-01T06:41:28Z</time></trkpt>
<trkpt lat="46.576285" lon="6.716657"><time>2026-06-01T06:41:36Z</time></trkpt>
<trkpt lat="46.576385" lon="6.717053"><time>2026-06-01T06:41:44Z</time></trkpt>
<trkpt lat="46.576485" lon="6.717450"><time>2026-06-01T06:41:52Z</time></trkpt>
<trkpt lat="46.576585" lon="6.717848"><time>2026-06-01T06:42:00Z</time></trkpt>
<trkpt lat="46.576685" lon="6.718247"><time>2026-06-01T06:42:08Z</time></trkpt>
<trkpt lat="46.576785" lon="6.718647"><time>2026-06-01T06:42:16Z</time></trkpt>
<trkpt lat="46.576885" lon="6.719046"><time>2026-06-01T06:42:24Z</time></trkpt>
<trkpt lat="46.576986" lon="6.719447"><time>2026-06-01T06:42:32Z</time></trkpt>
<trkpt lat="46.577086" lon="6.719847"><time>2026-06-01T06:42:40Z</time></trkpt>
<trkpt lat="46.577186" lon="6.720247"><time>2026-06-01T06:42:48Z</time></trkpt>
<trkpt lat="46.577286" lon="6.720648"><time>2026-06-01T06:42:56Z</time></trkpt>
<trkpt lat="46.577386" lon="6.721048"><time>2026-06-01T06:43:04Z</time></trkpt>
<trkpt lat="46.577486" lon="6.721448"><time>2026-06-01T06:43:12Z</time></trkpt>
<trkpt lat="46.577586" lon="6.721847"><time>2026-06-01T06:43:20Z</time></trkpt>
<trkpt lat="46.577686" lon="6.722245"><time>2026-06-01T06:43:28Z</time></trkpt>
<trkpt lat="46.577786" lon="6.722643"><time>2026-06-01T06:43:36Z</time></trkpt>
<trkpt lat="46.577887" lon="6.723039"><time>2026-06-01T06:43:44Z</time></trkpt>
<trkpt lat="46.577987" lon="6.723435"><time>2026-06-01T06:43:52Z</time></trkpt>
<trkpt lat="46.578087" lon="6.723829"><time>2026-06-01T06:44:00Z</time></trkpt>
<trkpt lat="46.578187" lon="6.724222"><time>2026-06-01T06:44:08Z</time></trkpt>
<trkpt lat="46.578287" lon="6.724613"><time>2026-06-01T06:44:16Z</time></trkpt>
<trkpt lat="46.578387" lon="6.725003"><time>2026-06-01T06:44:24Z</time></trkpt>
<trkpt lat="46.578487" lon="6.725390"><time>2026-06-01T06:44:32Z</time></trkpt>
<trkpt lat="46.578587" lon="6.725776"><time>2026-06-01T06:44:40Z</time></trkpt>
<trkpt lat="46.578687" lon="6.726160"><time>2026-06-01T06:44:48Z</time></trkpt>
<trkpt lat="46.578788" lon="6.726541"><time>2026-06-01T06:44:56Z</time></trkpt>
<trkpt lat="46.578888" lon="6.726920"><time>2026-06-01T06:45:04Z</time></trkpt>
<trkpt lat="46.578988" lon="6.727296"><time>2026-06-01T06:45:12Z</time></trkpt>
<trkpt lat="46.579088" lon="6.727670"><time>2026-06-01T06:45:20Z</time></trkpt>
<trkpt lat="46.579188" lon="6.728041"><time>2026-06-01T06:45:28Z</time></trkpt>
<trkpt lat="46.579288" lon="6.728409"><time>2026-06-01T06:45:36Z</time></trkpt>
<trkpt lat="46.579388" lon="6.728775"><time>2026-06-01T06:45:44Z</time></trkpt>
<trkpt lat="46.579488" lon="6.729136"><time>2026-06-01T06:45:52Z</time></trkpt>
<trkpt lat="46.579588" lon="6.729495"><time>2026-06-01T06:46:00Z</time></trkpt>
<trkpt lat="46.579689" lon="6.729850"><time>2026-06-01T06:46:08Z</time></trkpt>
<trkpt lat="46.579789" lon="6.730202"><time>2026-06-01T06:46:16Z</time></trkpt>
<trkpt lat="46.579889" lon="6.730550"><time>2026-06-01T06:46:24Z</time></trkpt>
<trkpt lat="46.579989" lon="6.730894"><time>2026-06-01T06:46:32Z</time></trkpt>
<trkpt lat="46.580089" lon="6.731235"><time>2026-06-01T06:46:40Z</time></trkpt>
<trkpt lat="46.580189" lon="6.731571"><time>2026-06-01T06:46:48Z</time></trkpt>
<trkpt lat="46.580289" lon="6.731904"><time>2026-06-01T06:46:56Z</time></trkpt>
<trkpt lat="46.580389" lon="6.732232"><time>2026-06-01T06:47:04Z</time></trkpt>
<trkpt lat="46.580489" lon="6.732556"><time>2026-06-01T06:47:12Z</time></trkpt>
<trkpt lat="46.580590" lon="6.732875"><time>2026-06-01T06:47:20Z</time></trkpt>
<trkpt lat="46.580690" lon="6.733190"><time>2026-06-01T06:47:28Z</time></trkpt>
<trkpt lat="46.580790" lon="6.733500"><time>2026-06-01T06:47:36Z</time></trkpt>
<trkpt lat="46.580890" lon="6.733806"><time>2026-06-01T06:47:44Z</time></trkpt>
<trkpt lat="46.580990" lon="6.734107"><time>2026-06-01T06:47:52Z</time></trkpt>
<trkpt lat="46.581090" lon="6.734403"><time>2026-06-01T06:48:00Z</time></trkpt>
<trkpt lat="46.581190" lon="6.734694"><time>2026-06-01T06:48:08Z</time></trkpt>
<trkpt lat="46.581290" lon="6.734980"><time>2026-06-01T06:48:16Z</time></trkpt>
<trkpt lat="46.581390" lon="6.735261"><time>2026-06-01T06:48:24Z</time></trkpt>
<trkpt lat="46.581491" lon="6.735537"><time>2026-06-01T06:48:32Z</time></trkpt>
<trkpt lat="46.581591" lon="6.735807"><time>2026-06-01T06:48:40Z</time></trkpt>
<trkpt lat="46.581691" lon="6.736072"><time>2026-06-01T06:48:48Z</time></trkpt>
<trkpt lat="46.581791" lon="6.736332"><time>2026-06-01T06:48:56Z</time></trkpt>
<trkpt lat="46.581891" lon="6.736587"><time>2026-06-01T06:49:04Z</time></trkpt>
<trkpt lat="46.581991" lon="6.736835"><time>2026-06-01T06:49:12Z</time></trkpt>
<trkpt lat="46.582091" lon="6.737079"><time>2026-06-01T06:49:20Z</time></trkpt>
<trkpt lat="46.582191" lon="6.737316"><time>2026-06-01T06:49:28Z</time></trkpt>
<trkpt lat="46.582291" lon="6.737548"><time>2026-06-01T06:49:36Z</time></trkpt>
<trkpt lat="46.582392" lon="6.737775"><time>2026-06-01T06:49:44Z</time></trkpt>
<trkpt lat="46.582492" lon="6.737995"><time>2026-06-01T06:49:52Z</time></trkpt>
<trkpt lat="46.582592" lon="6.738210"><time>2026-06-01T06:50:00Z</time></trkpt>
<trkpt lat="46.582692" lon="6.738419"><time>2026-06-01T06:50:08Z</time></trkpt>
<trkpt lat="46.582792" lon="6.738622"><time>2026-06-01T06:50:16Z</time></trkpt>
<trkpt lat="46.582892" lon="6.738819"><time>2026-06-01T06:50:24Z</time></trkpt>
<trkpt lat="46.582992" lon="6.739010"><time>2026-06-01T06:50:32Z</time></trkpt>
<trkpt lat="46.583092" lon="6.739195"><time>2026-06-01T06:50:40Z</time></trkpt>
<trkpt lat="46.583192" lon="6.739375"><time>2026-06-01T06:50:48Z</time></trkpt>
<trkpt lat="46.583293" lon="6.739548"><time>2026-06-01T06:50:56Z</time></trkpt>
<trkpt lat="46.583393" lon="6.739716"><time>2026-06-01T06:51:04Z</time></trkpt>
<trkpt lat="46.583493" lon="6.739877"><time>2026-06-01T06:51:12Z</time></trkpt>
<trkpt lat="46.583593" lon="6.740032"><time>2026-06-01T06:51:20Z</time></trkpt>
<trkpt lat="46.583693" lon="6.740182"><time>2026-06-01T06:51:28Z</time></trkpt>
<trkpt lat="46.583793" lon="6.740325"><time>2026-06-01T06:51:36Z</time></trkpt>
<trkpt lat="46.583893" lon="6.740463"><time>2026-06-01T06:51:44Z</time></trkpt>
<trkpt lat="46.583993" lon="6.740594"><time>2026-06-01T06:51:52Z</time></trkpt>
<trkpt lat="46.584093" lon="6.740720"><time>2026-06-01T06:52:00Z</time></trkpt>
<trkpt lat="46.584194" lon="6.740840"><time>2026-06-01T06:52:08Z</time></trkpt>
<trkpt lat="46.584294" lon="6.740953"><time>2026-06-01T06:52:16Z</time></trkpt>
<trkpt lat="46.584394" lon="6.741061"><time>2026-06-01T06:52:24Z</time></trkpt>
<trkpt lat="46.584494" lon="6.741163"><time>2026-06-01T06:52:32Z</time></trkpt>
<trkpt lat="46.584594" lon="6.741259"><time>2026-06-01T06:52:40Z</time></trkpt>
<trkpt lat="46.584694" lon="6.741350"><time>2026-06-01T06:52:48Z</time></trkpt>
<trkpt lat="46.584794" lon="6.741434"><time>2026-06-01T06:52:56Z</time></trkpt>
<trkpt lat="46.584894" lon="6.741513"><time>2026-06-01T06:53:04Z</time></trkpt>
<trkpt lat="46.584994" lon="6.741586"><time>2026-06-01T06:53:12Z</time></trkpt>
<trkpt lat="46.585095" lon="6.741654"><time>2026-06-01T06:53:20Z</time></trkpt>
<trkpt lat="46.585195" lon="6.741716"><time>2026-06-01T06:53:28Z</time></trkpt>
<trkpt lat="46.585295" lon="6.741773"><time>2026-06-01T06:53:36Z</time></trkpt>
<trkpt lat="46.585395" lon="6.741824"><time>2026-06-01T06:53:44Z</time></trkpt>
<trkpt lat="46.585495" lon="6.741869"><time>2026-06-01T06:53:52Z</time></trkpt>
<trkpt lat="46.585595" lon="6.741910"><time>2026-06-01T06:54:00Z</time></trkpt>
<trkpt lat="46.585695" lon="6.741945"><time>2026-06-01T06:54:08Z</time></trkpt>
<trkpt lat="46.585795" lon="6.741975"><time>2026-06-01T06:54:16Z</time></trkpt>
<trkpt lat="46.585895" lon="6.742000"><time>2026-06-01T06:54:24Z</time></trkpt>
<trkpt lat="46.585996" lon="6.742020"><time>2026-06-01T06:54:32Z</time></trkpt>
<trkpt lat="46.586096" lon="6.742035"><time>2026-06-01T06:54:40Z</time></trkpt>
<trkpt lat="46.586196" lon="6.742045"><time>2026-06-01T06:54:48Z</time></trkpt>
<trkpt lat="46.586296" lon="6.742050"><time>2026-06-01T06:54:56Z</time></trkpt>
<trkpt lat="46.586396" lon="6.742051"><time>2026-06-01T06:55:04Z</time></trkpt>
<trkpt lat="46.586496" lon="6.742047"><time>2026-06-01T06:55:12Z</time></trkpt>
<trkpt lat="46.586596" lon="6.742038"><time>2026-06-01T06:55:20Z</time></trkpt>
<trkpt lat="46.586696" lon="6.742026"><time>2026-06-01T06:55:28Z</time></trkpt>
<trkpt lat="46.586796" lon="6.742008"><time>2026-06-01T06:55:36Z</time></trkpt>
<trkpt lat="46.586897" lon="6.741987"><time>2026-06-01T06:55:44Z</time></trkpt>
<trkpt lat="46.586997" lon="6.741962"><time>2026-06-01T06:55:52Z</time></trkpt>
<trkpt lat="46.587097" lon="6.741932"><time>2026-06-01T06:56:00Z</time></trkpt>
<trkpt lat="46.587197" lon="6.741899"><time>2026-06-01T06:56:08Z</time></trkpt>
<trkpt lat="46.587297" lon="6.741862"><time>2026-06-01T06:56:16Z</time></trkpt>
<trkpt lat="46.587397" lon="6.741822"><time>2026-06-01T06:56:24Z</time></trkpt>
<trkpt lat="46.587497" lon="6.741777"><time>2026-06-01T06:56:32Z</time></trkpt>
<trkpt lat="46.587597" lon="6.741730"><time>2026-06-01T06:56:40Z</time></trkpt>
<trkpt lat="46.587697" lon="6.741679"><time>2026-06-01T06:56:48Z</time></trkpt>
<trkpt lat="46.587798" lon="6.741625"><time>2026-06-01T06:56:56Z</time></trkpt>
<trkpt lat="46.587898" lon="6.741568"><time>2026-06-01T06:57:04Z</time></trkpt>
<trkpt lat="46.587998" lon="6.741508"><time>2026-06-01T06:57:12Z</time></trkpt>
<trkpt lat="46.588098" lon="6.741446"><time>2026-06-01T06:57:20Z</time></trkpt>
<trkpt lat="46.588198" lon="6.741380"><time>2026-06-01T06:57:28Z</time></trkpt>
<trkpt lat="46.588298" lon="6.741313"><time>2026-06-01T06:57:36Z</time></trkpt>
<trkpt lat="46.588398" lon="6.741243"><time>2026-06-01T06:57:44Z</time></trkpt>
<trkpt lat="46.588498" lon="6.741170"><time>2026-06-01T06:57:52Z</time></trkpt>
<trkpt lat="46.588598" lon="6.741096"><time>2026-06-01T06:58:00Z</time></trkpt>
<trkpt lat="46.588699" lon="6.741019"><time>2026-06-01T06:58:08Z</time></trkpt>
<trkpt lat="46.588799" lon="6.740941"><time>2026-06-01T06:58:16Z</time></trkpt>
<trkpt lat="46.588899" lon="6.740861"><time>2026-06-01T06:58:24Z</time></trkpt>
<trkpt lat="46.588999" lon="6.740780"><time>2026-06-01T06:58:32Z</time></trkpt>
<trkpt lat="46.589099" lon="6.740697"><time>2026-06-01T06:58:40Z</time></trkpt>
<trkpt lat="46.589199" lon="6.740613"><time>2026-06-01T06:58:48Z</time></trkpt>
<trkpt lat="46.589299" lon="6.740527"><time>2026-06-01T06:58:56Z</time></trkpt>
<trkpt lat="46.589399" lon="6.740441"><time>2026-06-01T06:59:04Z</time></trkpt>
<trkpt lat="46.589499" lon="6.740354"><time>2026-06-01T06:59:12Z</time></trkpt>
<trkpt lat="46.589600" lon="6.740266"><time>2026-06-01T06:59:20Z</time></trkpt>
<trkpt lat="46.589700" lon="6.740178"><time>2026-06-01T06:59:28Z</time></trkpt>
<trkpt lat="46.589800" lon="6.740089"><time>2026-06-01T06:59:36Z</time></trkpt>
<trkpt lat="46.589900" lon="6.740000"><time>2026-06-01T06:59:44Z</time></trkpt>
<trkpt lat="46.590000" lon="6.739911"><time>2026-06-01T06:59:52Z</time></trkpt>
</trkseg></trk></gpx>